Registered Provider Name,Outlet Name,Address,Phone,Email,Website,Open Hours,NDIS Category,X,Y
Each,EACH - Epping,"713 High Street, Epping, VIC 3076",1300 003 224,info@each.com.au,www.each.com.au,"Monday: 9AM-5PM, Tuesday: 9AM-5PM, Wednesday: 9AM-5PM, Thursday: 9AM-5PM, Friday: 9AM-5PM",Early Intervention for Young Children (0–7 years),145.0236817,-37.6509532
Shinemp Group Pty Ltd,SHINEMP GROUP,"140 Rosebank Drive, Cranbourne North, VIC 3977",0409 213 431,office@shinemp.com.au,www.shinemp.com.au,"Monday: 9AM-5PM, Tuesday: 9AM-5PM, Wednesday: 9AM-5PM, Thursday: 9AM-5PM, Friday: 9AM-5PM",Early Intervention for Young Children (0–7 years),145.2917131,-38.0762102
Mypal Home Care Pty Ltd,MYPAL HOME CARE,"27 Kirby Street, Reservoir, VIC 3073",0423 100 392,info@mypalhomecare.com.au,www.mypalhomecare.com.au,"Monday: 9AM-5PM, Tuesday: 9AM-5PM, Wednesday: 9AM-5PM, Thursday: 9AM-5PM, Friday: 9AM-5PM",Early Intervention for Young Children (0–7 years),145.0333978,-37.7310081
Assist Ability Australia Agency Pty Ltd,Assist Ability Australia Agency,"209 Melbourne Road, Williamstown, VIC 3016",0403 560 949,info@assistabilityaustralia.com.au,assistability.org,"Monday: 9AM-5PM, Tuesday: 9AM-5PM, Wednesday: 9AM-5PM, Thursday: 9AM-5PM, Friday: 9AM-5PM, Saturday: 9AM-5PM, Sunday: 9AM-5PM",Early Intervention for Young Children (0–7 years),144.8883938,-37.8507829
One Aus Care,One Aus Care,"42 Glencairn Crescent, Broadmeadows, VIC 3047",0466 895 399,kadirtola11@gmail.com,oneauscare.com.au,"Monday: 12AM-11PM, Tuesday: 12AM-11PM, Wednesday: 12AM-11PM, Thursday: 12AM-11PM, Friday: 12AM-11PM, Saturday: 12AM-11PM, Sunday: 12AM-11PM",Early Intervention for Young Children (0–7 years),144.9198872,-37.6666929
Connextions Limited,Connextions,"1a Footmark Court, West Wodonga, VIC 3690",0407 299 777,toni.reeves@connextions.org.au,www.connextions.org.au/,"Monday: 9AM-5PM, Tuesday: 9AM-5PM, Wednesday: 9AM-5PM, Thursday: 9AM-5PM, Friday: 9AM-5PM",Early Intervention for Young Children (0–7 years),146.8638739,-36.1137359
Blossom Community Care,Blossom Community Care,"Shop 7, 31 Springvale Road, Springvale, VIC 3171",0413 171 890,mak@blossomcommunitycare.com.au,www.blossomcommunitycare.com.au,"Monday: 9AM-5PM, Tuesday: 9AM-5PM, Wednesday: 9AM-5PM, Thursday: 9AM-5PM, Friday: 9AM-5PM",Early Intervention for Young Children (0–7 years),145.1558236,-37.9357096
You First,You First Disability Services,"Unit 128, 1 Queens Road, Melbourne, VIC 3004",1300 525 656,info@youfirstservices.com.au,www.youfirstservices.com.au,"Monday: 9AM-5PM, Tuesday: 9AM-5PM, Wednesday: 9AM-5PM, Thursday: 9AM-5PM, Friday: 9AM-5PM",Early Intervention for Young Children (0–7 years),144.9738764,-37.8357725
Angels Of Mercy Home Care Pty Ltd,Angels Of Mercy Home Care,"96 Wheatsheaf Road, Glenroy, VIC 3046",0400 607 070,info@angelsofmercy.com.au,www.angelsofmercy.com.au,"Monday: 9AM-5PM, Tuesday: 9AM-5PM, Wednesday: 9AM-5PM, Thursday: 9AM-5PM, Friday: 9AM-5PM, Saturday: 9AM-1PM",Early Intervention for Young Children (0–7 years),144.9191294,-37.7061327
Each,EACH - Box Hill,"Suite 2, 26-28 Prospect St, Box Hill, VIC 3128",1300 003 224,info@each.com.au,www.each.com.au,"Monday: 9AM-5PM, Tuesday: 9AM-5PM, Wednesday: 9AM-5PM, Thursday: 9AM-5PM, Friday: 9AM-5PM, Saturday: 9AM-5PM, Sunday: 9AM-5PM",Early Intervention for Young Children (0–7 years),145.117496,-37.8177671
Risky Kids,Risky Kids,"635 Macclesfield Road, Macclesfield, VIC 3782",0437 700 544,ndis@riskykids.com,www.riskykids.com,"Monday: 9AM-10PM, Tuesday: 9AM-10PM, Wednesday: 9AM-10PM, Thursday: 9AM-10PM, Friday: 9AM-10PM, Saturday: 9AM-10PM",Early Intervention for Young Children (0–7 years),145.478767,-37.8692311




























































































































































































































































































































































































































































































































































































































































































































































































































































































































































































































