Outlet Name,Address,Phone,Email,Website,Open Hours,NDIS Category,Y,X
Biala Peninsula Mornington,"1 Elizabeth Street, Mornington, VIC 3931",03 5975 1820,mfox@bialapeninsula.org.au,https://www.bialapeninsula.org.au,"Monday: 8AM-6PM, Tuesday: 8AM-6PM, Wednesday: 8AM-6PM, Thursday: 8AM-6PM, Friday: 8AM-6PM, Saturday: 8AM-4PM",Professional Therapy for Autistic Children,-38.2249749,145.0430693
Sound It Out Speech,"Unit 27a Parliament Of Victoria, 797 Plenty Road, South Morang, VIC 3752",03 9100 3410,info@sounditout.com.au,www.sounditout.com.au,"Monday: 9AM-5PM, Tuesday: 9AM-5PM, Wednesday: 9AM-5PM, Thursday: 9AM-5PM, Friday: 9AM-5PM, Saturday: 9AM-1PM, Sunday: 9AM-10AM",Professional Therapy for Autistic Children,-37.6517556,145.0859519
Peninsula Plus - Frankston,"Level 1, 20 Davey Street, Frankston, VIC 3199",03 5975 1500,admin@penplus.com.au,www.peninsulaplus.com.au,"Monday: 9AM-5PM, Tuesday: 9AM-5PM, Wednesday: 9AM-5PM, Thursday: 9AM-5PM, Friday: 9AM-5PM, Saturday: 9AM-5PM, Sunday: 9AM-5PM",Professional Therapy for Autistic Children,-38.1465138,145.1216338
healthAbility Support Coordination East,"41-43 Carrington Road, Box Hill, VIC 3128",03 9430 3123,ndis@healthability.org.au,www.healthability.org.au,"Monday: 9AM-5PM, Tuesday: 9AM-5PM, Wednesday: 9AM-5PM, Thursday: 9AM-5PM, Friday: 9AM-5PM, Saturday: 9AM-5PM, Sunday: 9AM-5PM",Professional Therapy for Autistic Children,-37.820247,145.121398
North East Melbourne Area,"5 Ethel Street, Thornbury, VIC 3071",1300 558 368,corporate@genu.org.au,www.genu.org.au,"Monday: 9AM-5PM, Tuesday: 9AM-5PM, Wednesday: 9AM-5PM, Thursday: 9AM-5PM, Friday: 9AM-5PM",Professional Therapy for Autistic Children,-37.754184,144.998973
Diverse Care Australia,"15 Palermo Street, Greenvale, VIC 3059",0415 483 600,sema.yildiz@yahoo.com,www.diversecareaus.com.au,"Monday: 12AM-11PM, Tuesday: 12AM-11PM, Wednesday: 12AM-11PM, Thursday: 12AM-11PM, Friday: 12AM-11PM, Saturday: 12AM-11PM, Sunday: 12AM-11PM",Professional Therapy for Autistic Children,-37.6244847,144.882083
Yooralla's Support Coord Outer East,"U 5 796 High St, Kew East, VIC 3102",1800 966 725,intake@yooralla.com.au,www.yooralla.com.au,"Monday: 9AM-5PM, Tuesday: 9AM-5PM, Wednesday: 9AM-5PM, Thursday: 9AM-5PM, Friday: 9AM-5PM, Saturday: 9AM-5PM, Sunday: 9AM-5PM",Professional Therapy for Autistic Children,-37.7965221,145.0575636
The Bridge Connects Macleod,"88 Mcnamara Street, Macleod, VIC 3085",03 9459 8175,csteventon@thebridgeinc.org.au,www.thebridgeinc.org.au,"Monday: 8AM-5PM, Tuesday: 8AM-5PM, Wednesday: 8AM-5PM, Thursday: 8AM-5PM, Friday: 8AM-10PM, Saturday: 9AM-6PM, Sunday: 9AM-6PM",Professional Therapy for Autistic Children,-37.7253822,145.0683747
Second Skin,"70 New Dookie Road, Shepparton, VIC 3630",03 8637 0297,melbourne@secondskin.com.au,www.secondskin.com.au,"Monday: 9AM-5PM, Tuesday: 9AM-5PM, Wednesday: 9AM-5PM, Thursday: 9AM-5PM, Friday: 9AM-5PM",Professional Therapy for Autistic Children,-36.3673176,145.4230963
Noahs Ark - Craigieburn,"65-75 Interlink Drive, Craigieburn, VIC 3064",1800 819 140,hello@noahsarkinc.org.au,www.noahsarkinc.org.au,"Monday: 9AM-5PM, Tuesday: 9AM-5PM, Wednesday: 9AM-5PM, Thursday: 9AM-5PM, Friday: 9AM-5PM, Saturday: 9AM-5PM, Sunday: 9AM-5PM",Professional Therapy for Autistic Children,-37.6032092,144.9467429
Gippsland Physiotherapy Group,"95 Queen Street, Warragul, VIC 3820",03 5623 6989,warragul@gpg.com.au,www.physiochoice.com.au,"Monday: 8AM-7PM, Tuesday: 8AM-7PM, Wednesday: 8AM-7PM, Thursday: 8AM-7PM, Friday: 8AM-6PM, Saturday: 8AM-1PM, Sunday: 9AM-5PM",Professional Therapy for Autistic Children,-38.1636765,145.9319537
Next Door Psychology,"10 Bridge Street, Werribee, VIC 3030",01 0079 5292,admin@nextdoorpsych.com.au,www.nextdoorpsych.com.au,"Monday: 9AM-5PM, Tuesday: 9AM-5PM, Wednesday: 9AM-5PM, Thursday: 9AM-5PM, Friday: 9AM-5PM",Professional Therapy for Autistic Children,-37.9036287,144.6616261
Calvary Health Care Bethlehem,"476 Kooyong Road, Caulfield South, VIC 3162",03 9834 9380,bethlehemndis@calvarycare.org.au,www.bethlehem.org.au,"Monday: 9AM-5PM, Tuesday: 9AM-5PM, Wednesday: 9AM-5PM, Thursday: 9AM-5PM, Friday: 9AM-5PM",Professional Therapy for Autistic Children,-37.8969028,145.0132125
Maxvale Physiotherapy,"Office 2, 981 North Road, Murrumbeena, VIC 3163",03 8759 1623,maxvale.physio@gmail.com,www.maxvalephysio.com.au,"Monday: 9AM-7PM, Tuesday: 9AM-7PM, Wednesday: 9AM-7PM, Thursday: 9AM-7PM, Friday: 9AM-7PM, Saturday: 9AM-7PM",Professional Therapy for Autistic Children,-37.9071992,145.0681358
Cameron Wellness Centre,"855 Plenty Road, South Morang, VIC 3752",1800 000 292,dsardellis@cameronwellnesscentre.com.au,www.cameronwellnesscentre.com.au,"Monday: 8AM-5PM, Tuesday: 8AM-5PM, Wednesday: 8AM-5PM, Thursday: 8AM-5PM, Friday: 8AM-5PM",Professional Therapy for Autistic Children,-37.6489788,145.089981
Livfit Physio Mornington,"Suite 3, 11 Railway Grove, Mornington, VIC 3931",03 5976 8447,n.rickard@livfitphysio.com.au,https://livfitphysio.com.au/,"Monday: 7AM-8PM, Tuesday: 7AM-8PM, Wednesday: 7AM-8PM, Thursday: 7AM-8PM, Friday: 7AM-8PM",Professional Therapy for Autistic Children,-38.2176364,145.0379535
Coordination Hub Australia,"12 Dimboola Road, Broadmeadows, VIC 3047",0413 616 432,gamal@careon.com.au,careon.com.au,"Monday: 9AM-5PM, Tuesday: 9AM-5PM, Wednesday: 9AM-5PM, Thursday: 9AM-5PM, Friday: 9AM-5PM",Professional Therapy for Autistic Children,-37.6826691,144.9170614
Neurolife,"2 George Street, Doncaster East, VIC 3109",0424 017 771,physio@neurolife.com.au,www.neurolife.com.au,"Monday: 9AM-5PM, Tuesday: 9AM-5PM, Wednesday: 9AM-5PM, Thursday: 9AM-5PM, Friday: 9AM-5PM, Saturday: 9AM-5PM, Sunday: 9AM-5PM",Professional Therapy for Autistic Children,-37.7827254,145.1622803
Konekt Ballarat,"Suite 5, Ballarat Family Health Care, 1050 Howitt Street, Ballarat, VIC 3350",1300 723 375,ndis@konekt.com.au,www.konekt.com.au,"Monday: 8AM-5PM, Tuesday: 8AM-5PM, Wednesday: 8AM-5PM, Thursday: 8AM-5PM, Friday: 8AM-5PM",Professional Therapy for Autistic Children,-37.540594,143.8378686
Rivergum Allied Therapies,"708 Skipton Street, Redan, VIC 3350",03 4310 2686,info@rivergumalliedtherapies.com.au,www.rivergumalliedtherapies.com.au,"Monday: 9AM-5PM, Tuesday: 9AM-5PM, Wednesday: 9AM-5PM, Thursday: 9AM-5PM, Friday: 9AM-5PM",Professional Therapy for Autistic Children,-37.5782556,143.8424471
"KidsPT- Bundoora, Physiotherapist","43 Hughes Circuit, Bundoora, VIC 3083",03 9490 0999,info@kidspt.com.au,www.kidspt.com.au,"Monday: 9AM-5PM, Tuesday: 9AM-5PM, Wednesday: 9AM-5PM, Thursday: 9AM-5PM, Friday: 9AM-5PM, Saturday: 9AM-5PM, Sunday: 9AM-5PM",Professional Therapy for Autistic Children,-37.6875237,145.0730579
Adapt OT,"108 Gheringhap Street, Geelong, VIC 3220",0433 195 408,peta@adaptot.com.au,www.adaptot.com.au,"Monday: 9AM-5PM, Tuesday: 9AM-5PM, Wednesday: 9AM-5PM, Thursday: 9AM-5PM, Friday: 9AM-5PM",Professional Therapy for Autistic Children,-38.1517932,144.3553412
Kieser Caulfield,"189-191 Balaclava Road, Caulfield North, VIC 3161",03 8554 1155,caulfield@kieser.com.au,www.kieser.com.au,"Monday: 6AM-8PM, Tuesday: 6AM-8PM, Wednesday: 6AM-8PM, Thursday: 6AM-8PM, Friday: 6AM-7PM, Saturday: 7AM-3PM, Sunday: 8AM-1PM",Professional Therapy for Autistic Children,-37.8726875,145.0225974
Noahs Ark - Bairnsdale,"306 Main St, Bairnsdale, VIC 3875",1800 819 140,hello@noahsarkinc.org.au,www.noahsarkinc.org.au,"Monday: 9AM-5PM, Tuesday: 9AM-5PM, Wednesday: 9AM-5PM, Thursday: 9AM-5PM, Friday: 9AM-5PM, Saturday: 9AM-5PM, Sunday: 9AM-5PM",Professional Therapy for Autistic Children,-37.8268353,147.6252904
Everyday Independence Peninsula,"Unit 2, 10 Blamey Place, Mornington, VIC 3931",1300 179 131,mytherapy@everydayind.com.au,www.everydayind.com.au,"Monday: 9AM-5PM, Tuesday: 9AM-5PM, Wednesday: 9AM-5PM, Thursday: 9AM-5PM, Friday: 9AM-5PM",Professional Therapy for Autistic Children,-38.2213201,145.0404559
North East Life Yarrawonga,"24 Belmore Street, Yarrawonga, VIC 3730",03 5743 1142,yarrawonga@nelife.com.au,www.nelife.com.au,"Monday: 9AM-5PM, Tuesday: 9AM-5PM, Wednesday: 9AM-5PM, Thursday: 9AM-5PM, Friday: 9AM-5PM",Professional Therapy for Autistic Children,-36.0096239,146.0048561
Pace Occupational Therapy,"24 Yuille Street, Frankston, VIC 3199",03 9770 6770,info@pacehm.com.au,www.pacehm.com.au,"Monday: 9AM-5PM, Tuesday: 9AM-5PM, Wednesday: 9AM-5PM, Thursday: 9AM-5PM, Friday: 9AM-5PM",Professional Therapy for Autistic Children,-38.1532745,145.1245717
genU Karingal St Laurence Barwon,"21-29 Reynolds Road, Highton, VIC 3216",1300 558 368,coporate@genu.org.au,www.genu.org.au,"Monday: 9AM-5PM, Tuesday: 9AM-5PM, Wednesday: 9AM-5PM, Thursday: 9AM-5PM, Friday: 9AM-5PM",Professional Therapy for Autistic Children,-38.1874497,144.3239436
Konekt Cranbourne,"201 High Street, Cranbourne, VIC 3977",1300 723 375,ndis@konekt.com.au,www.konekt.com.au,"Monday: 8AM-5PM, Tuesday: 8AM-5PM, Wednesday: 8AM-5PM, Thursday: 8AM-5PM, Friday: 8AM-5PM",Professional Therapy for Autistic Children,-38.1031753,145.281978
North East Life Wodonga,"Wodonga Sports & Leisure Centre, 2 Hedgerow Ct, West Wodonga, VIC 3690",02 6059 7668,wodonga@nelife.com.au,www.nelife.com.au,"Monday: 7AM-10AM, Tuesday: 9AM-5PM, Wednesday: 7AM-10AM, Thursday: 9AM-5PM, Friday: 7AM-10AM, Saturday: 9AM-5PM, Sunday: 9AM-5PM",Professional Therapy for Autistic Children,-36.127152,146.863127
Therapy Pro - NE Melbourne,"Mobile Service - We Come To You!, Hotham St, Preston, VIC 3072",1300 004 414,info@therapypro.com.au,www.therapypro.com.au,"Monday: 9AM-5PM, Tuesday: 9AM-5PM, Wednesday: 9AM-5PM, Thursday: 9AM-5PM, Friday: 9AM-5PM, Saturday: 9AM-5PM, Sunday: 9AM-5PM",Professional Therapy for Autistic Children,-37.7491783,145.0069914
Bayside Counselling and Consultation Pty,"Suite 5a, 70 Kingsway, Glen Waverley, VIC 3150",03 9781 0155,info@byasidecounselling.com.au,www.baysidecounselling.com.au,"Monday: 9AM-6PM, Tuesday: 9AM-6PM, Wednesday: 9AM-6PM, Thursday: 9AM-6PM, Friday: 9AM-6PM",Professional Therapy for Autistic Children,-37.8806815,145.1639999
Mastering Our Minds,"Suite 1, 428 Burke Road, Camberwell, VIC 3124",03 9835 9988,susan@mom.com.au,www.mom.com.au,"Monday: 12PM-8PM, Tuesday: 12PM-8PM, Wednesday: 12PM-8PM, Thursday: 12PM-8PM, Friday: 12PM-8PM",Professional Therapy for Autistic Children,-37.8443907,145.0546349
Speaking of Learning Speech Pathology,"10-12 Warrandyte Road, Ringwood, VIC 3134",03 9873 7043,info@speakingoflearning.com.au,www.speakingoflearning.com.au,Monday: 9AM-5PM,Professional Therapy for Autistic Children,-37.8131121,145.2311427
Physio Plus Cheltenham,"Unit 1, 12 Jamieson Street, Cheltenham, VIC 3192",03 9553 7024,cheltenham@physioplus.com.au,www.physioplus.com.au,"Monday: 7AM-7PM, Tuesday: 7AM-7PM, Wednesday: 7AM-7PM, Thursday: 7AM-7PM, Friday: 7AM-7PM",Professional Therapy for Autistic Children,-37.9608215,145.0555525
Cathartic Consulting,"72a Lincoln Road, Essendon, VIC 3040",0411 576 573,info@catharticconsulting.com.au,www.catharticconsulting.com.au,"Monday: 8AM-8PM, Tuesday: 8AM-8PM, Wednesday: 8AM-8PM, Thursday: 8AM-8PM, Friday: 8AM-8PM, Saturday: 8AM-5PM",Professional Therapy for Autistic Children,-37.745996,144.9100249
National 360 Deer Park,"Office 10 & 11, 19 Radnor Drive, Deer Park, VIC 3023",1300 340 440,vic@national360.com.au,www.national360.com.au,"Monday: 8AM-5PM, Tuesday: 8AM-5PM, Wednesday: 8AM-5PM, Thursday: 8AM-5PM, Friday: 8AM-5PM",Professional Therapy for Autistic Children,-37.7819451,144.7741333
National 360 Bundoora,"8b, 9 Ormond Boulevard, Bundoora, VIC 3083",1300 340 440,vic@national360.com.au,www.national360.com.au,"Monday: 8AM-5PM, Tuesday: 8AM-5PM, Wednesday: 8AM-5PM, Thursday: 8AM-5PM, Friday: 8AM-5PM",Professional Therapy for Autistic Children,-37.6789621,145.0712379
Noahs Ark - Ballarat,"25 Barkly Street, Ballarat East, VIC 3350",1800 819 140,hello@noahsarkinc.org.au,www.noahsarkinc.org.au,"Monday: 9AM-5PM, Tuesday: 9AM-5PM, Wednesday: 9AM-5PM, Thursday: 9AM-5PM, Friday: 9AM-5PM, Saturday: 9AM-5PM, Sunday: 9AM-5PM",Professional Therapy for Autistic Children,-37.5640498,143.8690385
One Step Two Step - Carnegie,"Suite 1, 63 Rosstown Road, Carnegie, VIC 3163",03 7302 8333,info@onesteptwostep.com.au,www.onesteptwostep.com.au,"Monday: 7AM-5PM, Tuesday: 7AM-5PM, Wednesday: 7AM-5PM, Thursday: 7AM-5PM, Friday: 7AM-5PM",Professional Therapy for Autistic Children,-37.8858245,145.0565637
Foot Choice & Allied Health,"269 Barkly Street, Footscray, VIC 3011",03 9687 2365,info@footchoice.com.au,https://www.footchoice.com.au,"Monday: 9AM-5PM, Tuesday: 9AM-5PM, Wednesday: 9AM-5PM, Thursday: 9AM-5PM, Friday: 9AM-5PM, Saturday: 9AM-5PM",Professional Therapy for Autistic Children,-37.799584,144.8952931
Splash Paediatric Therapy - Werribee Cli,"242 Hoppers Lane, Werribee, VIC 3030",03 8731 6555,info@splashtherapy.com.au,www.splashtherapy.com.au,"Monday: 8AM-5PM, Tuesday: 8AM-5PM, Wednesday: 8AM-5PM, Thursday: 8AM-5PM, Friday: 8AM-5PM, Saturday: 9AM-5PM",Professional Therapy for Autistic Children,-37.8864289,144.701105
Living Without Boundaries,"2 Coxs Garden, Williamstown, VIC 3016",03 8418 3618,carly@livingwb.com.au,www.livingwb.com.au,"Monday: 9AM-5PM, Tuesday: 9AM-5PM, Wednesday: 9AM-5PM, Thursday: 9AM-5PM, Friday: 9AM-5PM",Professional Therapy for Autistic Children,-37.8586267,144.8988984
Gippsland Physiotherapy Group,"11-15 Lloyd Street, Moe, VIC 3825",03 5126 1349,moe@gpg.com.au,www.physiochoice.com.au,"Monday: 8AM-7PM, Tuesday: 8AM-7PM, Wednesday: 8AM-7PM, Thursday: 8AM-7PM, Friday: 8AM-6PM, Saturday: 8AM-12PM, Sunday: 9AM-5PM",Professional Therapy for Autistic Children,-38.1774534,146.2633574
MYPHYSIO HUB,"10 Elmtree Terrace, Chadstone, VIC 3148",0405 004 379,info.myphysiohub@gmail.com,www.myphysiohub.com,"Tuesday: 8AM-4PM, Friday: 4PM-8PM, Saturday: 8AM-1PM",Professional Therapy for Autistic Children,-37.8825633,145.106646
Yooralla's Comm and Assistive Tech,"49 Sun Crescent, Sunshine, VIC 3020",1800 966 725,intake@yooralla.com.au,www.yooralla.com.au,"Monday: 9AM-5PM, Tuesday: 9AM-5PM, Wednesday: 9AM-5PM, Thursday: 9AM-5PM, Friday: 9AM-5PM",Professional Therapy for Autistic Children,-37.7863649,144.8278802
MATRIX NEUROPSYCHOLOGY,"Suite 3 493-495 Keilor Road, Niddrie, VIC 3042",03 7015 2194,admin@matrixnp.com.au,www.matrixnp.com.au,"Monday: 9AM-5PM, Tuesday: 9AM-5PM, Wednesday: 9AM-5PM, Thursday: 9AM-5PM, Friday: 9AM-5PM, Saturday: 9AM-1PM",Professional Therapy for Autistic Children,-37.7359167,144.8880312
Kieser Collingwood,"370 Smith Street, Collingwood, VIC 3066",03 9445 7900,collingwood@kieser.com.au,www.kieser.com.au,"Monday: 6AM-8PM, Tuesday: 6AM-8PM, Wednesday: 6AM-8PM, Thursday: 6AM-8PM, Friday: 6AM-7PM, Saturday: 7AM-3PM, Sunday: 8AM-1PM",Professional Therapy for Autistic Children,-37.7978857,144.9846335
Everyday Independence - North Eastern Me,"Unit 24, 1 Danaher Drive, South Morang, VIC 3752",1300 179 131,mytherapy@everydayind.com.au,www.everydayind.com.au,"Monday: 9AM-5PM, Tuesday: 9AM-5PM, Wednesday: 9AM-5PM, Thursday: 9AM-5PM, Friday: 9AM-5PM",Professional Therapy for Autistic Children,-37.6498728,145.0800494
AID & ABET PTY LTD,"Unit 2, 10 Shirley Street, Fawkner, VIC 3060",0481 943 690,info@aidabetds.com.au,www.carelife.com.au,"Monday: 9AM-9PM, Tuesday: 9AM-9PM, Wednesday: 9AM-9PM, Thursday: 9AM-9PM, Friday: 9AM-9PM, Saturday: 9AM-9PM, Sunday: 9AM-9PM",Professional Therapy for Autistic Children,-37.7029763,144.9627806
National 360 Wodonga,"Level 1, Office 18, 38 High Street, Wodonga, VIC 3690",1300 340 440,vic@national360.com.au,www.national360.com.au,"Monday: 8AM-5PM, Tuesday: 8AM-5PM, Wednesday: 8AM-5PM, Thursday: 8AM-5PM, Friday: 8AM-5PM",Professional Therapy for Autistic Children,-36.1147644,146.8924918
WHR Allied Health,"40 Baines Crescent, Torquay, VIC 3228",03 5261 9037,admin@whralliedhealth.com,www.whralliedhealth.com,"Monday: 6AM-9PM, Tuesday: 6AM-9PM, Wednesday: 6AM-9PM, Thursday: 6AM-9PM, Friday: 6AM-9PM, Saturday: 10AM-2PM, Sunday: 10AM-2PM",Professional Therapy for Autistic Children,-38.32619,144.3130934
Prag Consulting,"Unit 7, 385 Belmore Road, Balwyn, VIC 3103",0499 778 999,info@pragconsulting.com.au,https://www.pragconsulting.com.au/,"Monday: 9AM-5PM, Tuesday: 9AM-5PM, Wednesday: 9AM-5PM, Thursday: 9AM-5PM, Friday: 9AM-5PM",Professional Therapy for Autistic Children,-37.8038363,145.1012902
neurocare East Melbourne,"232 Victoria Parade, East Melbourne, VIC 3002",03 9816 8811,eastmelbourne@neurocaregroup.com,www.listenandlearn.com.au,Monday: 9AM-5PM,Professional Therapy for Autistic Children,-37.8091875,144.9796418
Kieser Essendon,"26 Leake St, Essendon, VIC 3040",03 9326 1111,essendon@kieser.com.au,www.kieser.com.au,"Monday: 6AM-8PM, Tuesday: 6AM-8PM, Wednesday: 6AM-8PM, Thursday: 6AM-8PM, Friday: 6AM-7PM, Saturday: 7AM-3PM, Sunday: 8AM-1PM",Professional Therapy for Autistic Children,-37.7466015,144.9098593
Noahs Ark - Bendigo,"10 Merino Ct, Bendigo, VIC 3550",1800 819 140,hello@noahsarkinc.org.au,www.noahsarkinc.org.au,"Monday: 9AM-5PM, Tuesday: 9AM-5PM, Wednesday: 9AM-5PM, Thursday: 9AM-5PM, Friday: 9AM-5PM, Saturday: 9AM-5PM, Sunday: 9AM-5PM",Professional Therapy for Autistic Children,-36.7526549,144.3066803
Play Therapy Melbourne Moonee Ponds,"Mt Alexander Road, Moonee Ponds, VIC 3039",03 9439 2450,enquiries@playtherapymelbourne.com,www.playtherapymelbourne.com,"Monday: 8AM-5PM, Tuesday: 8AM-5PM, Wednesday: 8AM-5PM, Thursday: 8AM-5PM, Friday: 8AM-5PM, Saturday: 8AM-5PM",Professional Therapy for Autistic Children,-37.7617643,144.9215262
Living Without Boundaries Occupational T,"Unit 3, 127 Bolton Street, Eltham, VIC 3095",0435 750 292,carly@livingwb.com.au,www.livingwb.com.au,"Monday: 12PM-3PM, Tuesday: 9AM-5PM, Wednesday: 10AM-7PM, Thursday: 10AM-5PM, Friday: 9AM-5PM, Saturday: 9AM-10AM, Sunday: 9AM-10AM",Professional Therapy for Autistic Children,-37.731733,145.134357
Building Blocks Thearpy Bundoora,"Unit 5, 19 Enterprise Drive, Bundoora, VIC 3083",03 9404 0338,info@buildingblockstherapy.com.au,www.buildingblockstherapy.com.au,Monday: 9AM-5PM,Professional Therapy for Autistic Children,-37.6849329,145.0708854
Thrive4Life Therapy,"30 Welsford Street, Shepparton, VIC 3630",0429 955 851,admin@thrive4lifeot.com.au,https://www.thrive4lifeot.com.au/,"Monday: 9AM-5PM, Tuesday: 9AM-5PM, Wednesday: 9AM-5PM, Thursday: 9AM-5PM, Friday: 9AM-5PM",Professional Therapy for Autistic Children,-36.3755778,145.3985707
Yooralla's Support Coordination Bayside,"319 Neerim Rd, Carnegie, VIC 3163",1800 966 725,intake@yooralla.com.au,www.yooralla.com.au,"Monday: 9AM-5PM, Tuesday: 9AM-5PM, Wednesday: 9AM-5PM, Thursday: 9AM-5PM, Friday: 9AM-5PM, Saturday: 9AM-5PM, Sunday: 9AM-5PM",Professional Therapy for Autistic Children,-37.8894403,145.0576673
Hallmark OT - Wellington,"Mobile Service, Acacia Court, Sale, VIC 3850",0429 557 127,admin@hws.net.au,https://www.hallmarkoccupationaltherapy.com.au,"Monday: 9AM-4PM, Tuesday: 9AM-4PM, Wednesday: 9AM-4PM, Thursday: 9AM-4PM, Friday: 9AM-4PM, Saturday: 10AM-1PM, Sunday: 11AM-1PM",Professional Therapy for Autistic Children,-38.1161215,147.0919209
Play Therapy Melbourne - Geelong,"337 Ryrie Street, Geelong, VIC 3220",03 9439 2450,enquiries@playthearpymelbourne.com,www.playtherapymelbourne.com,"Monday: 8AM-5PM, Tuesday: 8AM-5PM, Wednesday: 8AM-5PM, Thursday: 8AM-5PM, Friday: 8AM-5PM, Saturday: 8AM-5PM",Professional Therapy for Autistic Children,-38.1515087,144.3685382
Community Solutions,"1253 Nepean Highway, Cheltenham, VIC 3192",1300 770 145,angela.brown@communitysolutions.org.au,www.communitysolutions.org.au,"Monday: 9AM-5PM, Tuesday: 9AM-5PM, Wednesday: 9AM-5PM, Thursday: 9AM-5PM, Friday: 9AM-5PM",Professional Therapy for Autistic Children,-37.961024,145.0552378
"KidsPT- Reservoir, Physiotherapist","1/11 Borrie Street, Reservoir, VIC 3073",03 9490 0999,info@kidspt.com.au,www.kidspt.com.au,"Monday: 9AM-5PM, Tuesday: 9AM-5PM, Wednesday: 9AM-5PM, Thursday: 9AM-5PM, Friday: 9AM-5PM, Saturday: 9AM-5PM, Sunday: 9AM-5PM",Professional Therapy for Autistic Children,-37.7072902,145.019764
Grow Psychology Pty Ltd,"82 Reid St, South Morang, VIC 3752",03 9847 0833,info@growpsychology.co.au,growpsychology.com.au,"Monday: 9AM-5PM, Tuesday: 9AM-5PM, Wednesday: 9AM-5PM, Thursday: 9AM-5PM, Friday: 9AM-5PM, Saturday: 9AM-5PM",Professional Therapy for Autistic Children,-37.652001,145.0897041
Everyday Independence Ballarat,"223 Doveton Street South, Ballarat Central, VIC 3350",1300 179 131,mytherapy@everydayind.com.au,www.everydayind.com.au,"Monday: 9AM-5PM, Tuesday: 9AM-5PM, Wednesday: 9AM-5PM, Thursday: 9AM-5PM, Friday: 9AM-5PM",Professional Therapy for Autistic Children,-37.5657334,143.8540546
ENRICH PHYSIO - TAYLORS HILL,"Taylors Hill Village, Taylors Hill Boulevard, Taylors Hill Village, VIC 3037",1300 236 742,admin@enrichphysio.com.au,www.enrichphysio.com.au,"Monday: 9AM-5PM, Tuesday: 9AM-5PM, Wednesday: 9AM-5PM, Thursday: 9AM-5PM, Friday: 9AM-5PM, Saturday: 9AM-5PM, Sunday: 9AM-5PM",Professional Therapy for Autistic Children,-37.707446,144.748452
National 360 Geelong,"Office 4, 343 Pakington Street, Newtown, VIC 3220",1300 340 440,vic@national360.com.au,www.national360.com.au,"Monday: 8AM-5PM, Tuesday: 8AM-5PM, Wednesday: 8AM-5PM, Thursday: 8AM-5PM, Friday: 8AM-5PM",Professional Therapy for Autistic Children,-38.1573077,144.3449268
Living Without Boundaries,"95 Ferguson Street, Williamstown, VIC 3016",03 8418 3618,adminsupport@livingwb.com.au,https://livingwb.com.au/,"Monday: 8AM-5PM, Tuesday: 8AM-5PM, Wednesday: 8AM-5PM, Thursday: 8AM-5PM, Friday: 8AM-5PM, Saturday: 9AM-1PM",Professional Therapy for Autistic Children,-37.859053,144.896702
Physio Plus Footscray,"1-3 Whitehall Street, Footscray, VIC 3011",03 9689 0222,footscray@physioplus.com.au,www.physioplus.com.au,"Monday: 9AM-5PM, Tuesday: 9AM-5PM, Wednesday: 9AM-5PM, Thursday: 9AM-5PM, Friday: 9AM-5PM",Professional Therapy for Autistic Children,-37.8017418,144.9060502
Birch tree Psyhcology,"125 Wills Street, Bendigo, VIC 3550",03 5454 3956,accounts.bendigo@succoris.com.au,www.succoris.com.au,"Monday: 9AM-5PM, Tuesday: 9AM-5PM, Wednesday: 9AM-5PM, Thursday: 9AM-5PM, Friday: 9AM-5PM",Professional Therapy for Autistic Children,-36.7668452,144.2759117
Everyday Independence North Western Melb,"31 Craigieburn Road, Craigieburn, VIC 3064",1300 179 131,mytherapy@everydayind.com.au,www.everydayind.com.au,"Monday: 9AM-5PM, Tuesday: 9AM-5PM, Wednesday: 9AM-5PM, Thursday: 9AM-5PM, Friday: 9AM-5PM",Professional Therapy for Autistic Children,-37.5990602,144.9392273
Everyday Independence Bayside,"942 Nepean Highway, Moorabbin, VIC 3189",1300 179 131,mytherapy@everydayind.com.au,www.everydayind.com.au,"Monday: 8AM-6PM, Tuesday: 8AM-6PM, Wednesday: 8AM-6PM, Thursday: 8AM-6PM, Friday: 8AM-6PM, Saturday: 8AM-6PM, Sunday: 8AM-6PM",Professional Therapy for Autistic Children,-37.93667,145.036734
National 360 Dandenong,"Unit 2, 80 Monash Drive, Dandenong South, VIC 3175",1300 340 440,vic@national360.com.au,www.national360.com.au,"Monday: 8AM-5PM, Tuesday: 8AM-5PM, Wednesday: 8AM-5PM, Thursday: 8AM-5PM, Friday: 8AM-5PM",Professional Therapy for Autistic Children,-38.0402507,145.2427099
Elevate Physiotherapy and Pilates,"218 Whitehorse Road, Balwyn, VIC 3103",03 9836 1126,admin@elevatephysiobalwyn.com.au,https://www.elevatephysiobalwyn.com.au/,"Monday: 8AM-8PM, Tuesday: 8AM-8PM, Wednesday: 8AM-8PM, Thursday: 8AM-8PM, Friday: 8AM-8PM, Saturday: 8AM-2PM",Professional Therapy for Autistic Children,-37.8129587,145.080617
Kids Plus Foundation,"75 Pigdons Road, Waurn Ponds, VIC 3216",03 5223 1475,info@kidsplus.org.au,www.kidsplus.org.au,"Monday: 8AM-6PM, Tuesday: 8AM-6PM, Wednesday: 8AM-6PM, Thursday: 8AM-6PM, Friday: 8AM-6PM",Professional Therapy for Autistic Children,-38.2006616,144.3015601
Succoris Psychology Sunbury,"36 Gap Road, Sunbury, VIC 3429",03 8001 9503,reception.sunbury@succoris.com.au,www.succoris.com.au,"Monday: 9AM-5PM, Tuesday: 9AM-5PM, Wednesday: 9AM-5PM, Thursday: 9AM-5PM, Friday: 9AM-5PM",Professional Therapy for Autistic Children,-37.5800165,144.7241708
Head Quarters,"28-30 William Street, Balaclava, VIC 3183",0406 432 394,rosie@insightpbs.com.au,www.insightpbs.com.au,Monday: 9AM-5PM,Professional Therapy for Autistic Children,-37.870126,144.9942735
Care for Us Pty Ltd,"Unit 44, 53 Jutland Way, Epping, VIC 3076",0423 352 572,info@careforus.com.au,www.careforus.com.au,"Monday: 9AM-5PM, Tuesday: 9AM-5PM, Wednesday: 9AM-5PM, Thursday: 9AM-5PM, Friday: 9AM-5PM, Saturday: 9AM-5PM, Sunday: 9AM-5PM",Professional Therapy for Autistic Children,-37.63938,145.0033538
Everyday Independence Northern Melbourne,"16a Keilor Park Drive, Keilor East, VIC 3033",1300 179 131,mytherapy@everydayind.com.au,www.everydayind.com.au,"Monday: 9AM-5PM, Tuesday: 9AM-5PM, Wednesday: 9AM-5PM, Thursday: 9AM-5PM, Friday: 9AM-5PM",Professional Therapy for Autistic Children,-37.7361771,144.8510045
Kieser Mornington,"12 Mornington-Tyabb Road, Mornington, VIC 3931",03 9109 9956,mornington@kieser.com.au,www.kieser.com.au,Monday: 9AM-5PM,Professional Therapy for Autistic Children,-38.2309055,145.0451387
Konekt Bendigo,"23 Short Street, Bendigo, VIC 3550",1300 723 375,ndis@konekt.com.au,www.konekt.com.au,"Monday: 8AM-5PM, Tuesday: 8AM-5PM, Wednesday: 8AM-5PM, Thursday: 8AM-5PM, Friday: 8AM-5PM",Professional Therapy for Autistic Children,-36.7623765,144.2759514
Noahs Ark - Geelong,"37 Fenwick Street, Geelong, VIC 3220",1800 819 140,hello@noahsarkinc.org.au,www.noahsarkinc.org.au,"Monday: 9AM-5PM, Tuesday: 9AM-5PM, Wednesday: 9AM-5PM, Thursday: 9AM-5PM, Friday: 9AM-5PM, Saturday: 9AM-5PM, Sunday: 9AM-5PM",Professional Therapy for Autistic Children,-38.1515044,144.3535262
Home Physiotherapy,"3 Nutwood Street, Reservoir, VIC 3073",0411 779 990,angelo@homephysio.com.au,www.homephysio.com.au,"Monday: 8AM-6PM, Tuesday: 8AM-6PM, Wednesday: 8AM-6PM, Thursday: 8AM-6PM, Friday: 8AM-6PM, Saturday: 8AM-5PM",Professional Therapy for Autistic Children,-37.7103619,145.0327236
Everyday Independence Pakenham,"5 Doherty Street, Pakenham, VIC 3810",1300 179 131,mytherapy@everydayind.com.au,www.everydayind.com.au,"Monday: 9AM-5PM, Tuesday: 9AM-5PM, Wednesday: 9AM-5PM, Thursday: 9AM-5PM, Friday: 9AM-5PM",Professional Therapy for Autistic Children,-38.0621119,145.4601677
Play Therapy Melbourne Frankston,"Playne Street, Frankston, VIC 3199",03 9439 2450,enquiries@playtherapymelbourne.com,www.playtherapymelbourne.com,"Monday: 8AM-5PM, Tuesday: 8AM-5PM, Wednesday: 8AM-5PM, Thursday: 8AM-5PM, Friday: 8AM-5PM, Saturday: 8AM-5PM",Professional Therapy for Autistic Children,-38.145516,145.123825
Kids' Care Collective,"Unit 7, 8 Vanessa Drive, Ravenhall, VIC 3023",0451 699 987,info@kidscarecollective.com.au,www.kidscarecollective.com.au,"Monday: 9AM-5PM, Tuesday: 9AM-5PM, Wednesday: 9AM-5PM, Thursday: 9AM-5PM, Friday: 9AM-5PM, Saturday: 9AM-2PM",Professional Therapy for Autistic Children,-37.7675909,144.7518593
OTFC Moorabbin,"15 Cochranes Road, Moorabbin, VIC 3189",03 9967 3597,admin@otfc.com.au,www.otfcgroup.com.au,"Monday: 8AM-6PM, Tuesday: 8AM-6PM, Wednesday: 8AM-6PM, Thursday: 8AM-6PM, Friday: 8AM-6PM",Professional Therapy for Autistic Children,-37.9418454,145.0641757
Cameron Wellness Centre,"Level 1 Suite 5a, 168 Little Malop Street, Geelong, VIC 3220",1800 000 292,dsardellis@cameronwellnesscentre.com.au,www.cameronwellnesscentre.com.au,"Monday: 8AM-5PM, Tuesday: 8AM-5PM, Wednesday: 8AM-5PM, Thursday: 8AM-5PM, Friday: 8AM-5PM",Professional Therapy for Autistic Children,-38.1495674,144.364313
PsychPhys Preston,"2-50 Murray Road, Preston, VIC 3072",03 9088 7585,info@psychphys.com.au,www.psychphys.com.au,"Monday: 9AM-6PM, Tuesday: 9AM-6PM, Wednesday: 9AM-6PM, Thursday: 9AM-6PM, Friday: 9AM-6PM, Saturday: 8AM-5PM",Professional Therapy for Autistic Children,-37.7386329,145.0293571
Evado Studios Thornbury,"Shop 1, 679 High Street, Thornbury, VIC 3071",03 9026 1301,thornbury@evadostudios.com.au,www.evadostudios.com.au/thornbury,"Monday: 7AM-8PM, Tuesday: 7AM-8PM, Wednesday: 7AM-8PM, Thursday: 7AM-8PM, Friday: 7AM-8PM, Saturday: 8AM-12PM",Professional Therapy for Autistic Children,-37.7602291,145.0001186
Everyday Independence Pty Ltd - Barwon,"18-20 Riversdale Road, Newtown, VIC 3220",1300 179 131,mytherapy@everydayind.com.au,www.everydayind.com.au,"Monday: 9AM-5PM, Tuesday: 9AM-5PM, Wednesday: 9AM-5PM, Thursday: 9AM-5PM, Friday: 9AM-5PM",Professional Therapy for Autistic Children,-38.1608782,144.3400755
Kieser Ocean Grove,"8-10 Coastal Boulevard, Ocean Grove, VIC 3226",03 5221 7555,oceangrove@kieser.com.au,www.kieser.com.au,Monday: 9AM-5PM,Professional Therapy for Autistic Children,-38.2500761,144.5627593
Everyday Independence Croydon,"Unit 1, 3 Ryland Avenue, Croydon, VIC 3136",1300 179 131,mytherapy@everydayind.com.au,www.everydayind.com.au,"Monday: 9AM-5PM, Tuesday: 9AM-5PM, Wednesday: 9AM-5PM, Thursday: 9AM-5PM, Friday: 9AM-5PM",Professional Therapy for Autistic Children,-37.7906487,145.267157
Everyday Independence Western Melbourne,"Unit 7, 28 West Court, Derrimut, VIC 3026",1300 179 131,mytherapy@everydayind.com.au,www.everydayind.com.au,"Monday: 9AM-5PM, Tuesday: 9AM-5PM, Wednesday: 9AM-5PM, Thursday: 9AM-5PM, Friday: 9AM-5PM",Professional Therapy for Autistic Children,-37.8102624,144.7518884
Physio3465,"80 High Street, Maryborough, VIC 3465",03 5461 4470,matt@physio3465.com.au,www.physio3465.com.au,"Monday: 9AM-5PM, Tuesday: 9AM-5PM, Wednesday: 9AM-5PM, Thursday: 9AM-5PM, Friday: 9AM-5PM",Professional Therapy for Autistic Children,-37.0482545,143.735931
Melton Physio,"Unit 1, 93 High Street, Melton, VIC 3337",03 9743 4848,info@meltonphysio.com.au,www.meltonphysio.com.au,"Monday: 9AM-6PM, Tuesday: 9AM-7PM, Wednesday: 9AM-5PM, Thursday: 9AM-7PM, Friday: 9AM-5PM",Professional Therapy for Autistic Children,-37.690463,144.602553
North East Life Mansfield,"20 Highett Street, Mansfield, VIC 3722",03 5722 2651,mansfield@nelife.com.au,www.nelife.com.au,"Monday: 9AM-5PM, Tuesday: 9AM-5PM, Wednesday: 9AM-5PM, Thursday: 9AM-5PM, Friday: 9AM-5PM",Professional Therapy for Autistic Children,-37.051367,146.0889689
Noahs Ark - Springvale,"2a Olinda Ave, Springvale, VIC 3171",1800 819 140,hello@noahsarkinc.org.au,www.noahsarkinc.org.au,"Monday: 9AM-5PM, Tuesday: 9AM-5PM, Wednesday: 9AM-5PM, Thursday: 9AM-5PM, Friday: 9AM-5PM, Saturday: 9AM-5PM, Sunday: 9AM-5PM",Professional Therapy for Autistic Children,-37.958949,145.1437774
Connected Kids Allied Health Pty Ltd,"Veterans Affairs, 12 Dawson Street, Ballarat Central, VIC 3350",0427 848 587,admin@connectedkid.com.au,www.connectedkid.com.au,"Monday: 9AM-5PM, Tuesday: 9AM-5PM, Wednesday: 9AM-5PM, Thursday: 9AM-5PM, Friday: 9AM-5PM",Professional Therapy for Autistic Children,-37.5630513,143.8526898
Home Health Physio,"6a Trudgeon Avenue, Reservoir, VIC 3073",0402 561 263,info@homehealthphysio.org,www.homehealthphysio.org,"Monday: 9AM-5PM, Tuesday: 9AM-5PM, Wednesday: 9AM-5PM, Thursday: 9AM-5PM, Friday: 9AM-5PM",Professional Therapy for Autistic Children,-37.7299099,145.0043613
"Morgan, Leigh Francis","2, 752, Blackburn Road, Clayton, VIC 3168",03 8578 4490,contact@leighmorgan.com.au,www.leighmorgan.com.au,"Monday: 9AM-5PM, Tuesday: 9AM-5PM, Wednesday: 9AM-5PM, Thursday: 9AM-5PM, Friday: 9AM-5PM",Professional Therapy for Autistic Children,-37.910552,145.1416431
PsychPhys Knox City,"Goodlife Health Club, Perth Court Knox Ozone Shopping Centre, Knox City, VIC 3152",03 9088 7585,info@psychphys.com.au,www.psychphys.com.au,"Monday: 9AM-6PM, Tuesday: 9AM-6PM, Wednesday: 9AM-6PM, Thursday: 9AM-6PM, Friday: 9AM-6PM, Saturday: 8AM-5PM",Professional Therapy for Autistic Children,-37.8691092,145.2434839
Confidence Speech Pathology,"Suite 5, 94 High Street, Berwick, VIC 3806",0468 786 210,admin@confidencespeechpathology.com.au,www.confidencespeechpathology.com.au,"Monday: 9AM-6PM, Tuesday: 9AM-6PM, Wednesday: 9AM-6PM, Thursday: 9AM-6PM, Friday: 9AM-6PM, Saturday: 9AM-6PM",Professional Therapy for Autistic Children,-38.0316016,145.3457499
Advance OT Solutions,"18 Charlock Drive, Cranbourne North, VIC 3977",0452 445 043,ollene.cunden@outlook.com,advanceotsolutions.com.au,"Monday: 9AM-5PM, Tuesday: 9AM-5PM, Wednesday: 9AM-5PM, Thursday: 9AM-5PM, Friday: 9AM-5PM, Saturday: 9AM-5PM, Sunday: 9AM-5PM",Professional Therapy for Autistic Children,-38.079095,145.3205382
Bodyfit Physio,"436-438 High Street, Northcote, VIC 3070",03 9481 2348,admin@bodyfitphysio.com.au,https://www.bodyfitphysio.com.au/,"Monday: 7AM-7PM, Tuesday: 7AM-7PM, Wednesday: 7AM-7PM, Thursday: 7AM-7PM, Friday: 7AM-5PM, Saturday: 8AM-1PM",Professional Therapy for Autistic Children,-37.76711,144.99937
Thrive Wellness and Consulting,"236 View Street, Bendigo, VIC 3550",03 5482 3143,admin@thrivewellnessandconsulting.com,www.thrivewellnessandconsulting.com,"Monday: 9AM-5PM, Tuesday: 9AM-5PM, Wednesday: 9AM-5PM, Thursday: 9AM-5PM, Friday: 9AM-5PM",Professional Therapy for Autistic Children,-36.7544539,144.2738582
CPC Health,"1301 Nepean Highway, Cheltenham, VIC 3192",03 9583 4000,reception@cpchealth.com.au,www.physiochoice.com.au,"Monday: 7AM-7PM, Tuesday: 7AM-7PM, Wednesday: 7AM-7PM, Thursday: 7AM-7PM, Friday: 7AM-7PM",Professional Therapy for Autistic Children,-37.9660103,145.0587062
ENRICH PHYSIO HOME VISITS,"23 Burrowye Crescent, Keilor, VIC 3036",1300 236 742,admin@enrichphysio.com.au,www.enrichphysio.com.au,"Monday: 9AM-5PM, Tuesday: 9AM-5PM, Wednesday: 9AM-5PM, Thursday: 9AM-5PM, Friday: 9AM-5PM, Saturday: 9AM-5PM",Professional Therapy for Autistic Children,-37.7117844,144.8111759
Back In Motion Cranbourne - partners of,"Unit 4, 2 Codrington Street, Cranbourne, VIC 3977",03 5998 4554,cranbourne@backinmotion.com.au,www.allsportsphysio.com.au or www.backinmotion.com.au,"Monday: 8AM-7PM, Tuesday: 8AM-7PM, Wednesday: 8AM-7PM, Thursday: 8AM-7PM, Friday: 8AM-7PM, Saturday: 8AM-12PM",Professional Therapy for Autistic Children,-38.1146616,145.2849533
a2z Health Group - Dandenong,"82 Stud Road, Dandenong, VIC 3175",03 9798 4081,heloise@a2zhealthgroup.com.au,www.a2zhealthgroup.com.au,"Monday: 9AM-5PM, Tuesday: 9AM-5PM, Wednesday: 9AM-6PM, Thursday: 9AM-6PM, Friday: 9AM-6PM, Saturday: 9AM-3PM",Professional Therapy for Autistic Children,-37.9772544,145.2227689
Rivergum Allied Therapies - Ballarat,"708 Skipton Street, Redan, VIC 3350",03 4310 2686,info@rivergumalliedtherapies.com.au,www.rivergumalliedtherapies.com.au,"Monday: 9AM-5PM, Tuesday: 9AM-5PM, Wednesday: 9AM-5PM, Thursday: 9AM-5PM, Friday: 9AM-5PM",Professional Therapy for Autistic Children,-37.5782556,143.8424471
D.O.T.S. Occupational Therapy for Childr,"478 Grimshaw Street, Bundoora, VIC 3083",03 8256 2484,hello@dotschildot.com.au,www.dotschildot.com.au,"Monday: 8AM-5PM, Tuesday: 8AM-5PM, Wednesday: 8AM-5PM, Thursday: 8AM-5PM, Friday: 8AM-5PM",Professional Therapy for Autistic Children,-37.7005367,145.0669991
Change for Life,"374 Pakington Street, Newtown, VIC 3220",03 5229 2482,info@changeforlife.com.au,www.changeforlife.com.au,Monday: 9AM-5PM,Professional Therapy for Autistic Children,-38.159436,144.3449939
Kieser Geelong,"Level 1, Level 1, 51 West Fyans St, Newtown, VIC 3220",03 5221 7555,geelong@kieser.com.au,www.kieser.com.au,"Monday: 6AM-8PM, Tuesday: 6AM-8PM, Wednesday: 6AM-8PM, Thursday: 6AM-8PM, Friday: 6AM-7PM, Saturday: 7AM-3PM, Sunday: 8AM-1PM",Professional Therapy for Autistic Children,-38.1599244,144.3458886
Endeavour Hills Psychology,"11 Sienna Crescent, Endeavour Hills, VIC 3802",0458 463 097,info@melbournecbdpsychology.com.au,www.melbournecbdpsychology.com.au,"Tuesday: 9AM-5PM, Wednesday: 9AM-5PM, Friday: 9AM-5PM",Professional Therapy for Autistic Children,-37.9838846,145.2692497
Noahs Ark - Melton,"21 Rosina Drive, Melton, VIC 3337",1800 819 140,hello@noahsarkinc.org.au,www.noahsarkinc.org.au,"Monday: 9AM-5PM, Tuesday: 9AM-5PM, Wednesday: 9AM-5PM, Thursday: 9AM-5PM, Friday: 9AM-5PM, Saturday: 9AM-5PM, Sunday: 9AM-5PM",Professional Therapy for Autistic Children,-37.6858659,144.568712
John Blythe Psychology,"241 City Road, Southbank, VIC 3006",03 8840 1661,info@johnblythe.com.au,www.childpsychology.net.au,"Monday: 9AM-5PM, Tuesday: 9AM-5PM, Wednesday: 9AM-5PM, Thursday: 9AM-5PM, Friday: 9AM-5PM",Professional Therapy for Autistic Children,-37.8263461,144.9600502
Everyday Independence Werribee,"Office 101, 13 Barnes Place, Werribee, VIC 3030",1300 179 131,mytherapy@everydayind.com.au,www.everydayind.com.au,"Monday: 9AM-5PM, Tuesday: 9AM-5PM, Wednesday: 9AM-5PM, Thursday: 9AM-5PM, Friday: 9AM-5PM",Professional Therapy for Autistic Children,-37.9013417,144.6608444
VPS Headquarters,"85 Douglas Parade, Williamstown, VIC 3016",1300 404 177,admin@victoriapeoplesolutions.com.au,www.victoriapeoplesolutions.com.au,"Monday: 9AM-5PM, Tuesday: 9AM-5PM, Wednesday: 9AM-5PM, Thursday: 9AM-5PM, Friday: 9AM-5PM",Professional Therapy for Autistic Children,-37.8560235,144.8974067
Enaksha Garde Speech Pathology Pty Ltd,"19 Mcnamara Street, Macleod, VIC 3085",0411 370 250,enaksha@egspeechpathology.com,www.egspeechpathology.com,"Monday: 9AM-5PM, Tuesday: 9AM-5PM, Wednesday: 9AM-5PM, Thursday: 9AM-5PM, Friday: 9AM-5PM, Saturday: 9AM-5PM, Sunday: 9AM-5PM",Professional Therapy for Autistic Children,-37.7293053,145.0675295
Applied Occupational Therapy,"1103 Havelock Street, Ballarat North, VIC 3350",0492 827 949,jayne@appliedot.com.au,www.appliedot.com.au,"Monday: 8AM-5PM, Tuesday: 9AM-3PM, Wednesday: 9AM-5PM, Thursday: 9AM-3PM",Professional Therapy for Autistic Children,-37.5393,143.8668684
Kieser South Melbourne,"Corner City Road Cecil Street, South Melbourne, VIC 3205",03 9696 3599,melbourne1@kieser.com.au,www.kieser.com.au,"Monday: 6AM-8PM, Tuesday: 6AM-8PM, Wednesday: 6AM-8PM, Thursday: 6AM-8PM, Friday: 6AM-7PM, Saturday: 7AM-3PM, Sunday: 8AM-1PM",Professional Therapy for Autistic Children,-37.8293367,144.9560839
Stride - Bendigo,"2 Bushs Lane, Bendigo, VIC 3550",1300 001 907,ndis@stride.com.au,www.stride.com.au,"Monday: 9AM-5PM, Tuesday: 9AM-5PM, Wednesday: 9AM-5PM, Thursday: 9AM-5PM, Friday: 9AM-5PM, Saturday: 9AM-5PM, Sunday: 9AM-5PM",Professional Therapy for Autistic Children,-36.7622753,144.2835094
Evado Studios (Clayton),"Shop T50a, Mezzanine Floor, 2107-2125 Dandenong Road, Clayton, VIC 3168",03 9562 3655,clayton@evadostudios.com.au,https://evadostudios.com.au/clayton,"Monday: 9AM-7PM, Tuesday: 1PM-6PM, Wednesday: 9AM-2PM, Thursday: 2PM-6PM, Friday: 9AM-1PM",Professional Therapy for Autistic Children,-37.9217315,145.1402881
Everyday Independence Melton,"48 Unitt Street, Melton, VIC 3337",1300 179 131,mytherapy@everydayind.com.au,www.everydayind.com.au,"Monday: 9AM-5PM, Tuesday: 9AM-5PM, Wednesday: 9AM-5PM, Thursday: 9AM-5PM, Friday: 9AM-5PM",Professional Therapy for Autistic Children,-37.6816584,144.5812472
SelfHealth Physio,"170 Beach Road, Parkdale, VIC 3195",0412 887 712,michael@selfhealth.com.au,www.selfhealth.com.au,"Monday: 7AM-6PM, Tuesday: 7AM-6PM, Wednesday: 7AM-6PM, Thursday: 7AM-6PM, Friday: 7AM-6PM",Professional Therapy for Autistic Children,-38.0022993,145.0788098
Empowered Psychology,"3 Curry Avenue, Greensborough, VIC 3088",0409 019 743,empoweredpsych@outlook.com,https://empoweredpsychology.business.site/,"Monday: 9AM-8PM, Tuesday: 9AM-8PM, Wednesday: 9AM-8PM, Thursday: 9AM-8PM, Friday: 9AM-4PM",Professional Therapy for Autistic Children,-37.6942071,145.0957049
THOMASTOWN PAEDIATRIC PHYSIOTHERAPY,"3 Highlands Road, Thomastown, VIC 3074",03 9465 0282,info@thomastownphysio.com,www.thomastownphysio.com,"Monday: 9AM-5PM, Tuesday: 9AM-5PM, Wednesday: 9AM-5PM, Thursday: 9AM-5PM, Friday: 9AM-5PM",Professional Therapy for Autistic Children,-37.6794168,145.0130953
Eastern Suburbs Physiotherapy,"5 Market Street, Nunawading, VIC 3131",03 9877 2377,stayfit-stayconnected@outlook.com,https://www.easternsuburbsphysiotherapy.com.au/,"Monday: 8AM-6PM, Tuesday: 8AM-6PM, Wednesday: 8AM-6PM, Thursday: 8AM-6PM, Friday: 8AM-6PM, Saturday: 9AM-1PM",Professional Therapy for Autistic Children,-37.821425,145.176464
Therapy Pro - Melbourne North,"3 Highlands Road, Thomastown, VIC 3074",1300 004 414,info@therapypro.com.au,www.therapypro.com.au,"Monday: 9AM-5PM, Tuesday: 9AM-5PM, Wednesday: 9AM-5PM, Thursday: 9AM-5PM, Friday: 9AM-5PM, Saturday: 9AM-5PM, Sunday: 9AM-5PM",Professional Therapy for Autistic Children,-37.6794168,145.0130953
PARCS Springvale,"35 Royal Avenue, Springvale, VIC 3171",03 9548 0377,reception@ermha.org,www.ermha.org,Monday: 9AM-5PM,Professional Therapy for Autistic Children,-37.952632,145.1486809
Noahs Ark - Morwell,"25 Chestnut Ave, Morwell, VIC 3840",1800 819 140,hello@noahsarkinc.org.au,www.noahsarkinc.org.au,"Monday: 9AM-5PM, Tuesday: 9AM-5PM, Wednesday: 9AM-5PM, Thursday: 9AM-5PM, Friday: 9AM-5PM, Saturday: 9AM-5PM, Sunday: 9AM-5PM",Professional Therapy for Autistic Children,-38.2303419,146.4274365
Sunrise Behavioural Health Bundoora,"1 Janefield Drive, Bundoora, VIC 3083",0450 591 791,contactus@sunrisebehavioural.com.au,www.sunrisebehavioural.com.au,"Monday: 9AM-6PM, Tuesday: 9AM-6PM, Wednesday: 9AM-6PM, Thursday: 9AM-6PM, Friday: 9AM-6PM, Saturday: 9AM-12PM",Professional Therapy for Autistic Children,-37.6824691,145.069628
Horizon Allied Health,"Suite 106 Level 1, 45 Leakes Road, Laverton North, VIC 3026",1300 389 422,admin@horizonalliedhealth.com.au,https://horizonalliedhealth.com.au/,"Monday: 8AM-6PM, Tuesday: 8AM-6PM, Wednesday: 8AM-6PM, Thursday: 8AM-6PM, Friday: 8AM-6PM",Professional Therapy for Autistic Children,-37.8423632,144.7702145
St John of God Accord - Accommodation -,"35 Milroy Street, Brighton East, VIC 3187",1300 002 226,rebecca.cattermole@sjog.org.au,www.accorddisability.org.au,Monday: 9AM-5PM,Professional Therapy for Autistic Children,-37.9043137,145.0121432
PilatesChoice,"22 Breed St, Traralgon, VIC 3844",03 5174 8500,traralgon@jgpg.com.au,www.physiochoice.com.au,"Monday: 8AM-7PM, Tuesday: 8AM-7PM, Wednesday: 8AM-7PM, Thursday: 8AM-7PM, Friday: 8AM-8PM, Saturday: 9AM-2PM, Sunday: 9AM-5PM",Professional Therapy for Autistic Children,-38.1977471,146.5332926
Autism Abilities Pty Ltd,"Unit 101, 1 Olive York Way, Brunswick West, VIC 3055",0466 814 770,info@autismabilities.com.au,www.autismabilities.com.au,"Monday: 9AM-5PM, Tuesday: 9AM-5PM, Wednesday: 9AM-5PM, Thursday: 9AM-5PM, Friday: 9AM-5PM",Professional Therapy for Autistic Children,-37.7580766,144.9387645
B OK Psychology,"Suite 606/434, St Kilda Road, Melbourne, VIC 3004",0409 950 671,contact@bokpsychology.com,contact@bokpsychology.com,"Monday: 9AM-5PM, Tuesday: 9AM-5PM, Wednesday: 9AM-5PM, Thursday: 9AM-5PM, Friday: 9AM-5PM, Saturday: 9AM-12PM",Professional Therapy for Autistic Children,-37.8377208,144.9752743
Peninsula Plus - Mornington,"Unit 16, 1140 Nepean Highway, Mornington, VIC 3931",03 5975 1500,admin@penplus.com.au,www.peninsulaplus.com.au,"Monday: 9AM-5PM, Tuesday: 9AM-5PM, Wednesday: 9AM-5PM, Thursday: 9AM-5PM, Friday: 9AM-5PM, Saturday: 9AM-5PM, Sunday: 9AM-5PM",Professional Therapy for Autistic Children,-38.2194752,145.0633509
ENRICH PHYSIO MELTON 2,"48 Palmerston Street, Melton, VIC 3337",1300 236 742,admin@enrichphysio.com.au,www.enrichphysio.com.au,"Monday: 9AM-6PM, Tuesday: 9AM-6PM, Wednesday: 9AM-6PM, Thursday: 9AM-6PM, Friday: 9AM-6PM, Saturday: 9AM-6PM",Professional Therapy for Autistic Children,-37.6841413,144.5835581
Everyday Independence Southern Melbourne,"11-15 Marlo Place, Hallam, VIC 3803",1300 179 131,mytherapy@everydayind.com.au,www.everydayind.com.au,"Monday: 9AM-5PM, Tuesday: 9AM-5PM, Wednesday: 9AM-5PM, Thursday: 9AM-5PM, Friday: 9AM-5PM",Professional Therapy for Autistic Children,-38.0051297,145.2550177
Gippsland Physiotherapy Group,"142-144 Commercial Road, Morwell, VIC 3840",03 5133 7388,morwell@gpg.com.au,www.physiochoice.com.au,"Monday: 8AM-7PM, Tuesday: 8AM-7PM, Wednesday: 8AM-7PM, Thursday: 8AM-7PM, Friday: 8AM-6PM, Saturday: 9AM-5PM, Sunday: 9AM-5PM",Professional Therapy for Autistic Children,-38.23699,146.394983
Everyday Independence Pty Ltd - Bendigo,"113 Mitchell Street, Bendigo, VIC 3550",1300 179 131,mytherapy@everydayind.com.au,www.everydayind.com.au,"Monday: 9AM-5PM, Tuesday: 9AM-5PM, Wednesday: 9AM-5PM, Thursday: 9AM-5PM, Friday: 9AM-5PM",Professional Therapy for Autistic Children,-36.7635706,144.2834026
Everyday Independence Shepparton,"294 Maude Street, Shepparton, VIC 3630",1300 179 131,mytherapy@everydayind.com.au,www.everydayind.com.au,"Monday: 9AM-5PM, Tuesday: 9AM-5PM, Wednesday: 9AM-5PM, Thursday: 9AM-5PM, Friday: 9AM-5PM",Professional Therapy for Autistic Children,-36.3847818,145.3997211
Consulting rooms,"66 Station Street, Fairfield, VIC 3078",0410 500 763,carlo@vnrs.co.mau,www.vnrs.com.au,Monday: 9AM-5PM,Professional Therapy for Autistic Children,-37.7798724,145.0178052
Applied Communication Skills Pty Ltd,"48 Station Street, Fairfield, VIC 3078",0401 821 749,admin@appliedcommunicationskills.com.au,www.appliedcommunicationskills.com.au,"Monday: 8AM-6PM, Tuesday: 8AM-6PM, Wednesday: 8AM-6PM, Thursday: 8AM-6PM, Friday: 8AM-6PM, Saturday: 12AM-12AM, Sunday: 12AM-12AM",Professional Therapy for Autistic Children,-37.7807537,145.0175466
The Well,"122-130 Beresford Road, Lilydale, VIC 3140",1300 647 122,support@choicementalhealth.com.au,www.choicecommunityhealth.com.au,"Monday: 9AM-5PM, Tuesday: 9AM-5PM, Wednesday: 9AM-5PM, Thursday: 9AM-5PM, Friday: 9AM-5PM, Saturday: 9AM-5PM, Sunday: 9AM-5PM",Professional Therapy for Autistic Children,-37.752456,145.3496976
ENRICH PHYSIO -PALMERS TRUGANINA,"228a Sayers Road, Truganina, VIC 3029",1300 236 742,admin@enrichphysio.com.au,www.enrichphysio.com.au,"Monday: 9AM-5PM, Tuesday: 9AM-5PM, Wednesday: 9AM-5PM, Thursday: 9AM-5PM, Friday: 9AM-5PM, Saturday: 9AM-5PM, Sunday: 9AM-5PM",Professional Therapy for Autistic Children,-37.8534258,144.7443359
ENRICH PHYSIO - BACCHUSMARSH,"2 Turner Street, Bacchus Marsh, VIC 3340",1300 236 742,admin@enrichphysio.com.au,www.enrichphysio.com.au,"Monday: 9AM-5PM, Tuesday: 9AM-5PM, Wednesday: 9AM-5PM, Thursday: 9AM-5PM, Friday: 9AM-5PM, Saturday: 9AM-5PM, Sunday: 9AM-5PM",Professional Therapy for Autistic Children,-37.6771693,144.4342886
Everyday Independence Inner Eastern Melb,"Suite 2b, 303-313 Burwood Highway, Burwood East, VIC 3151",1300 179 131,mytherapy@everydayind.com.au,www.everydayind.com.au,"Monday: 9AM-5PM, Tuesday: 9AM-5PM, Wednesday: 9AM-5PM, Thursday: 9AM-5PM, Friday: 9AM-5PM",Professional Therapy for Autistic Children,-37.8534895,145.1614923
Strong Minds Psychology - Yarra Valley,"3 Little Yarra Road, Yarra Junction, VIC 3797",03 5967 1438,strongmindspsychteam@gmail.com,www.strongmindspsychology.com.au,"Monday: 9AM-5PM, Tuesday: 9AM-5PM, Wednesday: 9AM-5PM, Thursday: 9AM-5PM, Friday: 9AM-5PM",Professional Therapy for Autistic Children,-37.7824344,145.6147406
Astra King and Associates,"361 Nepean Highway, Frankston, VIC 3199",03 9770 6777,adhdasdclinic@gmail.com,www.adhd-asdmelbourne.com.au/,"Monday: 10AM-6PM, Tuesday: 9AM-5PM, Wednesday: 10AM-6PM, Thursday: 10AM-6PM, Friday: 10AM-6PM, Saturday: 9AM-5PM",Professional Therapy for Autistic Children,-38.1358928,145.1245651
National 360 Cheltenham,"1a, 296 Bay Road, Cheltenham, VIC 3193",1300 340 440,vic@national360.com.au,www.national360.com.au,"Monday: 8AM-5PM, Tuesday: 8AM-5PM, Wednesday: 8AM-5PM, Thursday: 8AM-5PM, Friday: 8AM-5PM",Professional Therapy for Autistic Children,-37.9559566,145.0371453
ENRICH PHYSIO - SUNBURY,"38-40 Gap Road, Sunbury, VIC 3429",1300 236 742,admin@enrichphysio.com.au,www.enrichphysio.com.au,"Monday: 9AM-5PM, Tuesday: 9AM-5PM, Wednesday: 9AM-5PM, Thursday: 9AM-5PM, Friday: 9AM-5PM, Saturday: 9AM-5PM, Sunday: 9AM-5PM",Professional Therapy for Autistic Children,-37.5797406,144.7234657
Mind And Heart Solutions,"Ex001 (Inside Myhealth Medical Chadstone, 1341 Dandenong Road, Chadstone, VIC 3148",03 9830 8090,info@mindheart.com.au,mindheart.com.au,"Monday: 9AM-7PM, Tuesday: 9AM-5PM, Wednesday: 9AM-5PM, Thursday: 9AM-6PM, Friday: 9AM-7PM, Saturday: 9AM-5PM, Sunday: 9AM-5PM",Professional Therapy for Autistic Children,-37.8866993,145.0852737
Lotus Support Coordidation Services,"46 Cropley Crescent, Laverton, VIC 3028",1300 633 168,admin@lotussupport.com.au,www.lotussupport.com.au,"Monday: 8AM-4PM, Tuesday: 8AM-4PM, Wednesday: 8AM-4PM, Thursday: 8AM-4PM, Friday: 8AM-4PM",Professional Therapy for Autistic Children,-37.8476187,144.7781398
Complex Psychology,"158a Eighth Street, Mildura, VIC 3500",0427 721 076,jacqui.brown@complexpsychology.com.au,www.complexpsychology.com.au,"Monday: 9AM-5PM, Tuesday: 9AM-5PM, Wednesday: 9AM-5PM, Thursday: 9AM-5PM, Friday: 9AM-5PM",Professional Therapy for Autistic Children,-34.1821241,142.1594479
Bendigo Speech Works,"162 Condon Street, Kennington, VIC 3550",03 5443 9912,admin@bendigospeechworks.com.au,www.national360.com.au,"Monday: 8AM-5PM, Tuesday: 8AM-5PM, Wednesday: 8AM-5PM, Thursday: 8AM-5PM, Friday: 8AM-5PM",Professional Therapy for Autistic Children,-36.7754443,144.3083681
Caraniche Bendigo,"18-20 St Andrews Avenue, Bendigo, VIC 3550",1300 388 576,admin@caraniche.com.au,www.caraniche.com.au,"Monday: 9AM-5PM, Tuesday: 9AM-5PM, Wednesday: 9AM-5PM, Thursday: 9AM-5PM, Friday: 9AM-5PM",Professional Therapy for Autistic Children,-36.7601992,144.2836438
Step 2 OT Allied Health - Geelong,"31 Barwon Terrace, South Geelong, VIC 3220",03 5215 5931,admin@step2ot.com,www.step2alliedhealth.com,"Monday: 9AM-5PM, Tuesday: 9AM-5PM, Wednesday: 9AM-5PM, Thursday: 9AM-5PM, Friday: 9AM-5PM",Professional Therapy for Autistic Children,-38.1643708,144.3567828
Mind Health Care,"64 Bellarine Highway, Newcomb, VIC 3219",03 5242 8981,admin@mindhealthcare.com.au,www.mindhealthcare.com.au,"Monday: 9AM-5PM, Tuesday: 9AM-5PM, Wednesday: 9AM-5PM, Thursday: 9AM-5PM, Friday: 9AM-5PM",Professional Therapy for Autistic Children,-38.1707857,144.3911359
GLCH - Bairnsdale,"281 Main Street, Bairnsdale, VIC 3875",03 5152 0052,disabilities@glch.org.au,www.glch.org.au,"Monday: 8AM-5PM, Tuesday: 8AM-5PM, Wednesday: 8AM-5PM, Thursday: 8AM-5PM, Friday: 8AM-5PM, Saturday: 9AM-5PM, Sunday: 9AM-5PM",Professional Therapy for Autistic Children,-37.8279111,147.6240298
Noahs Ark - Horsham,"152 Baillie Street, Horsham, VIC 3400",1800 819 140,hello@noahsarkinc.org.au,www.noahsarkinc.org.au,"Monday: 9AM-5PM, Tuesday: 9AM-5PM, Wednesday: 9AM-5PM, Thursday: 9AM-5PM, Friday: 9AM-5PM, Saturday: 9AM-5PM, Sunday: 9AM-5PM",Professional Therapy for Autistic Children,-36.7115371,142.2004858
Healthy Young Minds Child Psychology,"106/9, Ormond Boulevard, Bundoora, VIC 3083",03 8406 7555,info@healthyyoungminds.com.au,www.healthyyoungminds.com.au,"Monday: 9AM-2PM, Tuesday: 9AM-6PM, Wednesday: 9AM-4PM, Thursday: 9AM-6PM",Professional Therapy for Autistic Children,-37.678962,145.0712379
Think Play Thrive Speech Pathology,"61 Francis Street, Bairnsdale, VIC 3875",0408 884 761,mel@thinkplaythrive.com.au,www.thinkplaythrive.com.au,"Monday: 9AM-5PM, Tuesday: 9AM-5PM, Wednesday: 9AM-5PM, Thursday: 9AM-5PM, Friday: 9AM-5PM, Saturday: 9AM-5PM, Sunday: 9AM-5PM",Professional Therapy for Autistic Children,-37.8255952,147.6224002
Bay Hand Therapy Beaumaris,"3a Keys Street, Beaumaris, VIC 3193",03 9589 2465,reception@bayhandtherapy.com.au,https://www.extendrehab.com.au/,"Monday: 8AM-6PM, Tuesday: 8AM-6PM, Wednesday: 8AM-6PM, Thursday: 8AM-6PM, Friday: 8AM-6PM",Professional Therapy for Autistic Children,-37.9920883,145.0409847
Keo Care,"6 Riddell Parade, Elsternwick, VIC 3185",1300 405 810,info@keocare.com.au,www.keocare.com.au,"Monday: 8AM-5PM, Tuesday: 8AM-5PM, Wednesday: 8AM-5PM, Thursday: 8AM-5PM, Friday: 8AM-5PM",Professional Therapy for Autistic Children,-37.8847006,145.0020955
Australian Childhood Trauma Group - Geel,"Suite 10, 23-31 Gheringhap Street, Geelong, VIC 3220",1300 034 503,info@theactgroup.com.au,www.theactgroup.com.au,"Monday: 9AM-5PM, Tuesday: 9AM-5PM, Wednesday: 9AM-5PM, Thursday: 9AM-5PM, Friday: 9AM-5PM",Professional Therapy for Autistic Children,-38.1478314,144.3579382
Aspire Options Pty Ltd,"Yarrawonga, Acacia Street, Yarrawonga, VIC 3730",1800 508 955,info@aspireoptions.com.au,www.aspireoptions.com.au,"Monday: 9AM-5PM, Tuesday: 9AM-5PM, Wednesday: 9AM-5PM, Thursday: 9AM-5PM, Friday: 9AM-5PM, Saturday: 9AM-5PM, Sunday: 9AM-5PM",Professional Therapy for Autistic Children,-36.0277643,145.9985613
Complex Psychology,"202a Turner Street, Port Melbourne, VIC 3207",0427 721 076,jacqui.brown@complexpsychology.com.au,www.complexpsychology.com.au,"Monday: 9AM-5PM, Tuesday: 9AM-5PM, Wednesday: 9AM-5PM, Thursday: 9AM-5PM, Friday: 9AM-5PM",Professional Therapy for Autistic Children,-37.8243039,144.9332225
North East Life Benalla,"39 Nunn St, Benalla, VIC 3672",03 5762 6866,benalla@nelife.com.au,www.nelife.com.au,"Monday: 8AM-5PM, Tuesday: 8AM-5PM, Wednesday: 8AM-5PM, Thursday: 8AM-5PM, Friday: 8AM-5PM, Saturday: 9AM-5PM, Sunday: 9AM-5PM",Professional Therapy for Autistic Children,-36.5495309,145.9828112
Konekt Melbourne,"179 Queen Street, Melbourne, VIC 3000",1300 723 375,ndis@konekt.com.au,www.konekt.com.au,"Monday: 8AM-5PM, Tuesday: 8AM-5PM, Wednesday: 8AM-5PM, Thursday: 8AM-5PM, Friday: 8AM-5PM",Professional Therapy for Autistic Children,-37.8144973,144.960022
Kinesio Physio,"136-144 Bell Street, Coburg, VIC 3058",03 9994 5340,reception@kinesiophysio.com.au,https://www.kinesiophysio.com.au,"Monday: 8AM-8PM, Wednesday: 2PM-8PM, Thursday: 4PM-8PM, Friday: 8AM-12PM, Saturday: 9AM-2PM",Professional Therapy for Autistic Children,-37.740801,144.9639529
Aspire Options Pty Ltd,"Benalla Street, Benalla, VIC 3672",1800 508 955,info@aspireoptions.com.au,www.aspireoptions.com.au,"Monday: 9AM-5PM, Tuesday: 9AM-5PM, Wednesday: 9AM-5PM, Thursday: 9AM-5PM, Friday: 9AM-5PM, Saturday: 9AM-5PM, Sunday: 9AM-5PM",Professional Therapy for Autistic Children,-36.5468999,145.9856429
Australian Childhood Trauma Group Melbou,"3 St David Street, Fitzroy, VIC 3065",1300 034 503,info@theactgroup.com.au,www.theactgroup.com.au,Monday: 9AM-5PM,Professional Therapy for Autistic Children,-37.8005506,144.9787139
Andrew Mark Cross,"2 Punt Road, Barwon Heads, VIC 3227",0409 541 296,andrew@designableliving.com.au,www.designableliving.com,"Monday: 9AM-5PM, Tuesday: 9AM-5PM, Wednesday: 9AM-5PM, Thursday: 9AM-5PM, Friday: 9AM-5PM, Saturday: 9AM-5PM, Sunday: 9AM-5PM",Professional Therapy for Autistic Children,-38.2774216,144.4917625
ENRICH PHYSIO -WERRIBEE,"83 Watton Street, Werribee, VIC 3030",1300 236 742,admin@enrichphysio.com.au,www.enrichphysio.com.au,"Monday: 9AM-5PM, Tuesday: 9AM-5PM, Wednesday: 9AM-5PM, Thursday: 9AM-5PM, Friday: 9AM-5PM, Saturday: 9AM-5PM, Sunday: 9AM-5PM",Professional Therapy for Autistic Children,-37.9017664,144.6612519
Unify Disability Services,"Unit 14, 180 Fairbairn Road, Sunshine West, VIC 3020",03 9305 2632,admin@unifydisabilityservices.com.au,www.uds.com.au,"Monday: 9AM-5PM, Tuesday: 9AM-5PM, Wednesday: 9AM-5PM, Thursday: 9AM-5PM, Friday: 9AM-5PM",Professional Therapy for Autistic Children,-37.8119803,144.8190509
KU Koo Wee Rup,"28 Maughan Road, Koo Wee Rup, VIC 3981",0411 317 419,allied.health@ku.com.au,www.ku.com.au,"Monday: 8AM-4PM, Tuesday: 8AM-4PM",Professional Therapy for Autistic Children,-38.1961292,145.4922982
ENRICH PHYSIO- DARLEY,"147 Gisborne Road, Darley, VIC 3340",1300 236 742,admin@enrichphysio.com.au,www.enrichphysio.com.au,"Monday: 9AM-5PM, Tuesday: 9AM-5PM, Wednesday: 9AM-5PM, Thursday: 9AM-5PM, Friday: 9AM-5PM, Saturday: 9AM-5PM, Sunday: 9AM-5PM",Professional Therapy for Autistic Children,-37.6602614,144.4410203
TaylorMade Counselling,"17 Curzon Street, West Melbourne, VIC 3003",07 7009 7100,admin@taylormadecounselling.org,https://taylormadecounselling.org/,"Monday: 9AM-7PM, Tuesday: 9AM-7PM, Wednesday: 9AM-7PM, Thursday: 9AM-7PM, Friday: 9AM-7PM",Professional Therapy for Autistic Children,-37.8056115,144.9473732
Eastern Suburbs - Blackburn,"88 South Parade, Blackburn, VIC 3130",1800 767 489,info@posity.com.au,www.posity.com.au,"Monday: 8AM-6PM, Tuesday: 8AM-6PM, Wednesday: 8AM-6PM, Thursday: 8AM-6PM, Friday: 8AM-6PM, Saturday: 8AM-6PM",Professional Therapy for Autistic Children,-37.8207302,145.151063
Optiform,"Optiform Allied Health, 109 Victoria Street, Ballarat East, VIC 3350",03 5334 4402,reception@optifrm.com.au,www.optiform.com.au,"Monday: 8AM-6PM, Tuesday: 8AM-6PM, Wednesday: 8AM-6PM, Thursday: 8AM-6PM, Friday: 8AM-6PM",Professional Therapy for Autistic Children,-37.5614754,143.8705097
Noahs Ark - Heidelberg,"9-11 Altona Street, Heidelberg Heights, VIC 3081",1800 819 140,hello@noahsarkinc.org.au,www.noahsarkinc.org.au,"Monday: 9AM-5PM, Tuesday: 9AM-5PM, Wednesday: 9AM-5PM, Thursday: 9AM-5PM, Friday: 9AM-5PM, Saturday: 9AM-5PM, Sunday: 9AM-5PM",Professional Therapy for Autistic Children,-37.7479455,145.0570488
Noahs Ark - Bacchus Marsh,"Adelong Way, Bacchus Marsh, VIC 3340",1800 819 140,hello@noahsarkinc.org.au,www.noahsarkinc.org.au,"Monday: 9AM-5PM, Tuesday: 9AM-5PM, Wednesday: 9AM-5PM, Thursday: 9AM-5PM, Friday: 9AM-5PM, Saturday: 9AM-5PM, Sunday: 9AM-5PM",Professional Therapy for Autistic Children,-37.6774037,144.4167101
Living Communities,"Qv Tower, Level 19, 180 Lonsdale Street, Melbourne, VIC 3000",1300 670 540,contact@livingcommunities.com.au,www.livingcommunities.com.au,"Monday: 7AM-11PM, Tuesday: 7AM-11PM, Wednesday: 7AM-11PM, Thursday: 7AM-11PM, Friday: 7AM-11PM, Saturday: 7AM-11PM, Sunday: 7AM-11PM",Professional Therapy for Autistic Children,-37.810678,144.9665497
Noahs Ark - Tarneit,"35 Powell Dr, Hoppers Crossing, VIC 3029",1800 819 140,hello@noahsarkinc.org.au,www.noahsarkinc.org.au,"Monday: 9AM-5PM, Tuesday: 9AM-5PM, Wednesday: 9AM-5PM, Thursday: 9AM-5PM, Friday: 9AM-5PM, Saturday: 9AM-5PM, Sunday: 9AM-5PM",Professional Therapy for Autistic Children,-37.8830641,144.6990356
Noahs Ark - Frankston,"Aldercourt Primary School, Silver Avenue, Frankston North, VIC 3200",1800 819 140,hello@noahsarkinc.org.au,www.noahsarkinc.org.au,"Monday: 9AM-5PM, Tuesday: 9AM-5PM, Wednesday: 9AM-5PM, Thursday: 9AM-5PM, Friday: 9AM-5PM, Saturday: 9AM-5PM, Sunday: 9AM-5PM",Professional Therapy for Autistic Children,-38.1170609,145.1616015
Mind And Heart Solutions,"Shop 45 (Inside Priceline Pharmacy), Sunshine Marketplace, 80 Harvester Road, Sunshine, VIC 3020",03 9830 8090,info@mindheart.com.au,mindheart.com.au,"Monday: 9AM-5PM, Tuesday: 9AM-5PM, Wednesday: 9AM-5PM, Thursday: 9AM-6PM, Friday: 9AM-5PM, Saturday: 9AM-5PM, Sunday: 9AM-5PM",Professional Therapy for Autistic Children,-37.7821917,144.8316815
Noahs Ark - Sunshine,"Suite 114, 44-56 Hampstead Road, Maidstone, VIC 3012",1800 819 140,hello@noahsarkinc.org.au,www.noahsarkinc.org.au,"Monday: 9AM-5PM, Tuesday: 9AM-5PM, Wednesday: 9AM-5PM, Thursday: 9AM-5PM, Friday: 9AM-5PM, Saturday: 9AM-5PM, Sunday: 9AM-5PM",Professional Therapy for Autistic Children,-37.7787604,144.8763022
"KidsPT- Ashburton, Physiotherapist","22 Highgate Grove, Ashburton, VIC 3147",03 9490 0999,info@kidspt.com.au,www.kidspt.com.au,"Monday: 9AM-5PM, Tuesday: 9AM-5PM, Wednesday: 9AM-5PM, Thursday: 9AM-5PM, Friday: 9AM-5PM, Saturday: 9AM-5PM, Sunday: 9AM-5PM",Professional Therapy for Autistic Children,-37.8652668,145.076901






































































































































































































































































































































































































































































































































































































































































































































































































































