Registered Provider Name,Outlet Name,Address,Phone,Email,Website,Open Hours,NDIS Category,X,Y
Diverse Gem Care Pty Ltd,Diverse Gem Care,"12 Dimboola Road, Broadmeadows, VIC 3047",0411 365 625,hamzeh.j@diversegemcare.com.au,www.diversegemcare.com.au,"Monday: 9AM-5PM, Tuesday: 9AM-5PM, Wednesday: 9AM-5PM, Thursday: 9AM-5PM, Friday: 9AM-5PM",Daily Living & Family Support Services,144.9170614,-37.6826691
Encompass House Ltd.,Encompass House - Seaford,"34-36 Heversham Drive, Seaford, VIC 3198",03 9776 9641,enquiries@encompasshouse.org.au,www.encompasshouse.org.au,"Monday: 9AM-5PM, Tuesday: 9AM-5PM, Wednesday: 9AM-5PM, Thursday: 9AM-5PM, Friday: 9AM-5PM, Saturday: 9AM-5PM, Sunday: 9AM-5PM",Daily Living & Family Support Services,145.141282,-38.112852
Bj Care Services Pty Ltd,Vale House,"2 Wetherby Road, Wyndham Vale, VIC 3024",0415 089 807,admin@bjcareservices.com.au,www.bjcareservices.com.au,"Monday: 12AM-11PM, Tuesday: 12AM-11PM, Wednesday: 12AM-11PM, Thursday: 12AM-11PM, Friday: 12AM-11PM, Saturday: 12AM-11PM, Sunday: 12AM-11PM",Daily Living & Family Support Services,144.5914834,-37.8444723
Melbourne Health & Care Services,Melbourne Health & Care Services Carlton,"71 Victoria Crescent, Abbotsford, VIC 3067",1800 849 062,melbournehealthcareservices@gmail.com,https://www.melbournehealthcare.com.au/,"Monday: 9AM-5PM, Tuesday: 9AM-5PM, Wednesday: 9AM-5PM, Thursday: 9AM-5PM, Friday: 9AM-5PM",Daily Living & Family Support Services,144.9987505,-37.8069558
Nextt,Nextt,"501 Swanston Street, Melbourne, VIC 3000",0404 866 582,adipietrantonio@nextt.com.au,www.nextt.com.au,"Monday: 8AM-6PM, Tuesday: 8AM-6PM, Wednesday: 8AM-6PM, Thursday: 8AM-6PM, Friday: 8AM-5PM, Saturday: 9AM-5PM, Sunday: 9AM-5PM",Daily Living & Family Support Services,144.9615586,-37.8067053
South West Healthcare,Lismore Community Health,"High Street, Lismore, VIC 3324",03 5558 3000,lismore2@swh.net.au,www.southwesthealthcare.com.au/swh,Monday: 9AM-5PM,Daily Living & Family Support Services,143.34002,-37.9531792
Aurora Support Services Inc.,Aurora Support Services - Frontier,"76 Edwardes Street, Reservoir, VIC 3073",03 9401 1844,info@aurorasupportservices.org.au,www.aurorasupportservices.org.au,"Monday: 9AM-3PM, Tuesday: 9AM-3PM, Wednesday: 9AM-3PM, Thursday: 9AM-3PM, Friday: 9AM-3PM",Daily Living & Family Support Services,145.002894,-37.715803
Housetide Support Services,Wodonga SIL House,"54a Charles Street, Wodonga, VIC 3690",02 6048 0888,daniel.etherden@housetidess.com.au,www.housetidess.com.au,"Monday: 9AM-5PM, Tuesday: 9AM-5PM, Wednesday: 9AM-5PM, Thursday: 9AM-5PM, Friday: 9AM-5PM, Saturday: 9AM-5PM, Sunday: 9AM-5PM",Daily Living & Family Support Services,146.8816636,-36.1317628
Rsa Disability Support Services,RSA Thornbury,"Arlington Aged Care, 3 Collins Street, Thornbury, VIC 3071",1800 772 669,info@rsaust.com.au,www.rsasupport.com.au,"Monday: 12AM-11PM, Tuesday: 12AM-11PM, Wednesday: 12AM-11PM, Thursday: 12AM-11PM, Friday: 12AM-11PM, Saturday: 12AM-11PM, Sunday: 12AM-11PM",Daily Living & Family Support Services,145.002247,-37.754519
Priority Disability Services Pty Ltd,Priority Disability Services - Main,"7 Thomas Holmes Street, Maribyrnong, VIC 3032",0478 659 904,priorityds1@gmail.com,www.priorityds.org,"Monday: 10AM-4PM, Tuesday: 10AM-4PM, Wednesday: 10AM-4PM, Thursday: 10AM-4PM, Friday: 10AM-4PM",Daily Living & Family Support Services,144.8926474,-37.7836982
Tubility Care,Tubility Care,"Unit 1 24 Taryn Drive, Epping, VIC 3076",0404 037 350,info@tubilitycare.com,www.tubilitycare.com,"Monday: 9AM-5PM, Tuesday: 9AM-5PM, Wednesday: 9AM-5PM, Thursday: 9AM-5PM, Friday: 9AM-5PM",Daily Living & Family Support Services,145.0039292,-37.6469272
Country N Coast Disability Services,Country n Coast Disability Support Servi,"14 Stanley Street, Wodonga, VIC 3690",02 5005 7290,admin@cncdisabilities.com.au,cncdisabilities.com.au,"Monday: 9AM-5PM, Tuesday: 9AM-5PM, Wednesday: 9AM-5PM, Thursday: 9AM-5PM, Friday: 9AM-5PM",Daily Living & Family Support Services,146.8866033,-36.122194
Complete Care Pty Ltd,Complete Care,"84-90 Hotham Street, Preston, VIC 3072",0431 728 583,info@completecareservices.com.au,www.completecareservices.com.au/,"Monday: 9AM-5PM, Tuesday: 9AM-5PM, Wednesday: 9AM-5PM, Thursday: 9AM-5PM, Friday: 9AM-5PM",Daily Living & Family Support Services,145.0083245,-37.7468634
Connecting2australia,Community Connections - Frankston,"32 Cranbourne Road, Frankston, VIC 3199",1300 111 212,info@c2a.org.au,www.connecting2australia.org.au,"Monday: 9AM-3PM, Tuesday: 9AM-3PM, Wednesday: 9AM-3PM, Thursday: 9AM-3PM, Friday: 9AM-3PM",Daily Living & Family Support Services,145.1306525,-38.1455472
Aruma Services Victoria Limited,"Aruma 1 28 Highland Street, Kingsbury","Unit 1, 28 Highland Street, Kingsbury, VIC 3083",03 9466 9356,belinda.jacobs@aruma.com.au,www.aruma.com.au,"Monday: 9AM-5PM, Tuesday: 9AM-5PM, Wednesday: 9AM-5PM, Thursday: 9AM-5PM, Friday: 9AM-5PM",Daily Living & Family Support Services,145.038665,-37.716593
Outside The Box Education.,Outside The Box Education,"Unit 1, 5 Bridge Street, Newtown, VIC 3220",0480 293 555,hello@outsidetheboxedu.com,www.outsidetheboxedu.com.au,"Monday: 9AM-4PM, Tuesday: 9AM-4PM, Wednesday: 9AM-4PM, Thursday: 9AM-4PM, Friday: 9AM-4PM",Daily Living & Family Support Services,144.3365297,-38.1601396
Personalised Support Services,Personalised Support Services,"294-300 Thomas Street, Dandenong, VIC 3175",1300 687 777,info@psupportservices.com.au,www.psupportservices.com.au,"Monday: 9AM-5PM, Tuesday: 9AM-5PM, Wednesday: 9AM-5PM, Thursday: 9AM-5PM, Friday: 9AM-5PM",Daily Living & Family Support Services,145.212691,-37.985486
Opendoor Ltd,Opendoor - Broadmeadows,"70-80 Pearcedale Parade, Broadmeadows, VIC 3047",1800 611 579,disability@opendoor.org.au,www.opendoor.org.au,"Monday: 9AM-5PM, Tuesday: 9AM-5PM, Wednesday: 9AM-5PM, Thursday: 9AM-5PM, Friday: 9AM-5PM",Daily Living & Family Support Services,144.9200633,-37.6761665
Connecting2australia,Work Connections - Seaford,"29 Sir Laurence Drive, Seaford, VIC 3198",1300 111 212,info@c2a.org.au,www.connecting2australia.org.au,"Monday: 8AM-3PM, Tuesday: 8AM-3PM, Wednesday: 8AM-3PM, Thursday: 8AM-3PM, Friday: 8AM-3PM",Daily Living & Family Support Services,145.1427475,-38.1163606
The Leaper Corporation Pty. Ltd.,THE LEAPER CORPORATION,"2-18 Homestead Avenue, Wallington, VIC 3222",03 5297 3400,susan.halsall@tlcagedcare.com.au,https://www.tlchomesteadestate.com.au,"Monday: 12AM-11PM, Tuesday: 12AM-11PM, Wednesday: 12AM-11PM, Thursday: 12AM-11PM, Friday: 12AM-11PM, Saturday: 12AM-11PM, Sunday: 12AM-11PM",Daily Living & Family Support Services,144.5366089,-38.2226626
Leap In!,Leap in! Moonee Ponds,"Moonee Ponds, Moonee Ponds, VIC 3039",1300 057 878,crew@leapin.com.au,www.leapin.com.au,"Monday: 9AM-5PM, Tuesday: 9AM-5PM, Wednesday: 9AM-5PM, Thursday: 9AM-5PM, Friday: 9AM-5PM",Daily Living & Family Support Services,144.9198932,-37.7675363
Gellibrand Support Services,Medfield Ave,"44 Medfield Avenue, Avondale Heights, VIC 3034",03 9300 5400,services@gellibrand.org.au,www.gellibrand.org.au,"Monday: 7AM-10PM, Tuesday: 7AM-10PM, Wednesday: 7AM-10PM, Thursday: 7AM-10PM, Friday: 7AM-10PM, Saturday: 8AM-11PM, Sunday: 8AM-11PM",Daily Living & Family Support Services,144.864055,-37.7654773
People's First Choice Australia,Quartz Grove,"9 Quartz Grove, Epping, VIC 3076",0413 548 655,manny@peoplesfirstchoice.com.au,https://www.pfca.com.au/,"Monday: 9AM-5PM, Tuesday: 9AM-5PM, Wednesday: 9AM-5PM, Thursday: 9AM-5PM, Friday: 9AM-5PM, Saturday: 9AM-5PM, Sunday: 9AM-5PM",Daily Living & Family Support Services,145.0341846,-37.6303588
Mambourin Enterprises,Mambourin - Sunshine,"50 Stanford Street, Sunshine, VIC 3020",03 9731 9200,contact@mambourin.org,www.mambourin.org,"Monday: 8AM-4PM, Tuesday: 8AM-4PM, Wednesday: 8AM-4PM, Thursday: 8AM-4PM, Friday: 8AM-4PM, Saturday: 9AM-5PM, Sunday: 9AM-5PM",Daily Living & Family Support Services,144.8347016,-37.7930389
Super Community Care Pty Ltd,Super Community Care,"9 Bulong Street, Dandenong, VIC 3175",0434 104 447,info@supercommunitycare.com.au,www.supercommunitycare.com.au,Monday: 9AM-5PM,Daily Living & Family Support Services,145.2038344,-37.9843561
The Bridge Connects,The Bridge Connects Pakenham,"89-91 Slattery Place, Pakenham, VIC 3810",03 8710 8555,info@thebridgeinc.org.au,www.thebridgeinc.org.au,"Monday: 8AM-8PM, Tuesday: 8AM-8PM, Wednesday: 8AM-8PM, Thursday: 8AM-8PM, Friday: 8AM-8PM, Saturday: 8AM-8PM, Sunday: 8AM-8PM",Daily Living & Family Support Services,145.4864739,-38.0787398
Raycare Australia,Raycare Australia,"Unit 111, 2 Graystone Court, Epping, VIC 3076",0470 647 782,admin@raycare.com.au,www.raycare.com.au,"Monday: 9AM-5PM, Tuesday: 9AM-5PM, Wednesday: 9AM-5PM, Thursday: 9AM-5PM, Friday: 9AM-5PM",Daily Living & Family Support Services,144.9842583,-37.6481011
Estia Investments Pty. Ltd.,Estia Health Epping VIC,"Estia Health Epping, 30 Epping Road, Epping, VIC 3076",03 9408 8564,don@eppingagedcare.com.au,https://www.estiahealth.com.au/,"Monday: 12AM-11PM, Tuesday: 12AM-11PM, Wednesday: 12AM-11PM, Thursday: 12AM-11PM, Friday: 12AM-11PM, Saturday: 12AM-11PM, Sunday: 12AM-11PM",Daily Living & Family Support Services,145.0278065,-37.635261
Aurora Support Services Inc.,Aurora Support Services -Leisure Links,"26 Vasey Avenue, Lalor, VIC 3075",03 9401 1844,info@aurorasupportservices.org,www.aurorasupportservices.org.au,"Monday: 9AM-3PM, Tuesday: 9AM-3PM, Wednesday: 9AM-3PM, Thursday: 9AM-3PM, Friday: 9AM-3PM",Daily Living & Family Support Services,145.0207678,-37.6686069
Aj Supports,Aj Supports,"106 Patty Street, Mentone, VIC 3194",0418 114 713,jrnoonan@optusnet.com.au,https://ajsupports.com.au,"Monday: 9AM-5PM, Tuesday: 9AM-5PM, Wednesday: 9AM-5PM, Thursday: 9AM-5PM, Friday: 9AM-5PM, Saturday: 9AM-5PM, Sunday: 9AM-5PM",Daily Living & Family Support Services,145.0647373,-37.9782986
Wallara Australia Ltd.,Seaford Health Hub,"Unit 2 St Kilda Football Club Training F, 151 East Road, Seaford, VIC 3198",03 9792 2985,intake@wallara.com.au,www.wallara.com.au,"Monday: 8AM-4PM, Tuesday: 8AM-4PM, Wednesday: 8AM-4PM, Thursday: 8AM-4PM, Friday: 8AM-4PM",Daily Living & Family Support Services,145.1569504,-38.1054152
Elevate Support Care Pty Limited,Lazy Daisy Farm,"340 Korumburra-Warragul Road, Warragul, VIC 3820",0449 873 127,abhinav@elevatesupportcare.com.au,elevatesupportcare.com.au,"Monday: 12AM-11PM, Tuesday: 12AM-11PM, Wednesday: 12AM-11PM, Thursday: 12AM-11PM, Friday: 12AM-11PM, Saturday: 12AM-11PM, Sunday: 12AM-11PM",Daily Living & Family Support Services,145.9293654,-38.2015747
Opendoor Ltd,Opendoor - Werribee,"Suite 10, Level 1, 75 Watton Street, Werribee, VIC 3030",1800 611 579,disability@opendoor.org.au,www.opendoor.org.au,"Monday: 9AM-5PM, Tuesday: 9AM-5PM, Wednesday: 9AM-5PM, Thursday: 9AM-5PM, Friday: 9AM-5PM",Daily Living & Family Support Services,144.661397,-37.9014594
The Bridge Connects,The Bridge Connects-Athol Rd,"69-71 Athol Road, Springvale South, VIC 3172",1800 274 343,info@thebridgeinc.org.au,www.thebridgeinc.org.au,"Monday: 9AM-5PM, Tuesday: 9AM-5PM, Wednesday: 9AM-5PM, Thursday: 9AM-5PM, Friday: 9AM-5PM, Saturday: 9AM-5PM, Sunday: 9AM-5PM",Daily Living & Family Support Services,145.159733,-37.972279
Aspire Community Services,Aspire Community Services,"Bluff Road, Sandringham, VIC 3191",1300 080 405,info@aspirecommunityservices.com.au,www.aspirecommunityservices.com.au,Monday: 9AM-5PM,Daily Living & Family Support Services,145.0206959,-37.9537908
Eminent Care Pty Ltd,Eminent Care,"34 Manley Street, Epping, VIC 3076",0401 081 161,info.eminentcare@gmail.com,eminentcare.com.au,"Monday: 9AM-5PM, Tuesday: 9AM-5PM, Wednesday: 9AM-5PM, Thursday: 9AM-5PM, Friday: 9AM-5PM, Saturday: 10AM-4PM",Daily Living & Family Support Services,145.0318465,-37.6330516
Opendoor Ltd,Opendoor - Northcote,"413 High Street, Northcote, VIC 3070",1800 611 579,disability@opendoor.org.au,www.opendoor.org.au,"Monday: 9AM-5PM, Tuesday: 9AM-5PM, Wednesday: 9AM-5PM, Thursday: 9AM-5PM, Friday: 9AM-5PM",Daily Living & Family Support Services,144.9990021,-37.7682312
Miti Health Care Pty Ltd,Miti Health Care,"223-225 Hampshire Road, Sunshine, VIC 3020",0492 668 668,info@miticare.com.au,www.miticare.com.au,"Monday: 9AM-5PM, Tuesday: 9AM-5PM, Wednesday: 9AM-5PM, Thursday: 9AM-5PM, Friday: 9AM-5PM",Daily Living & Family Support Services,144.831765,-37.785349
East Wimmera Health Service,Charlton Aged Care,"5 Learmonth Street, Charlton, VIC 3525",03 5477 2149,ndis@ewhs.org.au,www.ewhs.org.au,"Monday: 9AM-5PM, Tuesday: 9AM-5PM, Wednesday: 9AM-5PM, Thursday: 9AM-5PM, Friday: 9AM-5PM, Saturday: 9AM-5PM, Sunday: 9AM-5PM",Daily Living & Family Support Services,143.3523217,-36.2697124
Mopane Community Health Services,Mopane Community Health,"Unit 11, 2 Murdoch Road, South Morang, VIC 3752",03 8459 7020,admin@mopanehealth.com.au,www.mopanehealth.com.au,"Monday: 9AM-5PM, Tuesday: 9AM-5PM, Wednesday: 9AM-5PM, Thursday: 9AM-5PM, Friday: 9AM-5PM, Saturday: 9AM-5PM, Sunday: 9AM-5PM",Daily Living & Family Support Services,145.0866412,-37.6508168
Woods Point Aged Care,Woods Point Aged Care,"75-85 Orr Street, Yarrawonga, VIC 3730",03 5744 3400,marita@bentleywoodpl.com.au,www.bentleywoodpl.com.au,"Monday: 12AM-11PM, Tuesday: 12AM-11PM, Wednesday: 12AM-11PM, Thursday: 12AM-11PM, Friday: 12AM-11PM, Saturday: 12AM-11PM, Sunday: 12AM-11PM",Daily Living & Family Support Services,146.0139638,-36.0131729
Novacare Community Support,Novacare Community Support,"Level 2 Unit 217, 480 Collins Street, Melbourne, VIC 3000",0433 892 300,info@novacarecommunitysupport.com.au,https://novacarecommunitysupport.com.au/,"Monday: 9AM-5PM, Tuesday: 9AM-5PM, Wednesday: 9AM-5PM, Thursday: 9AM-5PM, Friday: 9AM-5PM",Daily Living & Family Support Services,144.957957,-37.817664
We Care Providers,We Care Providers - Essendon,"L 2 1070 Mt Alexander Road, Essendon, VIC 3040",1800 634 746,info@wecareproviders.com.au,www.wecareproviders.com.au/,"Monday: 9AM-5PM, Tuesday: 9AM-5PM, Wednesday: 9AM-5PM, Thursday: 9AM-5PM, Friday: 9AM-5PM",Daily Living & Family Support Services,144.9127144,-37.7475
West End Support Services,West End Support Services,"33 Steamboat Avenue, Winter Valley, VIC 3358",0438 517 201,debbie.jew@westendss.com.au,westendsupportservices.com.au,Monday: 9AM-5PM,Daily Living & Family Support Services,143.7984915,-37.5861764
Tch Care,TOTAL CARE AND HEALTH PTY LTD,"14 Vert Avenue, Narre Warren, VIC 3805",0468 808 070,adamhalango@gmail.com,tchcare.com.au,"Monday: 12AM-11PM, Tuesday: 12AM-11PM, Wednesday: 12AM-11PM, Thursday: 12AM-11PM, Friday: 12AM-11PM, Saturday: 12AM-11PM, Sunday: 12AM-11PM",Daily Living & Family Support Services,145.3214083,-38.0704995
Lighthouse Health & Support Services,Lighthouse Support,"200a Maroondah Highway, Healesville, VIC 3777",1800 877 914,hello@lighthousesupport.com.au,www.lighthousesupport.com.au,"Monday: 9AM-5PM, Tuesday: 9AM-5PM, Wednesday: 9AM-5PM, Thursday: 9AM-5PM, Friday: 9AM-5PM",Daily Living & Family Support Services,145.5133891,-37.6546116
Essa And More Pty Ltd,ESSA AND MORE PTY LTD,"Bronte Avenue, Burwood, VIC 3125",0477 079 987,services@essaandmore.com.au,https://essaandmore.com.au,"Monday: 9AM-5PM, Tuesday: 9AM-5PM, Wednesday: 9AM-5PM, Thursday: 9AM-5PM, Friday: 9AM-5PM, Saturday: 10AM-1PM",Daily Living & Family Support Services,145.1230143,-37.8477399
Idv Inc.,Idv Inc.,"36 Green Street, Thomastown, VIC 3074",03 9450 0790,claing@idv.com.au,www.thebridgeinc.org.au,"Monday: 8AM-4PM, Tuesday: 8AM-4PM, Wednesday: 8AM-4PM, Thursday: 8AM-4PM, Friday: 8AM-4PM",Daily Living & Family Support Services,145.038731,-37.6909285
The Support People Pty Ltd,The Support People,"Ballarat Gas And Plumbing Service, 405 Pleasant Street, Ballarat Central, VIC 3350",1300 946 737,hello@thesupportpeople.com,www.thesupportpeople.com,"Monday: 9AM-4PM, Tuesday: 9AM-4PM, Wednesday: 9AM-4PM, Thursday: 9AM-4PM, Friday: 9AM-4PM",Daily Living & Family Support Services,143.8376058,-37.5689645
Mccallum Disability Services,McCallum Office St Arnaud,"1 Long St, St Arnaud, VIC 3478",03 5495 1566,intake@mccallum.org.au,www.mccallum.org.au,"Monday: 8AM-5PM, Tuesday: 8AM-5PM, Wednesday: 8AM-5PM, Thursday: 8AM-5PM, Friday: 8AM-5PM, Saturday: 9AM-5PM, Sunday: 9AM-5PM",Daily Living & Family Support Services,143.2476775,-36.6083682
West End Support Services,West End Support Services,"5/108 Smythes Road, Delacombe, VIC 3356",0460 856 109,debbie.jew@westendss.com.au,westendsupportservices.com.au,Monday: 9AM-5PM,Daily Living & Family Support Services,143.8161106,-37.5877786
Milparinka Disability Services Incorpora,Milparinka Disability Services,"160 Lord Street, Richmond, VIC 3121",03 9387 9985,frank.crupi@milparinka.org.au,www.milparinka.org.au,"Monday: 8AM-3PM, Tuesday: 8AM-3PM, Wednesday: 8AM-3PM, Thursday: 8AM-3PM, Friday: 8AM-3PM",Daily Living & Family Support Services,145.0038373,-37.8254006
Gellibrand Support Services,Gellibrand Support Services,"1 Willow Street, Werribee, VIC 3030",03 9300 5400,services@gellibrand.org.au,www.gellibrand.org.au,"Monday: 7AM-10PM, Tuesday: 7AM-10PM, Wednesday: 7AM-10PM, Thursday: 7AM-10PM, Friday: 7AM-10PM, Saturday: 8AM-11PM, Sunday: 8AM-11PM",Daily Living & Family Support Services,144.653589,-37.8907744
Best Of Homecare,Best Of Homecare,"236 Jobs Gully Road, Jackass Flat, VIC 3556",0481 342 338,admin@bestofhomecare.com.au,www.bestofhomecare.com.au,Monday: 9AM-5PM,Daily Living & Family Support Services,144.2802073,-36.707518
Melbourne Health & Care Services,Melbourne Health & Care Services Dandeno,"44-46 Potter Street, Dandenong, VIC 3175",1800 849 062,melbournehealthcareservices@gmail.com,https://www.melbournehealthcare.com.au/,"Monday: 9AM-5PM, Tuesday: 9AM-5PM, Wednesday: 9AM-5PM, Thursday: 9AM-5PM, Friday: 9AM-5PM",Daily Living & Family Support Services,145.2063863,-37.9811765
Cosy Home And Community Care Pty. Ltd.,Cosy home and community care,"55 The Mall, Heidelberg West, VIC 3081",03 9457 5968,abdul@cosyhomecare.com.au,www.cosyhomecare.com.au/,"Monday: 9AM-5PM, Tuesday: 9AM-5PM, Wednesday: 9AM-5PM, Thursday: 9AM-5PM, Friday: 9AM-5PM, Saturday: 9AM-5PM, Sunday: 9AM-5PM",Daily Living & Family Support Services,145.0423759,-37.7483787
Mckenzie Aged Care Group Pty Ltd,Mckenzie Aged Care Group,"17-21 Ashley Street, Reservoir, VIC 3073",03 9469 4900,theashley@mckenzieacg.com,"44 musk ave, kelvin grove brisbane","Monday: 12AM-11PM, Tuesday: 12AM-11PM, Wednesday: 12AM-11PM, Thursday: 12AM-11PM, Friday: 12AM-11PM, Saturday: 12AM-11PM, Sunday: 12AM-11PM",Daily Living & Family Support Services,145.0018767,-37.7179351
Uniting (Victoria And Tasmania),Uniting Vic & Tas - SLES Werribee,"1 Duncans Road, Werribee, VIC 3030",1300 090 989,employmentservices@unitingvictas.org.au,https://www.unitingvictas.org.au/,"Monday: 9AM-5PM, Tuesday: 9AM-5PM, Wednesday: 9AM-5PM, Thursday: 9AM-5PM, Friday: 9AM-5PM",Daily Living & Family Support Services,144.6619102,-37.9012096
Encompass House Ltd.,Encompass house - Head Office,"912-914 High Street, Reservoir, VIC 3073",03 9383 3222,enquiries@encompasshouse.org.au,www.encompasshouse.org.au,"Monday: 9AM-5PM, Tuesday: 9AM-5PM, Wednesday: 9AM-5PM, Thursday: 9AM-5PM, Friday: 9AM-5PM, Saturday: 9AM-5PM, Sunday: 9AM-5PM",Daily Living & Family Support Services,145.007469,-37.719062
Annecto Incorporated,South Eastern Metro Region - Mornington,"Unit 21 Bentons Square Sc, 210 Dunns Road, Mornington, VIC 3931",03 9872 6700,eastern.allocations@annecto.org.au,www.annecto.org.au,"Monday: 9AM-5PM, Tuesday: 9AM-5PM, Wednesday: 9AM-5PM, Thursday: 9AM-5PM, Friday: 9AM-5PM, Saturday: 9AM-5PM, Sunday: 9AM-5PM",Daily Living & Family Support Services,145.0476235,-38.2453305
West End Support Services,12 Pontiac Supported SDA improved livabi,"12 Pontiac Drive, Smythes Creek, VIC 3351",0438 517 201,debbie.jew@westendss.com.au,westendsupportservices.com.au,"Monday: 8AM-6PM, Tuesday: 8AM-6PM, Wednesday: 8AM-6PM, Thursday: 8AM-6PM, Friday: 8AM-6PM, Saturday: 8AM-6PM, Sunday: 8AM-6PM",Daily Living & Family Support Services,143.7993924,-37.5920807
Care Provisions Australia,"407 Chesterville Road, East Bentleigh, V","407, Chesterville Road, East Bentleigh, VIC 3165",0406 370 244,charity.samuriwo@careprovisions.com.au,www.careprovisions.com.au/,"Monday: 9AM-5PM, Tuesday: 9AM-5PM, Wednesday: 9AM-5PM, Thursday: 9AM-5PM, Friday: 9AM-5PM, Saturday: 9AM-5PM, Sunday: 9AM-5PM",Daily Living & Family Support Services,145.0637758,-37.9243281
Bayley House,Bayley House,"52 Middle Crescent, Brighton, VIC 3186",03 9982 1500,contactus@bayleyhouse.org.au,www.bayleyhouse.org.au,"Monday: 9AM-5PM, Tuesday: 9AM-5PM, Wednesday: 9AM-5PM, Thursday: 9AM-5PM, Friday: 9AM-5PM",Daily Living & Family Support Services,144.9953122,-37.9096097
Knoxbrooke Incorporated,Yarra View Nursery,"136 York Road, Mount Evelyn, VIC 3796",03 9737 0400,scott.buckland@knoxbrooke.com.au,www.knoxbrooke.com.au,"Monday: 8AM-3PM, Tuesday: 8AM-3PM, Wednesday: 8AM-3PM, Thursday: 8AM-3PM, Friday: 8AM-3PM",Daily Living & Family Support Services,145.3636067,-37.7965265
Opendoor Ltd,Opendoor- Sunbury,"30 Station Street, Sunbury, VIC 3429",1800 611 579,disability@opendoor.org.au,www.opendoor.org.au,"Monday: 9AM-5PM, Tuesday: 9AM-5PM, Wednesday: 9AM-5PM, Thursday: 9AM-5PM, Friday: 9AM-5PM",Daily Living & Family Support Services,144.7282758,-37.5827517
Shepparton Retirement Villages Inc.,Banksia Lodge Residential Aged Care Serv,"Banksia Lodge, 15 Waranga Drive, Kialla, VIC 3631",03 5832 0800,helenm@sheppvillages.com.au,www.sheppvillages.com.au,"Monday: 12AM-11PM, Tuesday: 12AM-11PM, Wednesday: 12AM-11PM, Thursday: 12AM-11PM, Friday: 12AM-11PM, Saturday: 12AM-11PM, Sunday: 12AM-11PM",Daily Living & Family Support Services,145.3999971,-36.4180164
Gellibrand Support Services,Gellibrand Support Services,"24 Eppalock Circuit, Caroline Springs, VIC 3023",03 9300 5400,services@gellibrand.org.au,www.gellibrand.org.au,"Monday: 7AM-10PM, Tuesday: 7AM-10PM, Wednesday: 7AM-10PM, Thursday: 7AM-10PM, Friday: 7AM-10PM, Saturday: 8AM-11PM, Sunday: 8AM-11PM",Daily Living & Family Support Services,144.7368541,-37.7506711
Wellways Australia Limited,Wellways - Fairfield,"276 Heidelberg Road, Fairfield, VIC 3078",1300 111 400,cdsnational@wellways.org,www.wellways.org,"Monday: 9AM-5PM, Tuesday: 9AM-5PM, Wednesday: 9AM-5PM, Thursday: 9AM-5PM, Friday: 9AM-5PM",Daily Living & Family Support Services,145.0111463,-37.7845289
Wintringham,Wintringham-Gilgunya,"Gilgunya Village, 23 Harding Street, Coburg, VIC 3058",03 9376 1122,adviceandinfo@wintringham.org.au,www.wintringham.org.au,"Monday: 9AM-5PM, Tuesday: 9AM-5PM, Wednesday: 9AM-5PM, Thursday: 9AM-5PM, Friday: 9AM-5PM",Daily Living & Family Support Services,144.969583,-37.7452437
Great Ocean Stays - Destination Accessib,374 Aberdeen Street Newtown,"374 Aberdeen Street, Newtown, VIC 3220",0403 515 605,book@greatoceanstays.com.au,www.destinationaccessible.com.au,Monday: 9AM-5PM,Daily Living & Family Support Services,144.3273592,-38.1441318
Fighting Chance Australia,Fighting Chance Australia,"20 Trenerry Crescent, Abbotsford, VIC 3067",1300 166 734,cel.melbourne@jigsawaustralia.com.au,www.fightingchance.org.au,"Monday: 9AM-5PM, Tuesday: 9AM-5PM, Wednesday: 9AM-5PM, Thursday: 9AM-5PM, Friday: 9AM-5PM",Daily Living & Family Support Services,144.9999365,-37.7991973
Genu Karingal St Laurence,Genu Karingal St Laurence,"101 Queen Street, Colac, VIC 3250",1300 558 368,corporate@genu.org.au,www.genu.org.au,"Monday: 9AM-5PM, Tuesday: 9AM-5PM, Wednesday: 9AM-5PM, Thursday: 9AM-5PM, Friday: 9AM-5PM",Daily Living & Family Support Services,143.5912371,-38.3437857
Gellibrand Support Services,Gellibrand Support Services,"10-14 Linnet Street, Altona, VIC 3018",03 9300 5400,services@gellibrand.org.au,www.gellibrand.org.au,"Monday: 7AM-10AM, Tuesday: 7AM-10PM, Wednesday: 7AM-10PM, Thursday: 7AM-10PM, Friday: 7AM-10PM, Saturday: 8AM-11PM, Sunday: 8AM-11PM",Daily Living & Family Support Services,144.816053,-37.868073
Uniting (Victoria And Tasmania),Uniting Vic & Tas - Disability Day Progr,"185 Baillie Street, Horsham, VIC 3400",03 9192 8101,ndis@vt.uniting.org,https://www.unitingvictas.org.au/,Monday: 9AM-5PM,Daily Living & Family Support Services,142.198053,-36.7120385
Webster Support Services,Webster Support Services,"67 Sydney Road, Coburg, VIC 3058",0401 664 456,support@websterndissupport.com.au,www.websterndissupport.com.au,"Monday: 8AM-11PM, Tuesday: 8AM-11PM, Wednesday: 8AM-11PM, Thursday: 8AM-11PM, Friday: 8AM-11PM, Saturday: 8AM-11PM, Sunday: 8AM-11PM",Daily Living & Family Support Services,144.9642115,-37.753584
Leisure Networks Association Inc,Leisure Networks Wyndham,"191 Watton Street, Werribee, VIC 3030",03 5222 3911,assist@leisurenetworks.org,www.leisurenetworks.org,"Monday: 9AM-5PM, Tuesday: 9AM-5PM, Wednesday: 9AM-5PM, Thursday: 9AM-5PM, Friday: 9AM-5PM, Saturday: 9AM-5PM, Sunday: 9AM-5PM",Daily Living & Family Support Services,144.6568359,-37.9041184
Milife-Victoria Inc,Milife-Victoria Inc,"100a Aqueduct Road, Langwarrin, VIC 3910",03 9775 7333,donna.wilde@milife-victoria.org.au,www.milife-victoria.org.au,"Monday: 9AM-5PM, Tuesday: 9AM-5PM, Wednesday: 9AM-5PM, Thursday: 9AM-5PM, Friday: 9AM-5PM",Daily Living & Family Support Services,145.2022982,-38.1593008
Safa Care Pty Ltd,SAFACARE,"Unit 112, 22 Wallace Avenue, Point Cook, VIC 3030",0412 125 394,safacare01@gmail.com,www.safa-care.com.au,Monday: 9AM-5PM,Daily Living & Family Support Services,144.7462185,-37.8720646
St John Of God Accord,St John of God Accord - Community Campus,"130 Diamond Creek Road, St Helena, VIC 3088",1300 002 226,accord.ceo@sjog.org.au,www.accorddisability.org.au,Monday: 8AM-4PM,Daily Living & Family Support Services,145.1144837,-37.6895472
Coability Pty Ltd,CoAbility - Collingwood,"36-38 Gipps Street, Collingwood, VIC 3066",1800 262 245,hello@coability.com.au,www.coability.com.au,"Monday: 9AM-5PM, Tuesday: 9AM-5PM, Wednesday: 9AM-5PM, Thursday: 9AM-5PM, Friday: 9AM-5PM, Saturday: 9AM-5PM, Sunday: 9AM-5PM",Daily Living & Family Support Services,144.9882594,-37.80416
Nextt,Nextt,"30 Eastwood Street, Bakery Hill, VIC 3350",0413 404 801,lbeardmore@nextt.com.au,www.nextt.com.au,"Monday: 9AM-5PM, Tuesday: 9AM-5PM, Wednesday: 9AM-5PM, Thursday: 9AM-5PM, Friday: 9AM-5PM, Saturday: 9AM-5PM, Sunday: 9AM-5PM",Daily Living & Family Support Services,143.8638748,-37.5651508
Uniting (Victoria And Tasmania),Uniting Vic & Tas - Fire and Clay,"101 Beresford Road, Lilydale, VIC 3140",03 9192 8101,ndis@vt.uniting.org,https://www.unitingvictas.org.au/,"Monday: 9AM-5PM, Tuesday: 9AM-5PM, Wednesday: 9AM-5PM, Thursday: 9AM-5PM, Friday: 9AM-5PM",Daily Living & Family Support Services,145.348419,-37.7505301
Annecto Incorporated,Annecto Incorporated,"2 Bacchus Street, Maddingley, VIC 3340",03 5366 3000,yourchoice@merrimu.org,www.annecto.org.au,"Monday: 8AM-4PM, Tuesday: 8AM-4PM, Wednesday: 8AM-4PM, Thursday: 8AM-4PM, Friday: 8AM-4PM, Saturday: 9AM-5PM, Sunday: 9AM-5PM",Daily Living & Family Support Services,144.4246302,-37.681711
Site Disability Services,SITE Disability Services,"19 Moorefield Park Drive, West Wodonga, VIC 3690",02 6024 7988,info@siteds.org.au,www.siteds.org.au,"Monday: 9AM-4PM, Tuesday: 9AM-4PM, Wednesday: 9AM-4PM, Thursday: 9AM-4PM, Friday: 9AM-4PM, Saturday: 9AM-5PM, Sunday: 9AM-5PM",Daily Living & Family Support Services,146.855103,-36.113182
Best Of Homecare,Best Of Homecare,"1 Rearden Close, Endeavour Hills, VIC 3802",03 8751 8460,admin@bestofhomecare.com.au,www.bestofhomecare.com.au,Monday: 9AM-5PM,Daily Living & Family Support Services,145.2473236,-37.9750863
Focus Individualised Support Services,RYMER,"83 Rymer Avenue, Safety Beach, VIC 3936",03 5981 5100,cashmanf@focuslife.com.au,www.focuslife.com.au,"Monday: 12AM-11PM, Tuesday: 12AM-11PM, Wednesday: 12AM-11PM, Thursday: 12AM-11PM, Friday: 12AM-11PM, Saturday: 12AM-11PM, Sunday: 12AM-11PM",Daily Living & Family Support Services,145.0018874,-38.3115514
Advantage Care Pty Ltd,Advantage Care,"Unit 2 55 Ivanhoe Avenue, St Albans, VIC 3021",0432 115 549,advantagecaredsp@gmail.com,https://advantage-care.com.au/,"Monday: 9AM-5PM, Tuesday: 9AM-5PM, Wednesday: 9AM-5PM, Thursday: 9AM-5PM, Friday: 9AM-5PM, Saturday: 9AM-5PM, Sunday: 9AM-5PM",Daily Living & Family Support Services,144.8136185,-37.741414
Absolute Caring Professionals Pty Ltd,Absolute Caring,"80 Lakeside Drive, Roxburgh Park, VIC 3064",0476 509 988,absolutecaring12@gmail.com,www.absolutecaring.com.au,"Monday: 9AM-5PM, Tuesday: 9AM-5PM, Wednesday: 9AM-5PM, Thursday: 9AM-5PM, Friday: 9AM-5PM",Daily Living & Family Support Services,144.9328531,-37.6300988
Wallara Australia Ltd.,Ebdale Hub,"Ebdale Hub/Frankston Toy Library, 20 Ebdale Street, Frankston, VIC 3199",03 9792 2985,intake@wallara.com.au,www.wallara.com.au,Monday: 9AM-5PM,Daily Living & Family Support Services,145.1267408,-38.1370254
Murray Human Services Inc T/As We Are Vi,Vivid Work Crew - Kerang,"14-16 Scoresby Street, Kerang, VIC 3579",03 5032 2170,maree.miliano@wearevivid.org.au,www.wearevivid.org.au,Monday: 9AM-5PM,Daily Living & Family Support Services,143.9213407,-35.7331523
Cobden Health,Lovely Banks Nursing Home,"5 Victoria Street, Cobden, VIC 3266",03 5595 3100,ceo@cobdenhealth.org.au,www.cobdenhealth.org.au,"Monday: 9AM-5PM, Tuesday: 9AM-5PM, Wednesday: 9AM-5PM, Thursday: 9AM-5PM, Friday: 9AM-5PM, Saturday: 9AM-5PM, Sunday: 9AM-5PM",Daily Living & Family Support Services,143.0760836,-38.3324437
360 Health Management Pty. Ltd.,360 Health Management,"10a Tallarook Street, Seymour, VIC 3660",03 5814 5118,enquiries@360healthmanagement.com.au,www.360healthmanagement.com.au,"Monday: 9AM-4PM, Tuesday: 9AM-4PM, Wednesday: 9AM-4PM, Thursday: 9AM-4PM, Friday: 9AM-4PM",Daily Living & Family Support Services,145.1339908,-37.0247872
The Bridge Connects,The Bridge Connects - The Hub,"31 Princes Highway, Dandenong, VIC 3175",1800 274 343,info@thebridgeinc.org.au,www.thebridgeinc.org.au,"Monday: 9AM-5PM, Tuesday: 9AM-5PM, Wednesday: 9AM-5PM, Thursday: 9AM-5PM, Friday: 9AM-5PM, Saturday: 8AM-8PM, Sunday: 8AM-8PM",Daily Living & Family Support Services,145.2126314,-37.9838637
Memorable Care Pty Ltd,Memorable Care,"9 Lewis Avenue, Burnside, VIC 3023",0478 753 832,info@memorablecare.com.au,memorablecare.com.au,"Monday: 9AM-5PM, Tuesday: 9AM-5PM, Wednesday: 9AM-5PM, Thursday: 9AM-5PM, Friday: 9AM-5PM",Daily Living & Family Support Services,144.7520087,-37.7556964
Connecting2australia,Work Connections - Bellfield,"3 Wimpole Crescent, Bellfield, VIC 3081",1300 111 212,info@c2a.org.au,www.connecting2australia.org.au,"Monday: 9AM-5PM, Tuesday: 9AM-5PM, Wednesday: 9AM-5PM, Thursday: 9AM-5PM, Friday: 9AM-5PM",Daily Living & Family Support Services,145.0327908,-37.7542762
Additional Needs Education Pty Ltd,ANE Hub,"24 King Street, Blackburn, VIC 3130",0421 203 337,c.davies.ane@gmail.com,www.additionalneedseducation.com.au,"Monday: 8AM-6PM, Tuesday: 8AM-6PM, Wednesday: 8AM-6PM, Thursday: 8AM-6PM, Friday: 8AM-6PM, Saturday: 10AM-6PM, Sunday: 10AM-6PM",Daily Living & Family Support Services,145.1636298,-37.820636
Shepparton Retirement Villages Inc.,Shepparton Regional Restorative Care Pro,"9 Batman Avenue, Shepparton, VIC 3630",03 5832 0800,ceo@sheppvillages.com.au,www.sheppvillages.com.au,"Monday: 12AM-11PM, Tuesday: 12AM-11PM, Wednesday: 12AM-11PM, Thursday: 12AM-11PM, Friday: 12AM-11PM, Saturday: 12AM-11PM, Sunday: 12AM-11PM",Daily Living & Family Support Services,145.3897999,-36.3633063
The Bridge Connects,The Bridge Connects-Webb Street,"67-69 Webb Street, Narre Warren, VIC 3805",1800 274 343,info@thebridgeinc.org.au,www.thebridgeinc.org.au,"Monday: 9AM-5PM, Tuesday: 9AM-5PM, Wednesday: 9AM-5PM, Thursday: 9AM-5PM, Friday: 9AM-5PM, Saturday: 9AM-5PM, Sunday: 9AM-5PM",Daily Living & Family Support Services,145.3057989,-38.0229782
Great Ocean Stays - Destination Accessib,Bell 3,"4-6 Bell Street, Ocean Grove, VIC 3226",0403 515 605,book@greatoceanstays.com.au,www.destinationaccessible.com.au,Monday: 9AM-5PM,Daily Living & Family Support Services,144.5120725,-38.260822
The Bridge Connects,The Bridge Connects-Stawell Street,"3 Stawell Street, Cranbourne, VIC 3977",1800 274 343,info@thebridgeinc.org.au,www.thebridgeinc.org.au,"Monday: 9AM-5PM, Tuesday: 9AM-5PM, Wednesday: 9AM-5PM, Thursday: 9AM-5PM, Friday: 9AM-5PM, Saturday: 9AM-5PM, Sunday: 9AM-5PM",Daily Living & Family Support Services,145.2839228,-38.1077736
Australian Unity Care Services Pty Ltd,Campbell Place,"129 Coleman Parade, Glen Waverley, VIC 3150",03 9560 8244,ialcompliance@australianunity.com.au,https://www.australianunity.com.au/aged-care,"Monday: 12AM-11PM, Tuesday: 12AM-11PM, Wednesday: 12AM-11PM, Thursday: 12AM-11PM, Friday: 12AM-11PM, Saturday: 12AM-11PM, Sunday: 12AM-11PM",Daily Living & Family Support Services,145.1595236,-37.8791545
Hilda Care,Hilda Care,"67 Stony Brook Way, Truganina, VIC 3029",0426 076 057,info.ohcservices@gmail.com,www.hildacare.com.au,"Monday: 9AM-5PM, Tuesday: 9AM-5PM, Wednesday: 9AM-5PM, Thursday: 9AM-5PM, Friday: 9AM-5PM, Saturday: 9AM-5PM, Sunday: 9AM-5PM",Daily Living & Family Support Services,144.7118168,-37.8401701
Future Focus Group Pty Ltd,Future Focus Support Coordination Bendig,"118 King Street, Bendigo, VIC 3550",1300 202 303,info@futurefocussc.com.au,www.ffsc.com.au,"Monday: 9AM-5PM, Tuesday: 9AM-5PM, Wednesday: 9AM-5PM, Thursday: 9AM-5PM, Friday: 9AM-5PM",Daily Living & Family Support Services,144.2752509,-36.765742
Tlc Independent Living,TLC Independent Living,"1 Argyle Court, Berwick, VIC 3806",0418 177 951,clients@tlcindependentliving.com,www.tlcindependentliving.com,"Monday: 9AM-8PM, Tuesday: 9AM-8PM, Wednesday: 9AM-8PM, Thursday: 9AM-8PM, Friday: 9AM-8PM, Saturday: 9AM-8PM, Sunday: 9AM-8PM",Daily Living & Family Support Services,145.3251989,-38.0263187
Craigcare,Craigcare Berwick,"21 Parkhill Drive, Berwick, VIC 3806",03 9705 4600,fm-berwick@craigcare.com.au,https://craigcare.com.au,"Monday: 12AM-11PM, Tuesday: 12AM-11PM, Wednesday: 12AM-11PM, Thursday: 12AM-11PM, Friday: 12AM-11PM, Saturday: 12AM-11PM, Sunday: 12AM-11PM",Daily Living & Family Support Services,145.32677,-38.0276459
Beyond Boundaries Disability Services Pt,BEYOND BOUNDARIES DISABILITY SERVICES PT,"93 The Avenue, Coburg, VIC 3058",0422 992 707,beyondboundariesaj@gmail.com,www.beyondboundaries.com.au,"Monday: 9AM-5PM, Tuesday: 9AM-5PM, Wednesday: 9AM-5PM, Thursday: 9AM-5PM, Friday: 9AM-5PM",Daily Living & Family Support Services,144.969969,-37.7526017
Opendoor Ltd,Opendoor - Heidelberg,"104 Burgundy Street, Heidelberg, VIC 3084",1800 611 579,disability@opendoor.org.au,www.opendoor.org.au,"Monday: 9AM-5PM, Tuesday: 9AM-5PM, Wednesday: 9AM-5PM, Thursday: 9AM-5PM, Friday: 9AM-5PM",Daily Living & Family Support Services,145.0666947,-37.7561916
Extended Families Australia,Extended Families Australia,"Unit 15, 27 Bank Street, Box Hill, VIC 3128",03 9275 6953,intake@extendedfamilies.org.au,www.extendedfamilies.org.au,"Monday: 9AM-5PM, Tuesday: 9AM-5PM, Wednesday: 9AM-5PM, Thursday: 9AM-5PM, Friday: 9AM-5PM",Daily Living & Family Support Services,145.1266169,-37.8196123
Cornerstone Care Australia Pty. Limited,Cornerstone Care Australia,"Unit 5, 1445 South Gippsland Highway, Cranbourne, VIC 3977",03 5911 2544,info@cornerstonecareaustralia.com,www.cornerstonecareaustralia.com,"Monday: 9AM-5PM, Tuesday: 9AM-5PM, Wednesday: 9AM-5PM, Thursday: 9AM-5PM, Friday: 9AM-5PM",Daily Living & Family Support Services,145.2863114,-38.1156583
Caspa Care,South Port Community Residential Home,"Southport Nursing Home, 18 Richardson Street, Albert Park, VIC 3206",03 9633 9200,wsmith@caspacare.org.au,https://caspacare.org.au/,"Monday: 12PM-11PM, Tuesday: 12PM-11PM, Wednesday: 12PM-11PM, Thursday: 12PM-11PM, Friday: 12PM-11PM, Saturday: 12PM-11PM, Sunday: 12PM-11PM",Daily Living & Family Support Services,144.9483489,-37.8423156
Gellibrand Support Services,Gellibrand Support Services,"17 Hanmer Street, Williamstown, VIC 3016",03 9300 5400,services@gellibrand.org.au,www.gellibrand.org.au,"Monday: 7AM-10PM, Tuesday: 7AM-10PM, Wednesday: 7AM-10PM, Thursday: 7AM-10PM, Friday: 7AM-10PM, Saturday: 8AM-11PM, Sunday: 8AM-11PM",Daily Living & Family Support Services,144.9058416,-37.8672576
Gellibrand Support Services,Honey Grove,"16 Honey Grove, St Albans, VIC 3021",03 9300 5400,services@gellibrand.org.au,www.gellibrand.org.au,"Monday: 7AM-10PM, Tuesday: 7AM-10PM, Wednesday: 7AM-10PM, Thursday: 7AM-10PM, Friday: 7AM-10PM, Saturday: 8AM-11PM, Sunday: 8AM-11PM",Daily Living & Family Support Services,144.8169211,-37.7350752
Swan Hill District Health,Swan Hill District Health,"Swan Hill Dist Hospital, 48 Splatt Street, Swan Hill, VIC 3585",0436 475 840,ndis@shdh.org.au,www.shdh.org.au,"Monday: 8AM-4PM, Tuesday: 8AM-4PM, Wednesday: 8AM-4PM, Thursday: 8AM-4PM, Friday: 8AM-4PM, Saturday: 9AM-5PM, Sunday: 9AM-5PM",Daily Living & Family Support Services,143.5562929,-35.340575
Araluen Centre,Araluen Centre,"226 Old Eltham Road, Lower Plenty, VIC 3093",03 9439 2805,helenr@araluen.org,araluen.org.au,"Monday: 9AM-3PM, Tuesday: 9AM-3PM, Wednesday: 9AM-3PM, Thursday: 9AM-3PM, Friday: 9AM-3PM, Saturday: 10AM-4PM",Daily Living & Family Support Services,145.1313184,-37.7346728
Life Health Services Pty Ltd,Life Health Services,"27 Watsons Road, Glen Waverley, VIC 3150",0413 664 800,info@lifehealthservices.com.au,www.lifehealthservices.com.au,"Monday: 12AM-11PM, Tuesday: 12AM-11PM, Wednesday: 12AM-11PM, Thursday: 12AM-11PM, Friday: 12AM-11PM, Saturday: 12AM-11PM, Sunday: 12AM-11PM",Daily Living & Family Support Services,145.1695594,-37.8921705
Baptcare Ltd,Baptcare Peninsula View Community,"24-28 Moorooduc Highway, Frankston South, VIC 3199",03 5971 3866,bquigley@baptcare.org.au,www.baptcare.org.au,"Monday: 12AM-11PM, Tuesday: 12AM-11PM, Wednesday: 12AM-11PM, Thursday: 12AM-11PM, Friday: 12AM-11PM, Saturday: 12AM-11PM, Sunday: 12AM-11PM",Daily Living & Family Support Services,145.1392694,-38.1854944
Estia Investments Pty. Ltd.,Estia Health Ringwood,"211 Wantirna Road, Ringwood, VIC 3134",1300 682 833,admissions@estiahealth.com.au,https://www.estiahealth.com.au/,"Monday: 12AM-11PM, Tuesday: 12AM-11PM, Wednesday: 12AM-11PM, Thursday: 12AM-11PM, Friday: 12AM-11PM, Saturday: 12AM-11PM, Sunday: 12AM-11PM",Daily Living & Family Support Services,145.2278776,-37.8375469
Annecto Incorporated,Annecto Incorporated,"Unit 280 Forest Hill Chase Shopping Cen, 270 Canterbury Road, Forest Hill, VIC 3131",03 9876 0122,eastern.allocations@annecto.org.au,www.annecto.org.au,"Monday: 9AM-5PM, Tuesday: 9AM-5PM, Wednesday: 9AM-5PM, Thursday: 9AM-5PM, Friday: 9AM-5PM, Saturday: 9AM-5PM, Sunday: 9AM-5PM",Daily Living & Family Support Services,145.1644833,-37.8355107
Tch Care,Tch Care,"4 Marblelight Way, Clyde North, VIC 3978",0468 808 070,adam@tchcare.com.au,tchcare.com.au,"Monday: 9AM-5PM, Tuesday: 9AM-5PM, Wednesday: 9AM-5PM, Thursday: 9AM-5PM, Friday: 9AM-5PM, Saturday: 5AM-5PM, Sunday: 5AM-5PM",Daily Living & Family Support Services,145.3467459,-38.0805563
Goulburn Valley Family Care Inc,FamilyCare - IntoRec,"94 Wyndham Street, Shepparton, VIC 3630",03 5823 7047,intorec@familycare.net.au,www.familycare.net.au,"Monday: 7AM-9PM, Tuesday: 7AM-9PM, Wednesday: 7AM-9PM, Thursday: 7AM-9PM, Friday: 7AM-9PM, Saturday: 7AM-9PM, Sunday: 7AM-9PM",Daily Living & Family Support Services,145.4000995,-36.3750442
Merakis Enterprises Pty Ltd,Frankston Nursing Home,"8-12 Nolan Street, Frankston, VIC 3199",0422 232 099,george@meracare.com.au,meracare.com.au,"Monday: 12AM-11PM, Tuesday: 12AM-11PM, Wednesday: 12AM-11PM, Thursday: 12AM-11PM, Friday: 12AM-11PM, Saturday: 12AM-11PM, Sunday: 12AM-11PM",Daily Living & Family Support Services,145.117605,-38.149457
The Bridge Connects,The Bridge Connects-Clyde Rd,"49 Wallace Street, Beaconsfield, VIC 3807",1800 274 343,info@thebridgeinc.org.au,www.thebridgeinc.org.au,"Monday: 9AM-5PM, Tuesday: 9AM-5PM, Wednesday: 9AM-5PM, Thursday: 9AM-5PM, Friday: 9AM-5PM, Saturday: 9AM-5PM, Sunday: 9AM-5PM",Daily Living & Family Support Services,145.3692313,-38.0465194
Rubies Community Care,Tarneit Special House,"30 Pomelo Street, Tarneit, VIC 3029",0415 950 572,manager@rubiesnursingcare.com.au,www.rubiesnursingcare.com.au,Monday: 9AM-5PM,Daily Living & Family Support Services,144.6800097,-37.8164958
Estia Investments Pty. Ltd.,Estia Health Coolaroo,"15 Mladen Court, Coolaroo, VIC 3048",03 9309 0011,coolaroo@estiahealth.com.au,https://www.estiahealth.com.au/,"Monday: 12AM-11PM, Tuesday: 12AM-11PM, Wednesday: 12AM-11PM, Thursday: 12AM-11PM, Friday: 12AM-11PM, Saturday: 12AM-11PM, Sunday: 12AM-11PM",Daily Living & Family Support Services,144.931461,-37.6572234
Smarter Connections P/ L Atf The Walker,Smarter Connections,"7 Balboa Lane, Campbellfield, VIC 3061",03 8256 3800,info@smarterconnections.com.au,www.smarterconnections.com.au,Monday: 9AM-5PM,Daily Living & Family Support Services,144.9597978,-37.684617
Moran Roxburgh Park,Moran Roxburgh Park,"Moran Roxburgh Park, 3 Wedgewood Road, Roxburgh Park, VIC 3064",03 9303 6333,roxburghpark@morangroup.com.au,www.moranhealthcare.com.au,"Monday: 12AM-11PM, Tuesday: 12AM-11PM, Wednesday: 12AM-11PM, Thursday: 12AM-11PM, Friday: 12AM-11PM, Saturday: 12AM-11PM, Sunday: 12AM-11PM",Daily Living & Family Support Services,144.935929,-37.6198172
Basscare,Faversham House,"Faversham House, 27 Shierlaw Avenue, Canterbury, VIC 3126",03 8809 4917,j.cotter@basscare.org.au,www.basscare.org.au,"Monday: 12AM-11PM, Tuesday: 12AM-11PM, Wednesday: 12AM-11PM, Thursday: 12AM-11PM, Friday: 12AM-11PM, Saturday: 12AM-11PM, Sunday: 12AM-11PM",Daily Living & Family Support Services,145.085026,-37.822454
Core Aspire Services,Core Aspire Services,"16 Majestic Drive, Officer, VIC 3809",0468 895 660,coreaspireservices@gmail.com,https://coreaspire.com.au,"Monday: 9AM-5PM, Tuesday: 9AM-5PM, Wednesday: 9AM-5PM, Thursday: 9AM-5PM, Friday: 9AM-5PM, Saturday: 8AM-4PM, Sunday: 8AM-1PM",Daily Living & Family Support Services,145.4361955,-38.0604229
Infinite Ability,Infinite Ability - Lyndhrust,"88 Sustain Circuit, Lyndhurst, VIC 3975",03 9088 1422,info@infiniteability.com.au,www.infiniteability.com.au,"Monday: 9AM-5PM, Tuesday: 9AM-5PM, Wednesday: 9AM-5PM, Thursday: 9AM-5PM, Friday: 9AM-5PM",Daily Living & Family Support Services,145.2517746,-38.0666597
Leap In!,Leap in! Box Hill,"Box Hill, Box Hill, VIC 3128",1300 057 878,crew@leapin.com.au,www.leapin.com.au,"Monday: 9AM-5PM, Tuesday: 9AM-5PM, Wednesday: 9AM-5PM, Thursday: 9AM-5PM, Friday: 9AM-5PM",Daily Living & Family Support Services,145.1220309,-37.8191204
Ascent Care Services Pty Ltd,Ascent Care Services,"31 Deco Place, Epping, VIC 3076",0450 203 935,mustafa@ascentcareservice.com,https://www.ascentcareservice.com,"Monday: 9AM-5PM, Tuesday: 9AM-5PM, Wednesday: 9AM-5PM, Thursday: 9AM-5PM, Friday: 9AM-5PM",Daily Living & Family Support Services,145.0226841,-37.6310762
Uniting (Victoria And Tasmania),Uniting Vic & Tas - SLES Broadmeadows,"1100 Pascoe Vale Road, Broadmeadows, VIC 3047",1300 090 989,employmentservices@unitingvictas.org.au,https://www.unitingvictas.org.au/,"Monday: 9AM-5PM, Tuesday: 9AM-5PM, Wednesday: 9AM-5PM, Thursday: 9AM-5PM, Friday: 9AM-5PM",Daily Living & Family Support Services,144.9190275,-37.6833982
Leap In!,Leap in! Hawthorn,"Hawthorn, Hawthorn, VIC 3122",1300 057 878,crew@leapin.com.au,www.leapin.com.au,"Monday: 9AM-5PM, Tuesday: 9AM-5PM, Wednesday: 9AM-5PM, Thursday: 9AM-5PM, Friday: 9AM-5PM",Daily Living & Family Support Services,145.0321669,-37.8321491
I Care Nursing,I CARE NURSING,"10 Wilmot Road, Traralgon East, VIC 3844",0455 912 075,team@icarenursing.com.au,icarenursing.com.au,"Monday: 12AM-12PM, Tuesday: 12AM-12PM, Wednesday: 12AM-12PM, Thursday: 12AM-12PM, Friday: 12AM-12PM, Saturday: 12AM-12PM, Sunday: 12AM-12PM",Daily Living & Family Support Services,146.5917358,-38.1848593
Exaudy Care Pty Ltd,Exaudy Care SIL STA,"34 Pyrenees Road, Clyde, VIC 3978",0480 226 622,grady@exaudycare.com.au,www.exaudycare.com.au,"Monday: 12AM-11PM, Tuesday: 12AM-11PM, Wednesday: 12AM-11PM, Thursday: 12AM-11PM, Friday: 12AM-11PM, Saturday: 12AM-11PM, Sunday: 12AM-11PM",Daily Living & Family Support Services,145.3208908,-38.121086
Baptcare Ltd,Baptcare - Karana Community,"Baptcare Karana Community, 55 Walpole Street, Kew, VIC 3101",03 9854 9200,bmwandabwa@baptcare.org.au,www.baptcare.org.au,"Monday: 12AM-11PM, Tuesday: 12AM-11PM, Wednesday: 12AM-11PM, Thursday: 12AM-11PM, Friday: 12AM-11PM, Saturday: 12AM-11PM, Sunday: 12AM-11PM",Daily Living & Family Support Services,145.0317077,-37.8015632
Araluen Centre,Chancez cafe Possum Hollow,"2 Beverley Road, Heidelberg, VIC 3084",03 9439 2805,helenr@araluen.org,araluen.org.au,"Monday: 9AM-3PM, Tuesday: 9AM-3PM, Wednesday: 9AM-3PM, Thursday: 9AM-3PM",Daily Living & Family Support Services,145.0771046,-37.751953
Goulburn Valley Health,Parkvilla Aged Care Facility,"Park Street, Tatura, VIC 3616",03 5832 2322,patricia.collier@gvhealth.org.au,www.gvhealth.org.au/,"Monday: 12AM-11PM, Tuesday: 12AM-11PM, Wednesday: 12AM-11PM, Thursday: 12AM-11PM, Friday: 12AM-11PM, Saturday: 12AM-11PM, Sunday: 12AM-11PM",Daily Living & Family Support Services,145.2260125,-36.4366502
Connecting2australia,Work Connections - Mlidura,"822 Fifteenth Street, Mildura, VIC 3500",1300 111 212,info@c2a.org.au,www.connecting2australia.org.au,"Monday: 8AM-3PM, Tuesday: 8AM-3PM, Wednesday: 8AM-3PM, Thursday: 8AM-3PM, Friday: 8AM-3PM",Daily Living & Family Support Services,142.1420395,-34.2123263
Wintringham,Wintringham-Port Melbourne Hostel,"79 Swallow Street, Port Melbourne, VIC 3207",03 9376 1122,adviceandinfo@wintringham.org.au,www.wintringham.org.au,"Monday: 9AM-5PM, Tuesday: 9AM-5PM, Wednesday: 9AM-5PM, Thursday: 9AM-5PM, Friday: 9AM-5PM",Daily Living & Family Support Services,144.9332682,-37.8377701
Gellibrand Support Services,Stonecrop,"60 Stonecrop Way, Wyndham Vale, VIC 3024",03 9300 5400,services@gellibrand.org.au,www.gellibrand.org.au,"Monday: 7AM-10PM, Tuesday: 7AM-10PM, Wednesday: 7AM-10PM, Thursday: 7AM-10PM, Friday: 7AM-10PM, Saturday: 8AM-11PM, Sunday: 8AM-11PM",Daily Living & Family Support Services,144.5887851,-37.8494715
Leap In!,Leap in! Malvern,"Malvern, Malvern, VIC 3144",1300 057 878,crew@leapin.com.au,www.leapin.com.au,"Monday: 9AM-5PM, Tuesday: 9AM-5PM, Wednesday: 9AM-5PM, Thursday: 9AM-5PM, Friday: 9AM-5PM",Daily Living & Family Support Services,145.0355574,-37.8535148
Renaiss Care,Renaiss Care Support-Coordination,"Office 2, 81 Riversdale Road, Hawthorn, VIC 3122",0430 096 595,summer.li@renaiss.com.au,www.renaiss.com.au,"Monday: 8AM-5PM, Tuesday: 8AM-5PM, Wednesday: 8AM-5PM, Thursday: 8AM-5PM, Friday: 8AM-5PM",Daily Living & Family Support Services,145.0334041,-37.8284885
Scribble Mental Health Pty Ltd,SCRIBBLE MENTAL HEALTH PTY LTD,"Unit 30 22-30 Wallace Avenue, Point Cook, VIC 3030",0452 049 827,scribblementalh@gmail.com,scribblemh.com.au,"Monday: 9AM-5PM, Tuesday: 9AM-5PM, Wednesday: 9AM-5PM, Thursday: 9AM-5PM, Friday: 9AM-5PM",Daily Living & Family Support Services,144.7453072,-37.8726026
Elevate Support Care Pty Limited,Mooroolbark,"145 Cambridge Road, Mooroolbark, VIC 3138",0449 873 127,abhinav@elevatesupportcare.com.au,elevatesupportcare.com.au,"Monday: 12AM-11PM, Tuesday: 12AM-11PM, Wednesday: 12AM-11PM, Thursday: 12AM-11PM, Friday: 12AM-11PM, Saturday: 12AM-11PM, Sunday: 12AM-11PM",Daily Living & Family Support Services,145.3240804,-37.7953605
Estia Investments Pty. Ltd.,Estia Health Oakleigh East,"23a Elizabeth Street, Oakleigh, VIC 3166",1300 682 833,admissions@estiahealth.com.au,https://www.estiahealth.com.au/,"Monday: 12AM-11PM, Tuesday: 12AM-11PM, Wednesday: 12AM-11PM, Thursday: 12AM-11PM, Friday: 12AM-11PM, Saturday: 12AM-11PM, Sunday: 12AM-11PM",Daily Living & Family Support Services,145.1094852,-37.8978282
Shepparton Retirement Villages Inc.,Rodney Park Residential Aged Care Servic,"30-50 Knight Street, Mooroopna, VIC 3629",03 5832 0800,helenm@sheppvillages.com.au,www.sheppvillages.com.au,"Monday: 12AM-11PM, Tuesday: 12AM-11PM, Wednesday: 12AM-11PM, Thursday: 12AM-11PM, Friday: 12AM-11PM, Saturday: 12AM-11PM, Sunday: 12AM-11PM",Daily Living & Family Support Services,145.3504766,-36.3875023
My Smart Care Pty Ltd,MY SMART CARE PTY LTD,"175 Murrumbeena Road, Murrumbeena, VIC 3163",0433 432 129,mysmartcare175@gmail.com,https://www.mysmartcarepro.com.au/,"Monday: 12AM-11PM, Tuesday: 12AM-11PM, Wednesday: 12AM-11PM, Thursday: 12AM-11PM, Friday: 12AM-11PM, Saturday: 12AM-11PM, Sunday: 12AM-11PM",Daily Living & Family Support Services,145.0649757,-37.8966562
The Trustee For Roseben Family Trust,Roseben Family Trust,"4 Durban Place, Craigieburn, VIC 3064",0421 218 803,remoonykhoshaba@hotmail.com,www.healthcareyoudeserve.com.au,"Monday: 9AM-5PM, Tuesday: 9AM-5PM, Wednesday: 9AM-5PM, Thursday: 9AM-5PM, Friday: 9AM-5PM, Saturday: 10AM-4PM",Daily Living & Family Support Services,144.9137881,-37.6025744
Doutta Galla Aged Services Limited,Doutta Galla Lynch's Bridge Aged Care Fa,"44 Market Street, Kensington, VIC 3031",03 9376 2111,abolek@dgas.org.au,www.dgas.org.au,"Monday: 12AM-11PM, Tuesday: 12AM-11PM, Wednesday: 12AM-11PM, Thursday: 12AM-11PM, Friday: 12AM-11PM, Saturday: 12AM-11PM, Sunday: 12AM-11PM",Daily Living & Family Support Services,144.926736,-37.7898826
Interchange Gippsland Inc,Interchange Gippsland - Morwell,"66 Commercial Road, Morwell, VIC 3840",1300 736 765,admin@icg.asn.au,www.icg.asn.au,"Monday: 9AM-5PM, Tuesday: 9AM-5PM, Wednesday: 9AM-5PM, Thursday: 9AM-5PM, Friday: 9AM-5PM, Saturday: 9AM-5PM, Sunday: 9AM-5PM",Daily Living & Family Support Services,146.3844338,-38.2341728
Open Arms Community Services,Open Arms Community Services,"936 Morris Road, Truganina, VIC 3029",0405 542 508,info@openarmscommunityservices.com.au,www.openarmscommunityservices.com.au,"Monday: 9AM-5PM, Tuesday: 9AM-5PM, Wednesday: 9AM-5PM, Thursday: 9AM-5PM, Friday: 9AM-5PM, Saturday: 10AM-4PM, Sunday: 10AM-4PM",Daily Living & Family Support Services,144.7116848,-37.8175011
Care Provisions Australia,"208 105 Pier Street Altona, VIC 3018","Unit 208, 105 Pier Street, Altona, VIC 3018",0406 370 244,charity.samuriwo@careprovisions.com.au,www.careprovisions.com.au/,"Monday: 9AM-5PM, Tuesday: 9AM-5PM, Wednesday: 9AM-5PM, Thursday: 9AM-5PM, Friday: 9AM-5PM, Saturday: 9AM-5PM, Sunday: 9AM-5PM",Daily Living & Family Support Services,144.830605,-37.8660079
The Personnel Group Ltd,Benalla,"85 Nunn Street, Benalla, VIC 3672",1300 874 000,helllo@personnelgroup.com.au,www.personnelgroup.com.au,"Monday: 9AM-4PM, Tuesday: 9AM-4PM, Wednesday: 9AM-4PM, Thursday: 9AM-4PM, Friday: 9AM-4PM",Daily Living & Family Support Services,145.9834271,-36.5511803
Including You,35 PROGRESS STREET SEYMOUR,"35 Progress Street, Seymour, VIC 3660",0414 135 644,shaye.garbutt@includingyou.com.au,www.includingyou.com.au,"Monday: 9AM-5PM, Tuesday: 9AM-5PM, Wednesday: 9AM-5PM, Thursday: 9AM-5PM, Friday: 9AM-5PM",Daily Living & Family Support Services,145.1369209,-37.0290427
Delightful Care Solutions Pty Ltd,Delightful Care Solutions PTY LTD,"Unit 204, 737 Burwood Road, Hawthorn East, VIC 3123",1300 440 270,service@delightfulcaresolutions.com.au,www.delightfulcaresolutions.com.au,"Monday: 9AM-5PM, Tuesday: 9AM-5PM, Wednesday: 9AM-5PM, Thursday: 9AM-5PM, Friday: 9AM-5PM, Saturday: 9AM-1PM, Sunday: 9AM-1PM",Daily Living & Family Support Services,145.0488312,-37.8238891
St John Of God Accord,St John of God Accord - Community Campus,"551 Melton Highway, Sydenham, VIC 3037",1300 002 226,accord.ceo@sjog.org.au,www.accorddisability.org.au,Monday: 9AM-5PM,Daily Living & Family Support Services,144.7629611,-37.6948289
Your Local Care,Your Local Care,"5 Basil Close, Hallam, VIC 3803",0403 569 298,eiadchisty@gmail.com,yourlocalcare.com.au,"Monday: 12AM-11PM, Tuesday: 12AM-11PM, Wednesday: 12AM-11PM, Thursday: 12AM-11PM, Friday: 12AM-11PM, Saturday: 12AM-11PM, Sunday: 12AM-11PM",Daily Living & Family Support Services,145.2829272,-38.0099865
Cess Disability Services,Cess Disability Services,"171 Community Hub, Hillside, VIC 3037",0433 836 522,cessdisabilityservices@gmail.com,www.cessdisabilityservices.com,"Monday: 7AM-8PM, Tuesday: 7AM-8PM, Wednesday: 7AM-8PM, Thursday: 7AM-8PM, Friday: 7AM-8PM, Saturday: 7AM-8PM, Sunday: 7AM-8PM",Daily Living & Family Support Services,144.7468333,-37.6998924
Yea & District Memorial Hospital,YEA & DISTRICT MEMORIAL HOSPITAL,"20 Miller Street, Yea, VIC 3717",03 5736 0400,heather.luke@ydmh.org.au,https://yeahospital.org.au/,"Monday: 12AM-11PM, Tuesday: 12AM-11PM, Wednesday: 12AM-11PM, Thursday: 12AM-11PM, Friday: 12AM-11PM, Saturday: 12AM-11PM, Sunday: 12AM-11PM",Daily Living & Family Support Services,145.4316613,-37.2138198
Elevate Support Care Pty Limited,Galada Avenue,"Level 4 Unit 402, 77 Galada Avenue, Parkville, VIC 3052",0449 873 127,abhinav@elevatesupportcare.com.au,elevatesupportcare.com.au,"Monday: 12AM-11PM, Tuesday: 12AM-11PM, Wednesday: 12AM-11PM, Thursday: 12AM-11PM, Friday: 12AM-11PM, Saturday: 12AM-11PM, Sunday: 12AM-11PM",Daily Living & Family Support Services,144.9391046,-37.7793182
Uniting (Victoria And Tasmania),Uniting Vic & Tas - SLES Melton,"3 Alexandra Street, Melton, VIC 3337",1300 090 989,employmentservices@unitingvictas.org.au,https://www.unitingvictas.org.au/,"Monday: 9AM-5PM, Tuesday: 9AM-5PM, Wednesday: 9AM-5PM, Thursday: 9AM-5PM, Friday: 9AM-5PM",Daily Living & Family Support Services,144.5800355,-37.6842034
Araluen Centre,Diamond Creek,"Daimond Creek Dc, 27 Station Street, Diamond Creek, VIC 3089",03 9439 2805,helenr@araluen.org,araluen.org.au,"Monday: 9AM-3PM, Tuesday: 9AM-3PM, Wednesday: 9AM-3PM, Thursday: 9AM-3PM, Friday: 9AM-3PM",Daily Living & Family Support Services,145.1578121,-37.6727491
Al-Maridi Family Investment,AFTCare,"5 Braelands Close, Caroline Springs, VIC 3023",0402 634 453,admin@aftcare.com.au,www.aftcare.com.au,"Monday: 6AM-12PM, Tuesday: 6AM-12PM, Wednesday: 6AM-12PM, Thursday: 6AM-12PM, Friday: 6AM-12PM, Saturday: 6AM-12PM, Sunday: 6AM-12PM",Daily Living & Family Support Services,144.7430837,-37.7420279
All Required Care,All Required Care.,"Shop 6, 58 Albert Street, Sebastopol, VIC 3356",03 4343 2313,info@allrequiredcare.com,www.allrequiredcare.com.au,"Monday: 12AM-11PM, Tuesday: 12AM-11PM, Wednesday: 12AM-11PM, Thursday: 12AM-11PM, Friday: 12AM-11PM",Daily Living & Family Support Services,143.8406105,-37.5871354
Mcaps Care,MCAPS CARE,"Dressage Drive, Cranbourne South, VIC 3977",0406 274 329,care@mcaps.com.au,www.mcapscare.com.au,"Monday: 9AM-9PM, Tuesday: 9AM-9PM, Wednesday: 9AM-9PM, Thursday: 9AM-9PM, Friday: 9AM-9PM, Saturday: 9AM-9PM, Sunday: 9AM-9PM",Daily Living & Family Support Services,145.2326316,-38.126085
Mambourin Enterprises,Mambourin - Werribee,"11-19 Walls Road, Werribee, VIC 3030",03 9731 9200,contact@mambourin.org,www.mambourin.org,"Monday: 8AM-4PM, Tuesday: 8AM-4PM, Wednesday: 9AM-4PM, Thursday: 8AM-4PM, Friday: 8AM-4PM, Saturday: 9AM-5PM, Sunday: 9AM-5PM",Daily Living & Family Support Services,144.6381277,-37.8984558
Respect Group Limited,St John's Retirement Village Nursing Hom,"Nursing Home, 138 Williams Road, Wangaratta, VIC 3677",03 5721 4214,jenny.ball@stjohnsvillage.com.au,www.respect.com.au,"Monday: 12AM-11PM, Tuesday: 12AM-11PM, Wednesday: 12AM-11PM, Thursday: 12AM-11PM, Friday: 12AM-11PM, Saturday: 12AM-11PM, Sunday: 12AM-11PM",Daily Living & Family Support Services,146.2909528,-36.3441945
Your Life Your Choice Care Services,Your Life Your Choice Care Services Vict,"198 Monahans Road, Cranbourne, VIC 3977",08 7981 6320,info@ylyccs.com.au,www.ylyccs.com.au,"Monday: 8AM-5PM, Tuesday: 8AM-5PM, Wednesday: 8AM-5PM, Thursday: 8AM-5PM, Friday: 8AM-5PM, Saturday: 8AM-5PM",Daily Living & Family Support Services,145.2690657,-38.0917141
Yallambee Traralgon Village For The Aged,Margery Cole Residential Care Service,"Margery Cole Hostel, 1 Matthews Crescent, Traralgon, VIC 3844",03 5132 3500,janet.moore@yallambee.com.au,www.yallambee.com.au,"Monday: 12AM-11PM, Tuesday: 12AM-11PM, Wednesday: 12AM-11PM, Thursday: 12AM-11PM, Friday: 12AM-11PM, Saturday: 12AM-11PM, Sunday: 12AM-11PM",Daily Living & Family Support Services,146.5490334,-38.1956441
Australian Unity Care Services Pty Ltd,Racecourse Grange,"Racecourse Grange, 428 Racecourse Road, Mornington, VIC 3931",03 5973 7000,ialcompliance@australianunity.com.au,https://www.australianunity.com.au/aged-care,"Monday: 12AM-11PM, Tuesday: 12AM-11PM, Wednesday: 12AM-11PM, Thursday: 12AM-11PM, Friday: 12AM-11PM, Saturday: 12AM-11PM, Sunday: 12AM-11PM",Daily Living & Family Support Services,145.0723724,-38.2272987
Wintringham,Wintringham - Williamstown Hostel,"Wintringham Hostel, 2 Wintringham Road, Williamstown North, VIC 3016",03 9376 1122,adviceandinfo@wintringham.org.au,www.wintringham.org.au,"Monday: 9AM-5PM, Tuesday: 9AM-5PM, Wednesday: 9AM-5PM, Thursday: 9AM-5PM, Friday: 9AM-5PM",Daily Living & Family Support Services,144.8790851,-37.8548796
Genesis Support Services Pty Ltd,Genesis Support Services,"29 Landcox Way, Caroline Springs, VIC 3023",0488 098 577,admin@genesissupports.com.au,genesissupports.com.au,"Monday: 9AM-5PM, Tuesday: 9AM-5PM, Wednesday: 9AM-5PM, Thursday: 9AM-5PM, Friday: 9AM-5PM",Daily Living & Family Support Services,144.7473924,-37.7237469
Australian Unity Care Services Pty Ltd,Rathdowne Place,"497-513 Rathdowne Street, Carlton, VIC 3053",03 9240 7000,ialcompliance@australianunity.com.au,https://www.australianunity.com.au/aged-care,"Monday: 12AM-11PM, Tuesday: 12AM-11PM, Wednesday: 12AM-11PM, Thursday: 12AM-11PM, Friday: 12AM-11PM, Saturday: 12AM-11PM, Sunday: 12AM-11PM",Daily Living & Family Support Services,144.9709255,-37.7935898
Cooinda Terang Inc,Frederick St,"7 Frederick Street, Camperdown, VIC 3260",03 5593 2640,frederick@cooindaterang.org.au,www.cooindaterang.org.au,"Monday: 9AM-3PM, Tuesday: 9AM-3PM, Wednesday: 9AM-3PM, Thursday: 9AM-3PM, Friday: 9AM-3PM",Daily Living & Family Support Services,143.1387666,-38.2431914
Connecting2australia,Work Connections - Wonthaggi,"1/120 Mckenzie Street, Wonthaggi, VIC 3995",1300 111 212,info@c2a.org.au,www.connecting2australia.org.au,"Monday: 8AM-3PM, Tuesday: 8AM-3PM, Wednesday: 8AM-3PM, Thursday: 8AM-3PM, Friday: 8AM-3PM",Daily Living & Family Support Services,145.592665,-38.5970025
The Personnel Group Ltd,Wodonga,"115 Hume Street, Wodonga, VIC 3690",1300 874 000,hello@personnelgroup.com.au,www.personnelgroup.com.au,"Monday: 9AM-4PM, Tuesday: 9AM-4PM, Wednesday: 9AM-4PM, Thursday: 9AM-4PM, Friday: 9AM-4PM",Daily Living & Family Support Services,146.885446,-36.1239792
Connect Support Services And Solutions P,Connect Support Services And Solutions,"312 Drummond Street South, Ballarat Central, VIC 3350",03 4373 1763,admin@connectsss.com.au,www.connectsss.com.au,"Monday: 9AM-5PM, Tuesday: 9AM-5PM, Wednesday: 9AM-5PM, Thursday: 9AM-5PM, Friday: 9AM-5PM",Daily Living & Family Support Services,143.8457519,-37.5678952
The Community Of Cypriots Of The Norther,St Andrew's Hostel,"St Andrews Aged Care, 98 Forrest Street, Ardeer, VIC 3022",03 9311 9143,manager@northerncypriotagedcare.com.au,www.northerncypriotagedcare.com.au,"Monday: 12AM-11PM, Tuesday: 12AM-11PM, Wednesday: 12AM-11PM, Thursday: 12AM-11PM, Friday: 12AM-11PM, Saturday: 12AM-11PM, Sunday: 12AM-11PM",Daily Living & Family Support Services,144.8119957,-37.7834522
Believe Care Services,Believe Care Services,"55 Doubell Boulevard, Truganina, VIC 3029",0469 087 223,believe.care.services@gmail.com,www.bcsvic.com.au,Monday: 8AM-5PM,Daily Living & Family Support Services,144.7188428,-37.8569129
Connecting2australia,Community Connections - Mornington,"311 Racecourse Road, Mornington, VIC 3931",1300 111 212,info@c2a.org.au,www.connecting2australia.org.au,"Monday: 9AM-3PM, Tuesday: 9AM-3PM, Wednesday: 9AM-3PM, Thursday: 9AM-3PM, Friday: 9AM-3PM",Daily Living & Family Support Services,145.0661659,-38.2377835
Blairlogie Living And Learning Inc,Bales,"26 Bales Road, Cranbourne East, VIC 3977",03 5978 7900,admin@blairlogie.org,www.blairlogie.org,Monday: 9AM-5PM,Daily Living & Family Support Services,145.2989738,-38.0926349
Uniting (Victoria And Tasmania),Uniting Vic & Tas - SLES Footscray,"51 Paisley Street, Footscray, VIC 3011",1300 090 989,employmentservices@unitingvictas.org.au,https://www.unitingvictas.org.au/,"Monday: 9AM-5PM, Tuesday: 9AM-5PM, Wednesday: 9AM-5PM, Thursday: 9AM-5PM, Friday: 9AM-5PM",Daily Living & Family Support Services,144.8977989,-37.8008855
Expression Australia,Expression Australia - Oakleigh,"Level 3, 20-22 Atherton Rd, Oakleigh, VIC 3166",03 9567 0400,info@expression.com.au,www.expression.com.au,"Monday: 9AM-5PM, Tuesday: 9AM-5PM, Wednesday: 9AM-5PM, Thursday: 9AM-5PM, Friday: 9AM-5PM, Saturday: 9AM-5PM, Sunday: 9AM-5PM",Daily Living & Family Support Services,145.0893895,-37.898863
Caring Hearts Home Care Pty Ltd,Caring Hearts Head Office,"Level 6, Suite 6.18, 101 Overton Road, Williams Landing, VIC 3027",1800 844 995,info@caringhearts.com.au,www.caringhearts.com.au/,"Monday: 9AM-5PM, Tuesday: 9AM-5PM, Wednesday: 9AM-5PM, Thursday: 9AM-5PM, Friday: 9AM-5PM",Daily Living & Family Support Services,144.7450264,-37.8667811
Uniting (Victoria And Tasmania),Uniting Vic & Tas - SLES Parkdale,"128-130 Parkers Road, Parkdale, VIC 3195",1300 090 989,ndis@vt.uniting.org,https://www.unitingvictas.org.au/,"Monday: 9AM-5PM, Tuesday: 9AM-5PM, Wednesday: 9AM-5PM, Thursday: 9AM-5PM, Friday: 9AM-5PM",Daily Living & Family Support Services,145.0789126,-37.9925301
Lead Consulting Services Pty Ltd,LEAD Consulting Services,"89 Overton Road, Williams Landing, VIC 3027",1800 115 323,alyson@leadconsultinggroup.net.au,www.leadconsultinggroup.net.au,"Monday: 9AM-5PM, Tuesday: 9AM-5PM, Wednesday: 9AM-5PM, Thursday: 9AM-5PM, Friday: 9AM-5PM",Daily Living & Family Support Services,144.7462478,-37.866593
Great Ocean Stays - Destination Accessib,245 Autumn Street Manifold Heights,"245 Autumn Street, Manifold Heights, VIC 3218",0403 515 605,book@greatoceanstays.com.au,www.destinationaccessible.com.au,Monday: 9AM-5PM,Daily Living & Family Support Services,144.334369,-38.1416617
Community Care Disability Services Pty L,COMMUNITY CARE DISABILITY SERVICES,"Suite 04, 84 Hotham St, Preston, VIC 3072",03 8199 7532,info@communitycareservices.com.au,www.communitycareservices.com.au,"Monday: 7AM-7PM, Tuesday: 7AM-7PM, Wednesday: 7AM-7PM, Thursday: 7AM-7PM, Friday: 7AM-7PM, Saturday: 9AM-5PM, Sunday: 9AM-5PM",Daily Living & Family Support Services,145.0077026,-37.746465
Bloom Care Proprietary Limited,Bloom Care,"Unit 12, 10 Adamson Street, Braybrook, VIC 3019",0408 852 771,admin@bloomcare.com.au,bloomcare.com.au,"Monday: 6AM-10PM, Tuesday: 6AM-10PM, Wednesday: 6AM-10PM, Thursday: 6AM-10PM, Friday: 6AM-10PM, Saturday: 6AM-10PM, Sunday: 8AM-2PM",Daily Living & Family Support Services,144.8566181,-37.7886671
Distinctive Options,DO Connect Sunbury,"24 Macedon Street, Sunbury, VIC 3429",03 9740 7100,info@d-o.com.au,www.distinctiveoptions.com.au,"Monday: 9AM-3PM, Tuesday: 9AM-3PM, Wednesday: 9AM-3PM, Thursday: 9AM-3PM, Friday: 9AM-3PM",Daily Living & Family Support Services,144.733061,-37.5793578
Mckenzie Aged Care Group Pty Ltd,Sutton Park Assisted Aged Care,"126-134 Exford Road, Melton South, VIC 3338",03 9743 8933,cmoss@mckenzieacg.com,"44 musk ave, kelvin grove brisbane","Monday: 12AM-11PM, Tuesday: 12AM-11PM, Wednesday: 12AM-11PM, Thursday: 12AM-11PM, Friday: 12AM-11PM, Saturday: 12AM-11PM, Sunday: 12AM-11PM",Daily Living & Family Support Services,144.5737181,-37.7158123
Australian Unity Care Services Pty Ltd,Victoria Grange Aged Care,"502-514 Burwood Highway, Vermont South, VIC 3133",03 9955 4200,ialcompliance@australianunity.com.au,https://www.australianunity.com.au/aged-care,"Monday: 12AM-11PM, Tuesday: 12AM-11PM, Wednesday: 12AM-11PM, Thursday: 12AM-11PM, Friday: 12AM-11PM, Saturday: 12AM-11PM, Sunday: 12AM-11PM",Daily Living & Family Support Services,145.1844529,-37.8596495
Statewide Autistic Services,SASI Active Choices Recreation,"13 Sir Laurence Drive, Seaford, VIC 3198",03 9773 6044,enquiries@sasi.org.au,www.sasi.org.au,"Monday: 9AM-6PM, Tuesday: 9AM-6PM, Wednesday: 9AM-6PM, Thursday: 9AM-6PM, Friday: 9AM-6PM, Saturday: 9AM-6PM, Sunday: 9AM-5PM",Daily Living & Family Support Services,145.144589,-38.1145937
Australian Foundation For Disability,Afford Community Services Centre - Hoppe,"Heaths Road, Hoppers Crossing, VIC 3029",1800 233 673,support.centre@afford.com.au,www.afford.com.au,"Monday: 9AM-5PM, Tuesday: 9AM-5PM, Wednesday: 9AM-5PM, Thursday: 9AM-5PM, Friday: 9AM-5PM",Daily Living & Family Support Services,144.6844239,-37.8776343
Ario Care Group Pty Ltd,Point Cook BC,"Building C4, Level 1, Suite 5, 2 Main Street, Point Cook, VIC 3030",1800 413 605,point-cook-bc@ariocaregroup.com.au,www.ariocare.com.au,"Monday: 8AM-6PM, Tuesday: 8AM-6PM, Wednesday: 8AM-6PM, Thursday: 8AM-6PM, Friday: 8AM-6PM",Daily Living & Family Support Services,144.7353927,-37.8841432
Saviour Home Care Services,Saviour Home Care Services,"Unit 2 6 Moorong Street, Chadstone, VIC 3148",01 0073 8783,saviourhomecare@gmail.com,https://saviourhomecare.com.au/,"Monday: 9AM-5PM, Tuesday: 9AM-5PM, Wednesday: 9AM-5PM, Thursday: 9AM-5PM, Friday: 9AM-5PM, Saturday: 9AM-5PM, Sunday: 9AM-5PM",Daily Living & Family Support Services,145.1052502,-37.8799355
Opendoor Ltd,Opendoor - Corio,"Level 1, Shop 1016 Corio Central, Bacchus Marsh Road, Corio, VIC 3214",1800 611 579,disability@opendoor.org.au,www.opendoor.org.au,"Monday: 9AM-5PM, Tuesday: 9AM-5PM, Wednesday: 9AM-5PM, Thursday: 9AM-5PM, Friday: 9AM-5PM",Daily Living & Family Support Services,144.3550623,-37.9474572
Hogan Care,Vilay Hogan,"226 Malop Street, Geelong, VIC 3220",0406 754 263,hi@hogancare.com.au,www.hogancare.com.au,"Monday: 9AM-6PM, Tuesday: 9AM-6PM, Wednesday: 9AM-6PM, Thursday: 9AM-6PM, Friday: 9AM-6PM",Daily Living & Family Support Services,144.3670583,-38.1493065
Opendoor Ltd,Opendoor - St Albans,"352a Main Road West, St Albans, VIC 3021",1800 611 579,disability@opendoor.org.au,www.opendoor.org.au,"Monday: 9AM-5PM, Tuesday: 9AM-5PM, Wednesday: 9AM-5PM, Thursday: 9AM-5PM, Friday: 9AM-5PM",Daily Living & Family Support Services,144.797455,-37.743714
Homewood Rac,Homewood Residential Aged Care,"8 Young Road, Hallam, VIC 3803",03 9458 7777,patsy.thomas@tlchealthcare.com.au,www.tlchomes.com.au,"Monday: 12AM-11PM, Tuesday: 12AM-11PM, Wednesday: 12AM-11PM, Thursday: 12AM-11PM, Friday: 12AM-11PM, Saturday: 12AM-11PM, Sunday: 12AM-11PM",Daily Living & Family Support Services,145.2759806,-38.0038235
East Wimmera Health Service,East Wimmera Health Service Wycheproof,"Wycheproof Hospital, 19 Grandview Street, Wycheproof, VIC 3527",03 5477 2149,ndis@ewhs.org.au,www.ewhs.org.au,"Monday: 9AM-5PM, Tuesday: 9AM-5PM, Wednesday: 9AM-5PM, Thursday: 9AM-5PM, Friday: 9AM-5PM, Saturday: 9AM-5PM, Sunday: 9AM-5PM",Daily Living & Family Support Services,143.2340317,-36.0785316
Housetide Support Services,Housetide Support Services,"22 Wyndham Street, Shepparton, VIC 3630",03 5891 1050,hello@housetidess.com.au,www.housetidess.com.au,"Monday: 9AM-5PM, Tuesday: 9AM-5PM, Wednesday: 9AM-5PM, Thursday: 9AM-5PM, Friday: 9AM-5PM",Daily Living & Family Support Services,145.4014956,-36.3687675
Endeavour Foundation,Endeavour Foundation - Keon Park,"12 Keon Parade, Thomastown, VIC 3074",1800 112 112,fundingschedules@endeavour.com.au,www.endeavour.com.au,"Monday: 9AM-5PM, Tuesday: 9AM-5PM, Wednesday: 9AM-5PM, Thursday: 9AM-5PM, Friday: 9AM-5PM",Daily Living & Family Support Services,145.0139758,-37.6943309
Catalyst Training & Disability Services,Catalyst Disability Services,"290 Manningham Road, Templestowe Lower, VIC 3107",03 9038 9292,office@catalysttds.com.au,www.catalysttds.com.au,"Monday: 9AM-5PM, Tuesday: 9AM-5PM, Wednesday: 9AM-5PM, Thursday: 9AM-5PM, Friday: 9AM-5PM",Daily Living & Family Support Services,145.1120979,-37.7736921
Wellways Australia Limited,Wellways - Ballarat.,"Wellways / Acso, 305 Dana St, Ballarat, VIC 3350",1300 111 400,cdsnational@wellways.org,www.wellways.org,"Monday: 9AM-5PM, Tuesday: 9AM-5PM, Wednesday: 9AM-5PM, Thursday: 9AM-5PM, Friday: 9AM-5PM",Daily Living & Family Support Services,143.8551111,-37.564127
Jfu Jobseek Pty Ltd,JFU JOB Seek Pty Ltd,"202, 13-15 Chesterville Road, Cheltenham, VIC 3192",03 9578 3024,gisele@jfucare.com.au,www.jfucare.com.au,"Monday: 8AM-5PM, Tuesday: 8AM-5PM, Wednesday: 8AM-5PM, Thursday: 8AM-5PM, Friday: 8AM-5PM",Daily Living & Family Support Services,145.0563382,-37.9607743
Aurrum Pty. Limited,Aurrum Reservoir,"Aurrum, 1 Aberdeen Street, Reservoir, VIC 3073",0447 489 808,admin@mowby.com.au,www.aurrum.com.au,"Monday: 12AM-11PM, Tuesday: 12AM-11PM, Wednesday: 12AM-11PM, Thursday: 12AM-11PM, Friday: 12AM-11PM, Saturday: 12AM-11PM, Sunday: 12AM-11PM",Daily Living & Family Support Services,145.0180548,-37.7033802
Paradise Disability Care,Sabcare,"3 Addison Avenue, Tarneit, VIC 3029",0424 054 340,rajshekark@gmail.com,www.paradisedisability.com.au,"Monday: 8AM-5PM, Tuesday: 8AM-5PM, Wednesday: 8AM-5PM, Thursday: 8AM-5PM, Friday: 8AM-5PM, Saturday: 8AM-5PM, Sunday: 8AM-5PM",Daily Living & Family Support Services,144.6536213,-37.8390465
Oc Connections,Casey Hub,"4s Flicka Boulevard, Cranbourne West, VIC 3977",03 9569 0603,sroxby@occonnections.org,www.occonnections.org,"Monday: 9AM-5PM, Tuesday: 9AM-5PM, Wednesday: 9AM-5PM, Thursday: 9AM-5PM, Friday: 9AM-5PM",Daily Living & Family Support Services,145.2500731,-38.1066543
Carewest Group Pty. Ltd.,Allanvale Private Nursing Home,"Allanvale Nursing Home, 38 Ascot Street, Altona Meadows, VIC 3028",03 9369 4122,enquiries@carewestgroup.com.au,carewestgroup.com.au,"Monday: 12AM-11PM, Tuesday: 12AM-11PM, Wednesday: 12AM-11PM, Thursday: 12AM-11PM, Friday: 12AM-11PM, Saturday: 12AM-11PM, Sunday: 12AM-11PM",Daily Living & Family Support Services,144.7633347,-37.870799
Your Care Co (Geelong),Enable All,"Studio 5-17, Rutland Street, Newtown, VIC 3220",03 4250 8077,deb@enableall.com.au,www.enableall.com.au,"Monday: 9AM-5PM, Tuesday: 9AM-5PM, Wednesday: 9AM-5PM, Thursday: 9AM-5PM, Friday: 9AM-5PM",Daily Living & Family Support Services,144.3429644,-38.161159
The Community Of Cypriots Of The Norther,Grace Of Mary Greek Cypriot Elderly Host,"Grace Of Mary Hostel, 190-200 Mcdonalds Road, Epping, VIC 3076",03 9408 8169,gracemary@tpg.com.au,www.northerncypriotagedcare.com.au,"Monday: 12AM-11PM, Tuesday: 12AM-11PM, Wednesday: 12AM-11PM, Thursday: 12AM-11PM, Friday: 12AM-11PM, Saturday: 12AM-11PM, Sunday: 12AM-11PM",Daily Living & Family Support Services,145.0601599,-37.6466315
Great Ocean Road Health,Great Ocean Road Health 2,"Great Ocean Road Health, 1 Albert Street, Lorne, VIC 3232",03 5237 8500,sandy.chamberlin@gorh.vic.gov.au,greatoceanroadhealth.com.au,Monday: 9AM-5PM,Daily Living & Family Support Services,143.9808354,-38.5454655
Marc Maron Care Services Pty Ltd,Marc Maron Care services,"Unit 7c, 36 Hume Road, Laverton North, VIC 3026",03 8329 1400,samm@mmaroncareservices.com.au,marcmaroncareservices.com.au,"Monday: 8AM-5PM, Tuesday: 8AM-5PM, Wednesday: 8AM-5PM, Thursday: 8AM-5PM, Friday: 8AM-5PM, Saturday: 8AM-1PM, Sunday: 8AM-1PM",Daily Living & Family Support Services,144.7975825,-37.8210978
Whirlwind Organisers,becky andrews,"10 Elmstone Lane, Lake Gardens, VIC 3355",0421 958 091,beckyandrews@whirlwindorganisers.com,www.whirlwindorganisers.com,"Monday: 9AM-5PM, Tuesday: 9AM-5PM, Wednesday: 9AM-5PM, Thursday: 9AM-5PM, Friday: 9AM-5PM",Daily Living & Family Support Services,143.8120532,-37.5441615
Icare Connections,iCare Connections,"Corporate One, Ground Floor, 84 Hotham Street, Preston, VIC 3072",0490 184 979,silvana@icareconnections.com.au,https://icareconnections.com.au/,"Monday: 8AM-5PM, Tuesday: 8AM-5PM, Wednesday: 8AM-5PM, Thursday: 8AM-5PM, Friday: 8AM-5PM",Daily Living & Family Support Services,145.0077026,-37.746465
Opendoor Ltd,Opendoor - Footscray Head Office,"Unit 4, 2 Parker Street, Footscray, VIC 3011",1800 611 579,disability@opendoor.org.au,www.opendoor.org.au,"Monday: 9AM-5PM, Tuesday: 9AM-5PM, Wednesday: 9AM-5PM, Thursday: 9AM-5PM, Friday: 9AM-5PM",Daily Living & Family Support Services,144.9047724,-37.8070402
Cumberland Manor,Cumberland Manor,"Cumberland Manor, 25 Wiltshire Street, Sunshine North, VIC 3020",03 9311 7079,info@cumberlandmanor.com.au,www.cumberlandmanor.com.au,"Monday: 12AM-11AM, Tuesday: 12AM-11AM, Wednesday: 12AM-11AM, Thursday: 12AM-11AM, Friday: 12AM-11AM, Saturday: 12AM-11AM, Sunday: 12AM-11AM",Daily Living & Family Support Services,144.8436279,-37.775341
Mambourin Enterprises,Mambourin - Deer Park,"836-842 Ballarat Road, Deer Park, VIC 3023",03 9731 9200,contact@mambourin.org,www.mambourin.org,"Monday: 8AM-4PM, Tuesday: 8AM-4PM, Wednesday: 9AM-4PM, Thursday: 9AM-4PM, Friday: 9AM-4PM, Saturday: 9AM-5PM, Sunday: 9AM-5PM",Daily Living & Family Support Services,144.771023,-37.769292
Baptcare Ltd,Baptcare Coasthaven Community,"Baptcare Coasthaven, 45 Robin Avenue, Norlane, VIC 3214",03 5249 9512,coasthaven@baptcare.org.au,www.baptcare.org.au,"Monday: 12AM-11PM, Tuesday: 12AM-11PM, Wednesday: 12AM-11PM, Thursday: 12AM-11PM, Friday: 12AM-11PM, Saturday: 12AM-11PM, Sunday: 12AM-11PM",Daily Living & Family Support Services,144.3513529,-38.0862713
Connecting Home,Connecting Home Head Office,"Unit 1, 10 Childs Road, Epping, VIC 3076",0431 689 799,lisa@connectinghome.org.au,www.connectinghome.org.au,"Monday: 8AM-6PM, Tuesday: 8AM-6PM, Wednesday: 8AM-6PM, Thursday: 8AM-6PM, Friday: 8AM-6PM, Saturday: 8AM-6PM, Sunday: 8AM-6PM",Daily Living & Family Support Services,145.0221967,-37.6591801
Burke And Beyond,Balwyn,"51 Naroo Street, Balwyn, VIC 3103",03 9886 1111,csm@burkeandbeyond.org.au,www.burkeandbeyond.org.au,"Monday: 8AM-5PM, Tuesday: 8AM-5PM, Wednesday: 8AM-5PM, Thursday: 8AM-5PM, Friday: 8AM-5PM, Saturday: 9AM-5PM, Sunday: 9AM-5PM",Daily Living & Family Support Services,145.0684906,-37.8063135
Krystal Community Care,Krystal Community Care,"12 Mazel Drive, Tarneit, VIC 3029",0459 846 670,info@krystalcommunitycare.com.au,https://www.krystalcommunitycare.com.au,"Monday: 9AM-5PM, Tuesday: 9AM-5PM, Wednesday: 9AM-5PM, Thursday: 9AM-5PM, Friday: 9AM-5PM",Daily Living & Family Support Services,144.6834052,-37.8355025
Araluen Centre,Turnham House,"12 Turnham Avenue, Rosanna, VIC 3084",03 9439 2805,kimd@araluen.org,araluen.org.au,"Monday: 9AM-4PM, Tuesday: 9AM-4PM, Wednesday: 9AM-4PM, Thursday: 9AM-4PM, Friday: 9AM-4PM",Daily Living & Family Support Services,145.0673394,-37.7449435
Life Independence 2 Pty Ltd,Life Independence 2 Pty Ltd,"7-9 Sturt Street, Ballarat Central, VIC 3350",1800 227 311,info@enablesupports.au,https://www.enablelivingsupports.com.au/,"Monday: 12AM-12PM, Tuesday: 12AM-12PM, Wednesday: 12AM-12PM, Thursday: 12AM-12PM, Friday: 12AM-12PM, Saturday: 12AM-12PM",Daily Living & Family Support Services,143.8602356,-37.5626082
Precise Support Care Pty Ltd,PRECISE SUPPORT CARE PTY LTD,"8 Copernicus Circuit, Cranbourne West, VIC 3977",0416 128 110,bright.ayiklui@hotmail.com,https://www.precisesupport.com.au/,"Monday: 6AM-11PM, Tuesday: 6AM-11PM, Wednesday: 6AM-11PM, Thursday: 6AM-11PM, Friday: 6AM-11PM, Saturday: 6AM-11PM, Sunday: 6AM-11PM",Daily Living & Family Support Services,145.2533331,-38.0975812
Spectra Community Care Pty Ltd,Spectra Community Care Wyndham Vale Outl,"75 Federal Drive, Wyndham Vale, VIC 3024",0450 113 786,spectracommunitycare@outlook.com,www.spectracommunitycare.com.au,"Monday: 9AM-5PM, Tuesday: 9AM-5PM, Wednesday: 9AM-5PM, Thursday: 9AM-5PM, Friday: 9AM-5PM, Saturday: 9AM-5PM, Sunday: 9AM-5PM",Daily Living & Family Support Services,144.6281527,-37.8794169
Community Care Initiatives,Community Care Initiatives,"125 Oldbridge Boulevard, Weir Views, VIC 3338",0491 647 667,communitycare.ndis@gmail.com,https://ccindis.com.au/,"Monday: 9AM-5PM, Tuesday: 9AM-5PM, Wednesday: 9AM-5PM, Thursday: 9AM-5PM, Friday: 9AM-5PM",Daily Living & Family Support Services,144.5680796,-37.7241234
Atz Health Care Services Pty Ltd,ATZ Care,"21 Kiama Court, Oakleigh East, VIC 3166",1300 101 289,info@atzcare.com.au,www.atzcare.com.au,"Monday: 8AM-6PM, Tuesday: 8AM-6PM, Wednesday: 8AM-6PM, Thursday: 8AM-6PM, Friday: 8AM-6PM, Saturday: 8AM-6PM, Sunday: 8AM-6PM",Daily Living & Family Support Services,145.1215825,-37.8995205
Elevate Support Care Pty Limited,Elevate Support Care,"17 Oliver Road, Templestowe, VIC 3106",0449 873 127,abhinav@elevatesupportcare.com.au,elevatesupportcare.com.au,"Monday: 12AM-11PM, Tuesday: 12AM-11PM, Wednesday: 12AM-11PM, Thursday: 12AM-11PM, Friday: 12AM-11PM, Saturday: 12AM-11PM, Sunday: 12AM-11PM",Daily Living & Family Support Services,145.1569872,-37.7584404
Melba Support Services Ltd,Nepean Highway,"450 Nepean Highway, Mount Martha, VIC 3934",03 9212 0100,nikki.ferris@melbasupport.com.au,www.melbasupport.com.au,Monday: 9AM-5PM,Daily Living & Family Support Services,145.0414297,-38.271302
Horizon Access Care Pty Ltd,Horizon Access Care,"11 Khan Court, Truganina, VIC 3029",0474 085 167,info@horizonaccesscare.com.au,www.horizonaccesscare.com.au,"Monday: 9AM-5PM, Tuesday: 9AM-5PM, Wednesday: 9AM-5PM, Thursday: 9AM-5PM, Friday: 9AM-5PM, Saturday: 9AM-4PM, Sunday: 9AM-5PM",Daily Living & Family Support Services,144.7274133,-37.852867
Sustained Quality Care Disability Servic,Sustained Quality Care Disability Servic,"Unit 2, 29 James Street, Pakenham, VIC 3810",0414 486 908,info@sustainedqualitycare.com.au,www.sustainedqualitycare.com.au,"Monday: 9AM-5PM, Tuesday: 9AM-5PM, Wednesday: 9AM-5PM, Thursday: 9AM-5PM, Friday: 9AM-5PM",Daily Living & Family Support Services,145.4809701,-38.0754119
South Port Community Residential Home In,South Port Community Residential Home,"Southport Nursing Home, 18 Richardson Street, Albert Park, VIC 3206",03 9633 9200,wsmith@caspacare.org.au,www.caspacare.org.au,"Monday: 12AM-11PM, Tuesday: 12AM-11PM, Wednesday: 12AM-11PM, Thursday: 12AM-11PM, Friday: 12AM-11PM, Saturday: 12AM-11PM, Sunday: 12AM-11PM",Daily Living & Family Support Services,144.9483489,-37.8423156
Kaizencare,KaizenCare,"12 Clarke Street, Sunshine, VIC 3020",0434 193 881,doaa@kaizencare.com.au,www.kaizencare.com.au,"Monday: 9AM-5PM, Tuesday: 9AM-5PM, Wednesday: 9AM-5PM, Thursday: 9AM-5PM, Friday: 9AM-5PM, Saturday: 9AM-5PM, Sunday: 9AM-5PM",Daily Living & Family Support Services,144.8333354,-37.7861474
Carinya Society Coburg,Carinya Society,"10 Bellevue Street, Coburg, VIC 3058",03 9354 3337,admin@carinyasociety.org.au,www.carinyasociety.org.au,"Monday: 8AM-4PM, Tuesday: 8AM-4PM, Wednesday: 8AM-4PM, Thursday: 8AM-4PM, Friday: 8AM-4PM",Daily Living & Family Support Services,144.9544295,-37.7429366
Future Focus Group Pty Ltd,Future Focus Support Coordination West O,"3 Janefield Drive, Bundoora, VIC 3083",1300 202 303,info@futurefocussc.com.au,www.ffsc.com.au,"Monday: 9AM-5PM, Tuesday: 9AM-5PM, Wednesday: 9AM-5PM, Thursday: 9AM-5PM, Friday: 9AM-5PM",Daily Living & Family Support Services,145.0699914,-37.6822995
Distinctive Options,Connect Bendigo,"56-60 King Street, Bendigo, VIC 3550",03 8798 0108,beau.mcgrath@d-o.com.au,www.distinctiveoptions.com.au,"Monday: 9AM-3PM, Tuesday: 9AM-3PM, Wednesday: 9AM-3PM, Thursday: 9AM-3PM, Friday: 9AM-3PM",Daily Living & Family Support Services,144.2782535,-36.7635313
Rsa Disability Support Services,RSA Moonee Ponds,"Casa Serena Aged Care, 50 Holmes Road, Moonee Ponds, VIC 3039",1800 772 669,info@rsaust.com.au,www.rsasupport.com.au,"Monday: 12AM-11PM, Tuesday: 12AM-11PM, Wednesday: 12AM-11PM, Thursday: 12AM-11PM, Friday: 12AM-11PM, Saturday: 12AM-11PM, Sunday: 12AM-11PM",Daily Living & Family Support Services,144.9173063,-37.7659963
Craigcare,Craigcare Pascoe Vale,"Craig Care, 1 Virginia Street, Pascoe Vale, VIC 3044",03 8311 3700,darinkarozanic@craigcare.com.au,https://craigcare.com.au,"Monday: 12AM-11PM, Tuesday: 12AM-11PM, Wednesday: 12AM-11PM, Thursday: 12AM-11PM, Friday: 12AM-11PM, Saturday: 12AM-11PM, Sunday: 12AM-11PM",Daily Living & Family Support Services,144.9440612,-37.7154693
Complete Care Services Victoria Pty. Ltd,Complete Care Services Victoria Pty Ltd,"Suite 618, 530 Little Collins Street, Melbourne, VIC 3000",0414 273 211,alfred@ccsvic.com.au,www.ccsvic.com.au,"Monday: 9AM-5PM, Tuesday: 9AM-5PM, Wednesday: 9AM-5PM, Thursday: 9AM-5PM, Friday: 9AM-5PM",Daily Living & Family Support Services,144.9570922,-37.8168803
Gracious Care Services,GRACIOUS CARE SERVICES,"1 Watercarter Crescent, Wollert, VIC 3750",0414 277 669,marcdusenge@gmail.com,marcdusenge@gmail.com,"Monday: 12AM-11PM, Tuesday: 12AM-11PM, Wednesday: 12AM-11PM, Thursday: 12AM-11PM, Friday: 12AM-11PM, Saturday: 12AM-11PM, Sunday: 12AM-11PM",Daily Living & Family Support Services,145.0092402,-37.6045693
South West Simply Helping,NETWORK MOBILITY,"24 Pynsent Street, Horsham, VIC 3400",03 5382 3139,southwestvic@simplyhelping.com.au,simplyhelping.com.au,"Monday: 9AM-5PM, Tuesday: 9AM-5PM, Wednesday: 9AM-5PM, Thursday: 9AM-5PM, Friday: 9AM-5PM, Saturday: 9AM-1PM, Sunday: 9AM-5PM",Daily Living & Family Support Services,142.1974323,-36.715594
Melbourne Health & Care Services,Melbourne Health & Care Services Preston,"41, Cooma Street, Preston, VIC 3072",1800 849 062,melbournehealthcareservices@gmail.com,https://www.melbournehealthcare.com.au/,"Monday: 9AM-5PM, Tuesday: 9AM-5PM, Wednesday: 9AM-5PM, Thursday: 9AM-5PM, Friday: 9AM-5PM",Daily Living & Family Support Services,145.0059909,-37.7413291
Araluen Centre,Chancez Cafe Mill Park,"394 Plenty Road, Mill Park, VIC 3082",03 9439 2805,helenr@araluen.org,araluen.org.au,"Monday: 10AM-4PM, Tuesday: 10AM-4PM, Wednesday: 10AM-4PM, Thursday: 10AM-4PM, Friday: 10AM-4PM",Daily Living & Family Support Services,145.0748688,-37.6603904
Bloomington Care,BLOOMINGTON CARE - MELBOURNE,"Unit 106 76 Canning Street, North Melbourne, VIC 3051",0423 060 416,admin@bloomingtoncare.com.au,https://bloomingtoncare.com.au/,"Monday: 12AM-11PM, Tuesday: 12AM-11PM, Wednesday: 12AM-11PM, Thursday: 12AM-11PM, Friday: 12AM-11PM, Saturday: 12AM-11PM, Sunday: 12AM-11PM",Daily Living & Family Support Services,144.9405983,-37.7952038
Opendoor Ltd,Opendoor - Greensborough,"Unit 2, 35 Main Street, Greensborough, VIC 3088",1800 611 579,disability@opendoor.org.au,www.opendoor.org.au,"Monday: 9AM-5PM, Tuesday: 9AM-5PM, Wednesday: 9AM-5PM, Thursday: 9AM-5PM, Friday: 9AM-5PM",Daily Living & Family Support Services,145.103842,-37.7034256
Catalyst Training & Disability Services,West Preston Baptist Church,"108 Cramer Street, Preston, VIC 3072",03 9038 9292,office@catalysttds.com.au,www.catalysttds.com.au,"Tuesday: 9AM-3PM, Wednesday: 9AM-3PM",Daily Living & Family Support Services,144.9904863,-37.7388027
Baptcare Ltd,Baptcare Brookview Community,"130 Dimboola Road, Westmeadows, VIC 3049",03 9831 7222,info@baptcare.org.au,www.baptcare.org.au,"Monday: 12AM-11PM, Tuesday: 12AM-11PM, Wednesday: 12AM-11PM, Thursday: 12AM-11PM, Friday: 12AM-11PM, Saturday: 12AM-11PM, Sunday: 12AM-11PM",Daily Living & Family Support Services,144.91014,-37.6739237
Doutta Galla Aged Services Limited,Doutta Galla Footscray Aged Care Facilit,"Doutta Galla Footscray, 48 Geelong Road, Footscray, VIC 3011",03 9687 6744,mhoulahan@dgas.org.au,www.dgas.org.au,"Monday: 12AM-11PM, Tuesday: 12AM-11PM, Wednesday: 12AM-11PM, Thursday: 12AM-11PM, Friday: 12AM-11PM, Saturday: 12AM-11PM, Sunday: 12AM-11PM",Daily Living & Family Support Services,144.8943119,-37.7967578
Estia Investments Pty. Ltd.,Estia Health Plenty Valley,"Estia Health Plenty Vly, 806 Plenty Road, South Morang, VIC 3752",03 9404 8000,dnelson@nelsonpartners.com.au,https://www.estiahealth.com.au/,"Monday: 12AM-11PM, Tuesday: 12AM-11PM, Wednesday: 12AM-11PM, Thursday: 12AM-11PM, Friday: 12AM-11PM, Saturday: 12AM-11PM, Sunday: 12AM-11PM",Daily Living & Family Support Services,145.087686,-37.6526259
Wallara Australia Ltd.,Sages Cottage Farm,"85 Sages Road, Baxter, VIC 3911",03 9792 2985,intake@wallara.com.au,www.wallara.com.au,Monday: 9AM-5PM,Daily Living & Family Support Services,145.1350507,-38.1989677
Wallara Australia Ltd.,Brunswick Industries,"3b Newlands Road, Reservoir, VIC 3073",0428 075 709,intake@wallara.com.au,www.wallara.com.au,"Monday: 8AM-4PM, Tuesday: 8AM-4PM, Wednesday: 8AM-4PM, Thursday: 8AM-4PM, Friday: 8AM-12PM",Daily Living & Family Support Services,144.9804703,-37.7176695
Inclusive Home Care Pty Ltd,Inclusive Home Care,"21 Gladstone Street, Moonee Ponds, VIC 3039",03 9913 7459,info@inclusivehomecare.com.au,www.inclusivehomecare.com.au,"Monday: 9AM-5PM, Tuesday: 9AM-5PM, Wednesday: 9AM-5PM, Thursday: 9AM-5PM, Friday: 9AM-5PM, Saturday: 9AM-5PM, Sunday: 9AM-5PM",Daily Living & Family Support Services,144.9223064,-37.7690054
Life With Choice Care,Life With Choice Care,"83-85 Unitt Street, Melton, VIC 3337",03 8798 9736,info@lifewithchoicecare.com.au,www.lifewithchoicecare.com.au,"Monday: 9AM-5PM, Tuesday: 9AM-5PM, Wednesday: 9AM-5PM, Thursday: 9AM-5PM, Friday: 9AM-5PM",Daily Living & Family Support Services,144.5811406,-37.6823888
Opendoor Ltd,Opendoor - Epping,"Unit 1 Sarina Russo Job Access, 763 High Street, Epping, VIC 3076",1800 611 579,disability@opendoor.org.au,www.opendoor.org.au,"Monday: 9AM-5PM, Tuesday: 9AM-5PM, Wednesday: 9AM-5PM, Thursday: 9AM-5PM, Friday: 9AM-5PM",Daily Living & Family Support Services,145.0249655,-37.6490072
Prodka Care Services,PRODKA CARE SERVICES,"3 Stanley Street, Wodonga, VIC 3690",0412 179 354,info@prodkacareservices.com.au,prodkacareservices.com.au,"Monday: 9AM-6PM, Tuesday: 9AM-6PM, Wednesday: 9AM-6PM, Thursday: 9AM-6PM, Friday: 9AM-6PM",Daily Living & Family Support Services,146.8874759,-36.1226874
Windsor Health,Windsor Health Victoria,"3 Lincoln Way, Doreen, VIC 3754",0404 319 230,support@windsorhealth.com.au,https://windsorhealth.com.au,"Monday: 9AM-5PM, Tuesday: 9AM-5PM, Wednesday: 9AM-5PM, Thursday: 9AM-5PM, Friday: 9AM-5PM",Daily Living & Family Support Services,145.1136816,-37.6131515
Everest Support Care,Everest Support Care,"12 Clarke Street, Sunshine, VIC 3020",1300 707 364,info@everestcare.com.au,www.everestcare.com.au,"Monday: 9AM-5PM, Tuesday: 9AM-5PM, Wednesday: 9AM-5PM, Thursday: 9AM-5PM, Friday: 9AM-5PM",Daily Living & Family Support Services,144.8333354,-37.7861474
Araluen Centre,Hurstbridge,"Hurstbridge-Arthurs Creek Road, Hurstbridge, VIC 3099",03 9439 2805,helenr@araluen.org,araluen.org.au,"Monday: 9AM-3PM, Tuesday: 9AM-3PM, Wednesday: 9AM-3PM, Thursday: 9AM-3PM, Friday: 9AM-3PM",Daily Living & Family Support Services,145.1922916,-37.6264786
Nextt,Nextt,"72-76 Gheringhap Street, Geelong, VIC 3220",0458 815 282,cseamer@nextt.com.au,www.nextt.com.au,"Monday: 8AM-5PM, Tuesday: 8AM-5PM, Wednesday: 8AM-5PM, Thursday: 8AM-5PM, Friday: 8AM-5PM, Saturday: 9AM-5PM, Sunday: 9AM-5PM",Daily Living & Family Support Services,144.3564619,-38.1498464
Better2gether,Better2gether Hub,"47 Candover Street, Geelong West, VIC 3218",03 5222 4926,marie.rodgers@better2gether.com.au,www.better2gether.com.au,"Monday: 8AM-5PM, Tuesday: 8AM-5PM, Wednesday: 8AM-5PM, Thursday: 8AM-5PM, Friday: 8AM-5PM, Saturday: 8AM-5PM",Daily Living & Family Support Services,144.3499744,-38.1411137
Focus Individualised Support Services,Focus Individualised Support Services,"76 Bungower Road, Mornington, VIC 3931",03 5981 5100,cashmanf@focuslife.com.au,www.focuslife.com.au,"Monday: 12AM-11PM, Tuesday: 12AM-11PM, Wednesday: 12AM-11PM, Thursday: 12AM-11PM, Friday: 12AM-11PM, Saturday: 12AM-11PM, Sunday: 12AM-11PM",Daily Living & Family Support Services,145.0668781,-38.2237382
The Personnel Group Ltd,The Personnel Group,"Shop 6 106 - 108, Belmore Street, Yarrawonga, VIC 3730",1300 874 000,hello@personnelgroup.com.au,www.personnelgroup.com.au,"Monday: 9AM-4PM, Tuesday: 9AM-4PM, Wednesday: 9AM-4PM, Thursday: 9AM-4PM, Friday: 9AM-4PM",Daily Living & Family Support Services,146.0049776,-36.0132501
Gellibrand Support Services,Gellibrand Support Services,"6 Clifton Circuit, Tarneit, VIC 3029",03 9300 5400,services@gellibrand.org.au,www.gellibrand.org.au,"Monday: 7AM-10PM, Tuesday: 7AM-10PM, Wednesday: 7AM-10PM, Thursday: 7AM-10PM, Friday: 7AM-10PM, Saturday: 8AM-11PM, Sunday: 8AM-11PM",Daily Living & Family Support Services,144.652646,-37.8545824
Personalised Support Services,Personalised Support Services - Sunshine,"5, 12 Clarke Street, Sunshine, VIC 3020",1300 687 777,info@psupportservices.com.au,www.psupportservices.com.au,Monday: 9AM-5PM,Daily Living & Family Support Services,144.8331268,-37.7861586
Future Focus Group Pty Ltd,Future Focus Support Coordinaiton Sheppa,"23 Alexandra Street, Mooroopna, VIC 3629",1300 202 303,info@futurefocussc.com.au,www.ffsc.com.au,"Monday: 9AM-5PM, Tuesday: 9AM-5PM, Wednesday: 9AM-5PM, Thursday: 9AM-5PM, Friday: 9AM-5PM",Daily Living & Family Support Services,145.3586837,-36.3931085
Community Living And Respite Services,Community Living And Respite Services,"32 Barry Street, Echuca, VIC 3564",03 5480 2388,rhermans@clrs.org.au,www.clrs.org.au,"Monday: 9AM-5PM, Tuesday: 9AM-5PM, Wednesday: 9AM-5PM, Thursday: 9AM-5PM, Friday: 9AM-5PM",Daily Living & Family Support Services,144.7619041,-36.1319298
Oc Connections,OC Connections Enterprises,"1088 Centre Road, Oakleigh South, VIC 3167",03 9575 4200,privacy@occonnections.org,www.occonnections.org,"Monday: 8AM-4PM, Tuesday: 8AM-4PM, Wednesday: 8AM-4PM, Thursday: 8AM-4PM, Friday: 8AM-4PM",Daily Living & Family Support Services,145.0946988,-37.9258201
Care Companions Melbourne,Care Companions Melbourne,"21-23 Aristoc Road, Glen Waverley, VIC 3150",0450 577 882,info@carecm.com.au,carecm.com.au,"Monday: 9AM-5PM, Tuesday: 9AM-5PM, Wednesday: 9AM-5PM, Thursday: 9AM-5PM, Friday: 9AM-5PM",Daily Living & Family Support Services,145.1573251,-37.8875444
West End Support Services,West End Support Services,"11 Wexford Street, Alfredton, VIC 3350",0438 517 201,debbie.jew@westendss.com.au,westendsupportservices.com.au,Monday: 9AM-5PM,Daily Living & Family Support Services,143.7933542,-37.5620264
Abcare Services Pty Ltd,ABCARE Services PTY LTD,"Suite 14,, 18 Synnot Street, Werribee Vic, VIC 3030",0497 151 515,info@abservices.com.au,abservices.com.au,"Monday: 9AM-5PM, Tuesday: 9AM-5PM, Wednesday: 9AM-5PM, Thursday: 9AM-5PM, Friday: 9AM-5PM, Saturday: 9AM-5PM",Daily Living & Family Support Services,144.6630193,-37.9013619
Genu Karingal St Laurence,Genu Karingal St Laurence,"158 Liebig Street, Warrnambool, VIC 3280",1300 558 368,corporate@genu.org.au,www.genu.org.au,"Monday: 9AM-5PM, Tuesday: 9AM-5PM, Wednesday: 9AM-5PM, Thursday: 9AM-5PM, Friday: 9AM-5PM, Saturday: 9AM-5PM, Sunday: 9AM-5PM",Daily Living & Family Support Services,142.4851834,-38.382165
Comfort Care Group Pty Ltd,Comfort Care Group Pty Ltd,"Factory 2, 1523 Sydney Road, Campbellfield, VIC 3061",0402 092 147,info@comfortcaregroup.com.au,www.comfortcaregroup.com.au,"Monday: 9AM-5PM, Tuesday: 9AM-5PM, Wednesday: 9AM-5PM, Thursday: 9AM-5PM, Friday: 9AM-5PM",Daily Living & Family Support Services,144.9558444,-37.6804114
Orison Care Pty Ltd,Orison Care Pty Ltd,"13 Barunah Street, Hadfield, VIC 3046",0450 400 164,orisoncare@outlook.com,www.orisoncare.com.au,"Monday: 9AM-5PM, Tuesday: 9AM-5PM, Wednesday: 9AM-5PM, Thursday: 9AM-5PM, Friday: 9AM-5PM, Saturday: 9AM-5PM, Sunday: 9AM-5PM",Daily Living & Family Support Services,144.9399726,-37.7031582
Forest Lodge Residential Aged Care,Forest Lodge Residential Aged Care,"Previously Pines Forest Primary School, 23 Forest Drive, Frankston North, VIC 3200",03 9458 7777,patsy.thomas@tlchealthcare.com.au,www.tlchomes.com.au,"Monday: 12AM-11PM, Tuesday: 12AM-11PM, Wednesday: 12AM-11PM, Thursday: 12AM-11PM, Friday: 12AM-11PM, Saturday: 12AM-11PM, Sunday: 12AM-11PM",Daily Living & Family Support Services,145.151377,-38.1237635
Pwd Care,PWD Care PTY Ltd,"Unit 2, 5 Devonshire Road, Sunshine, VIC 3020",03 9116 5545,info@pwdcare.com.au,www.pwdcare.com.au,"Monday: 9AM-5PM, Tuesday: 9AM-5PM, Wednesday: 9AM-5PM, Thursday: 9AM-5PM, Friday: 9AM-5PM",Daily Living & Family Support Services,144.8314293,-37.7845473
Cooee Care Solutions Pty Ltd,Dandenong North Tennis Club,"112 Somerset Drive, Dandenong North, VIC 3175",0499 499 635,marieb@cooeecaresolutions.com.au,https://cooeecaresolutions.com.au/index.html,"Monday: 9AM-3PM, Tuesday: 9AM-3PM, Wednesday: 9AM-3PM, Thursday: 9AM-3PM, Friday: 9AM-3PM",Daily Living & Family Support Services,145.2188426,-37.9464285
Odix Care Pty Ltd,Odix Care,"Suite 103, 441 Docklands Drive, Docklands, VIC 3008",03 9034 1515,info@odixcare.com.au,www.odixcare.com.au,"Monday: 9AM-5PM, Tuesday: 9AM-5PM, Wednesday: 9AM-5PM, Thursday: 9AM-5PM, Friday: 9AM-5PM, Saturday: 9AM-5PM, Sunday: 9AM-3PM",Daily Living & Family Support Services,144.9384322,-37.8151376
Opendoor Ltd,Opendoor Ltd - Geelong,"Level 2, 65 Brougham Street, Geelong, VIC 3220",1800 611 579,disability@opendoor.org.au,www.opendoor.org.au,"Monday: 9AM-5PM, Tuesday: 9AM-5PM, Wednesday: 9AM-5PM, Thursday: 9AM-5PM, Friday: 9AM-5PM",Daily Living & Family Support Services,144.3629949,-38.145263
Bloom Community Care,Bloom Community Care,"1100 Pascoe Vale Road, Broadmeadows, VIC 3047",0422 303 538,info@bloomcommunitycare.com.au,www.bloomcommunitycare.com.au,"Monday: 9AM-5PM, Tuesday: 9AM-5PM, Wednesday: 9AM-5PM, Thursday: 9AM-5PM, Friday: 9AM-5PM",Daily Living & Family Support Services,144.9190275,-37.6833982
Knoxbrooke Incorporated,365 Outer East,"885 Mountain Highway, Bayswater, VIC 3153",03 9758 3666,kylie.peele@knoxbrooke.com.au,www.knoxbrooke.com.au,"Monday: 6AM-11PM, Tuesday: 6AM-11PM, Wednesday: 6AM-11PM, Thursday: 6AM-11PM, Friday: 6AM-11PM, Saturday: 6AM-11PM, Sunday: 6AM-11PM",Daily Living & Family Support Services,145.2798874,-37.8370487
Honeysuckle Regional Health,Violet Town Bush Nursing Centre,"61 Cowslip St, Violet Town, VIC 3669",03 5798 1324,ceo@hsrh.com.au,https://hrh.org.au,"Monday: 9AM-5PM, Tuesday: 9AM-5PM, Wednesday: 9AM-5PM, Thursday: 9AM-5PM, Friday: 9AM-5PM, Saturday: 9AM-5PM, Sunday: 9AM-5PM",Daily Living & Family Support Services,145.7146494,-36.6358612
Equisent Disability Services,Equisent Disability Services,"Unit 117, 89 High Street, Kew, VIC 3101",0412 591 030,hiram@equisent.com.au,www.equisent.com.au,"Monday: 9AM-5PM, Tuesday: 9AM-5PM, Wednesday: 9AM-5PM, Thursday: 9AM-5PM, Friday: 9AM-5PM",Daily Living & Family Support Services,145.0281462,-37.8079108
Elevate Support Care Pty Limited,Rosebud 2,"10a Caroline Court, Rosebud, VIC 3939",0449 873 127,abhinav@elevatesupportcare.com.au,elevatesupportcare.com.au,"Monday: 12AM-11PM, Tuesday: 12AM-11PM, Wednesday: 12AM-11PM, Thursday: 12AM-11PM, Friday: 12AM-11PM, Saturday: 12AM-11PM, Sunday: 12AM-11PM",Daily Living & Family Support Services,144.9139797,-38.3762026
Supportably & 360 Support Coordination,Supportably & 360 Support Coordination,"21-31 Hall Street, Moonee Ponds, VIC 3039",0406 552 019,accounts@360sc.com.au,"supportably.com.au, 360sc.com.au","Monday: 8AM-6PM, Tuesday: 8AM-6PM, Wednesday: 8AM-6PM, Thursday: 8AM-6PM, Friday: 8AM-6PM",Daily Living & Family Support Services,144.9229537,-37.7660288
Careable,Careable,"Suite 13, Level 2, 1-3 Janefield Drive, Bundoora, VIC 3083",0482 012 089,vivek@careable.com.au,https://www.careable.com.au,"Monday: 8AM-5PM, Tuesday: 8AM-5PM, Wednesday: 8AM-5PM, Thursday: 8AM-5PM, Friday: 8AM-5PM, Saturday: 9AM-3PM, Sunday: 9AM-3PM",Daily Living & Family Support Services,145.0704911,-37.6823684
Super Community Care Pty Ltd,Accommodation,"3 Bendigo Court, Cranbourne, VIC 3977",0434 104 447,info@supercommunitycare.com.au,www.supercommunitycare.com.au,Monday: 9AM-5PM,Daily Living & Family Support Services,145.2828705,-38.0855945
Regis Aged Care Pty Ltd,Regis Rosebud,"Regis Rosebud, 1 Wyuna Street, Capel Sound, VIC 3940",03 5986 3322,advice@regis.com.au,www.regis.com.au,"Monday: 12AM-11PM, Tuesday: 12AM-11PM, Wednesday: 12AM-11PM, Thursday: 12AM-11PM, Friday: 12AM-11PM, Saturday: 12AM-11PM, Sunday: 12AM-11PM",Daily Living & Family Support Services,144.883013,-38.370523
Future Focus Group Pty Ltd,Future Focus Support Coordination Melbou,"Eastland Shopping Centre, 175 Maroondah Highway, Ringwood, VIC 3134",1300 202 303,info@futurefocussc.com.au,www.ffsc.com.au,"Monday: 9AM-5PM, Tuesday: 9AM-5PM, Wednesday: 9AM-5PM, Thursday: 9AM-5PM, Friday: 9AM-5PM",Daily Living & Family Support Services,145.2292803,-37.8126592
Murray Human Services Inc T/As We Are Vi,Vivid Living - Kyabram,"17 Albion Street, Kyabram, VIC 3620",03 5480 6611,kylie.liebmann@wearevivid.org.au,www.wearevivid.org.au,Monday: 9AM-5PM,Daily Living & Family Support Services,145.0494116,-36.3126159
Mckenzie Aged Care Group Pty Ltd,Rosebrook,"Rosebrook Mckenzie, 441 Waterfall Gully Road, Rosebud, VIC 3939",03 5982 9200,lmcleod@mckenzieacg.com,"44 musk ave, kelvin grove brisbane","Monday: 12AM-11PM, Tuesday: 12AM-11PM, Wednesday: 12AM-11PM, Thursday: 12AM-11PM, Friday: 12AM-11PM, Saturday: 12AM-11PM, Sunday: 12AM-11PM",Daily Living & Family Support Services,144.9164671,-38.3779264
Care Heart Pty Ltd,Care Heart,"1413 Pascoe Vale Road, Meadow Heights, VIC 3048",1300 239 496,info@careheart.com.au,careheart.com.au,Monday: 9AM-5PM,Daily Living & Family Support Services,144.9256564,-37.6591263
Coburg Home For The Aged Inc,Dorothy Impey Home,"Dorothy Impey Home, 317a Ohea Street, Pascoe Vale South, VIC 3044",03 8102 2400,jacquesd@dorothyimpeyhome.org.au,https://dorothyimpeyhome.org.au,"Monday: 12AM-11PM, Tuesday: 12AM-11PM, Wednesday: 12AM-11PM, Thursday: 12AM-11PM, Friday: 12AM-11PM, Saturday: 12AM-11PM, Sunday: 12AM-11PM",Daily Living & Family Support Services,144.9367663,-37.7347695
Monkami Centre Inc,Monkami Centre Inc,"2-6 Dixon Avenue, Croydon, VIC 3136",03 9725 8677,qualitymanager@monkami.org,www.monkami.org,"Monday: 8AM-4PM, Tuesday: 8AM-4PM, Wednesday: 8AM-4PM, Thursday: 8AM-4PM, Friday: 8AM-4PM, Saturday: 9AM-5PM, Sunday: 9AM-5PM",Daily Living & Family Support Services,145.2914783,-37.7859681
Baptcare Ltd,Baptcare - Northaven Community,"84-86 Shadforth Street, Kerang, VIC 3579",03 5452 1622,dperry@baptcare.org.au,www.baptcare.org.au,"Monday: 12AM-11PM, Tuesday: 12AM-11PM, Wednesday: 12AM-11PM, Thursday: 12AM-11PM, Friday: 12AM-11PM, Saturday: 12AM-11PM, Sunday: 12AM-11PM",Daily Living & Family Support Services,143.9156702,-35.7261054
Leap In!,Leap in! Fitzroy,"Fitzroy, Fitzroy, VIC 3065",1300 057 878,crew@leapin.com.au,www.leapin.com.au,"Monday: 9AM-5PM, Tuesday: 9AM-5PM, Wednesday: 9AM-5PM, Thursday: 9AM-5PM, Friday: 9AM-5PM",Daily Living & Family Support Services,144.9784894,-37.7983606
Opendoor Ltd,Opendoor - Sunshine,"Unit 2, 27 Clarke Street, Sunshine, VIC 3020",1800 611 579,disability@opendoor.org.au,www.opendoor.org.au,"Monday: 9AM-5PM, Tuesday: 9AM-5PM, Wednesday: 9AM-5PM, Thursday: 9AM-5PM, Friday: 9AM-5PM",Daily Living & Family Support Services,144.8328244,-37.7853144
Annecto Incorporated,Western Metro Region,"David House, Little David Street, Yarraville, VIC 3013",03 9314 0988,mambwe.chipota@annecto.org.au,www.annecto.org.au,"Monday: 9AM-5PM, Tuesday: 9AM-5PM, Wednesday: 9AM-5PM, Thursday: 9AM-5PM, Friday: 9AM-5PM, Saturday: 9AM-5PM, Sunday: 9AM-5PM",Daily Living & Family Support Services,144.8824857,-37.8154112
Islamic Womens Association Of Australia,IWAA Melbourne,"35 Melbourne Avenue, Glenroy, VIC 3046",0435 878 173,iman.e@iwaa.org.au,www.iwaa.org.au,"Monday: 8AM-4PM, Tuesday: 8AM-4PM, Wednesday: 8AM-4PM, Thursday: 8AM-4PM, Friday: 8AM-4PM",Daily Living & Family Support Services,144.9348953,-37.7047521
Baptcare Ltd,Baptcare The Orchards Community,"107 Andersons Creek Road, Doncaster East, VIC 3109",03 9831 7222,gdangerfield@baptcare.org.au,www.baptcare.org.au,"Monday: 12AM-11PM, Tuesday: 12AM-11PM, Wednesday: 12AM-11PM, Thursday: 12AM-11PM, Friday: 12AM-11PM, Saturday: 12AM-11PM, Sunday: 12AM-11PM",Daily Living & Family Support Services,145.1715002,-37.7668119
Independence Australia Community Solutio,"Saxby Crt, Traralgon (SASI)","9 Saxby Court, Traralgon East, VIC 3844",1300 577 305,enquiries@sasi.org.au,https://www.independenceaustralia.com.au/,"Monday: 12AM-11PM, Tuesday: 12AM-11PM, Wednesday: 12AM-11PM, Thursday: 12AM-11PM, Friday: 12AM-11PM, Saturday: 12AM-11PM, Sunday: 12AM-11PM",Daily Living & Family Support Services,146.5622339,-38.1997176
Aspire Community Services,Aspire Community Services,"72 Kangan Drive, Berwick, VIC 3806",1300 080 405,info@aspirecommunityservices.com.au,www.aspirecommunityservices.com.au,Monday: 9AM-5PM,Daily Living & Family Support Services,145.3513959,-38.0483847
Regis Aged Care Pty Ltd,Regis Alawarra Lodge,"Kitchen And Dining, 220 Middleborough Road, Blackburn South, VIC 3130",03 9895 5589,advice@regis.com.au,www.regis.com.au,"Monday: 12AM-11PM, Tuesday: 12AM-11PM, Wednesday: 12AM-11PM, Thursday: 12AM-11PM, Friday: 12AM-11PM, Saturday: 12AM-11PM, Sunday: 12AM-11PM",Daily Living & Family Support Services,145.1366648,-37.8376657
Care Provisions Australia,Care Provisions Australia,"2, Karee Cour, Bairnsdale, VIC 4875",0406 370 244,charity.samuriwo@careprovisions.com.au,www.careprovisions.com.au/,"Monday: 9AM-5PM, Tuesday: 9AM-5PM, Wednesday: 9AM-5PM, Thursday: 9AM-5PM, Friday: 9AM-5PM, Saturday: 9AM-5PM, Sunday: 9AM-5PM",Daily Living & Family Support Services,147.6020125,-37.8186561
Atz Health Care Services Pty Ltd,Atz Health Care Services,"18 Bishop Street, Kingsville, VIC 3012",1300 101 289,info@atzcare.com.au,www.atzcare.com.au,"Monday: 8AM-6PM, Tuesday: 8AM-6PM, Wednesday: 8AM-6PM, Thursday: 8AM-6PM, Friday: 8AM-6PM, Saturday: 8AM-6PM, Sunday: 8AM-6PM",Daily Living & Family Support Services,144.8749497,-37.8095988
Nation Care Pty Ltd,NATION CARE,"75 Ashley Street, Braybrook, VIC 3019",1300 907 018,info@nationcare.com.au,www.nationcare.com.au,"Monday: 9AM-5PM, Tuesday: 9AM-5PM, Wednesday: 9AM-5PM, Thursday: 9AM-5PM, Friday: 9AM-5PM",Daily Living & Family Support Services,144.8628942,-37.7919955
Tehila Health Services Pty Ltd,Tehila Health Services,"64 Bridgewater Road, Craigieburn, VIC 3064",03 8351 9265,info@tehilahealthservices.com,tehilahealthservices.com,"Monday: 9AM-5PM, Tuesday: 9AM-5PM, Wednesday: 9AM-5PM, Thursday: 9AM-5PM, Friday: 9AM-5PM, Saturday: 10AM-5PM, Sunday: 10AM-4PM",Daily Living & Family Support Services,144.9286175,-37.6045548
Apex Care Pty Ltd,Apex Care Pty Ltd,"26 Rich Crescent, Bellfield, VIC 3081",03 8418 2664,xenia.ruan@apex-care.com.au,apex-care.com.au,"Monday: 9AM-5PM, Tuesday: 9AM-5PM, Wednesday: 9AM-5PM, Thursday: 9AM-5PM, Friday: 9AM-5PM",Daily Living & Family Support Services,145.0429906,-37.7518751
Genu Karingal St Laurence,Genu Karingal St Laurence,"Bayside And Surrounds, 163 Frankston-Dandenong Rd, Frankston, VIC 3199",1300 558 368,corporate@genu.org.au,www.genu.org.au,"Monday: 9AM-5PM, Tuesday: 9AM-5PM, Wednesday: 9AM-5PM, Thursday: 9AM-5PM, Friday: 9AM-5PM, Saturday: 9AM-5PM, Sunday: 9AM-5PM",Daily Living & Family Support Services,145.1380361,-38.1262557
Dash Access And Inclusion Services,Dash Support Services Pty Ltd,"44 Lakeview Drive, Scoresby, VIC 3179",0438 768 852,mariana@dashsupportservices.com,https://dashaccessandinclusion.com,"Monday: 9AM-5PM, Tuesday: 9AM-5PM, Wednesday: 9AM-5PM, Thursday: 9AM-5PM, Friday: 9AM-5PM, Saturday: 10AM-2PM",Daily Living & Family Support Services,145.2194476,-37.9140911
Live Life Connect Group,Live Life Connect Group,"Suite 205 / 991 Whitehorse Road, Box Hill, VIC 3128",03 9553 6464,hello@onside.com.au,www.onside.com.au,"Monday: 8AM-5PM, Tuesday: 8AM-5PM, Wednesday: 8AM-5PM, Thursday: 8AM-5PM, Friday: 8AM-5PM, Saturday: 8AM-5PM, Sunday: 8AM-5PM",Daily Living & Family Support Services,145.1251013,-37.8179369
South West Healthcare,David Newman Centre,"Camperdown Day Centre, 20 Church Street, Camperdown, VIC 3260",03 5593 7364,dcentre@swh.net.au,www.southwesthealthcare.com.au/swh,Monday: 9AM-5PM,Daily Living & Family Support Services,143.1474409,-38.2307651
East Wimmera Health Service,East Wimmera Health Service Birchip,"24-26 Duncan Street, Birchip, VIC 3483",03 5477 2149,ndis@ewhs.org.au,www.ewhs.org.au,"Monday: 9AM-5PM, Tuesday: 9AM-5PM, Wednesday: 9AM-5PM, Thursday: 9AM-5PM, Friday: 9AM-5PM, Saturday: 9AM-5PM, Sunday: 9AM-5PM",Daily Living & Family Support Services,142.9154524,-35.9800952
The Trustee For Lifeful Discretionary Tr,LifefFul Frankston,"Unit 1, 40 Playne Street, Frankston, VIC 3199",1800 543 338,info@lifeful.com.au,www.lifeful.com.au,Monday: 8AM-5PM,Daily Living & Family Support Services,145.1224574,-38.1451873
Uniting (Victoria And Tasmania),Uniting Vic & Tas - SLES Burgundy Street,"183 Burgundy Street, Heidelberg, VIC 3084",1300 090 989,ndis@vt.uniting.org,https://www.unitingvictas.org.au/,"Monday: 9AM-5PM, Tuesday: 9AM-5PM, Wednesday: 9AM-5PM, Thursday: 9AM-5PM, Friday: 9AM-5PM",Daily Living & Family Support Services,145.0637701,-37.756047
Australian Foundation For Disability,AFFORD ADE - Carrum Downs,"17-19 Lieber Grove, Carrum Downs, VIC 3201",1800 233 673,support.centre@afford.com.au,www.afford.com.au,"Monday: 9AM-5PM, Tuesday: 9AM-5PM, Wednesday: 9AM-5PM, Thursday: 9AM-5PM, Friday: 9AM-5PM",Daily Living & Family Support Services,145.1608632,-38.102157
Genu Karingal St Laurence,Genu Karingal St Laurence,"53-57 Kookaburra Avenue, Werribee, VIC 3030",1300 558 368,corporate@genu.org.au,www.genu.org.au,"Monday: 9AM-5PM, Tuesday: 9AM-5PM, Wednesday: 9AM-5PM, Thursday: 9AM-5PM, Friday: 9AM-5PM, Saturday: 9AM-5PM, Sunday: 9AM-5PM",Daily Living & Family Support Services,144.6753532,-37.8853412
Hand In Hand - Home And Community Care (,Hand In Hand - Home And Community Care,"4 School Road, Ferny Creek, VIC 3786",0439 984 567,katalin@hihvic.care,www.hihvic.com.au,"Monday: 9AM-5PM, Tuesday: 9AM-5PM, Wednesday: 9AM-5PM, Thursday: 9AM-5PM, Friday: 9AM-5PM",Daily Living & Family Support Services,145.3377883,-37.8839235
Bj Care Services Pty Ltd,Bj Care Services,"38 Ridgemont Drive, Berwick, VIC 3806",0415 089 807,admin@bjcareservices.com.au,www.bjcareservices.com.au,Monday: 9AM-5PM,Daily Living & Family Support Services,145.3393115,-38.0671577
Including You,INCLUDING YOU (MILL PARK),"Roycroft Avenue, Melbourne, VIC 3082",03 8407 0940,intake@includingyou.com.au,www.includingyou.com.au,"Monday: 9AM-5PM, Tuesday: 9AM-5PM, Wednesday: 9AM-5PM, Thursday: 9AM-5PM, Friday: 9AM-5PM, Saturday: 9AM-5PM, Sunday: 9AM-5PM",Daily Living & Family Support Services,145.0546121,-37.6685373
Gellibrand Support Services,Gellibrand Support Services,"32 Gribble Street, Lucas, VIC 3350",03 9300 5400,services@gellibrand.org.au,www.gellibrand.org.au,"Monday: 7AM-10PM, Tuesday: 7AM-10PM, Wednesday: 7AM-10PM, Thursday: 7AM-10PM, Friday: 7AM-10PM, Saturday: 8AM-11PM, Sunday: 8AM-11PM",Daily Living & Family Support Services,143.7822437,-37.5548488
Elevate Support Care Pty Limited,HOME AND AWAY IN CRANBOURNE,"112 Camms Road, Cranbourne, VIC 3977",0449 873 127,abhi@elevatesupportcare.com.au,elevatesupportcare.com.au,"Monday: 8AM-8PM, Tuesday: 8AM-8PM, Wednesday: 8AM-8PM, Thursday: 8AM-8PM, Friday: 8AM-8PM, Saturday: 8AM-8PM, Sunday: 8AM-8PM",Daily Living & Family Support Services,145.284799,-38.09855
The Personnel Group Ltd,The Personnel Group,"114-116 Wyndham Street, Shepparton, VIC 3630",1300 874 000,hello@personnelgroup.com.au,www.personnelgroup.com.au,"Monday: 9AM-4PM, Tuesday: 9AM-4PM, Wednesday: 9AM-4PM, Thursday: 9AM-4PM, Friday: 9AM-4PM",Daily Living & Family Support Services,145.4000133,-36.3764618
Unique Care Plus,Unique Care Plus,"Unit 1 43 Price Avenue, Mount Waverley, VIC 3149",0404 313 793,lizpiho@hotmail.com,www.ucplus.com.au,"Monday: 12AM-11PM, Tuesday: 12AM-11PM, Wednesday: 12AM-11PM, Thursday: 12AM-11PM, Friday: 12AM-11PM, Saturday: 12AM-11PM, Sunday: 12AM-11PM",Daily Living & Family Support Services,145.1433217,-37.8748906
Gracious Hands Services,Gracious Hands Services,"17 Weemala Grove, Werribee, VIC 3030",0404 159 390,gracioushandsservices@gmail.com,gracious hands services,"Monday: 9AM-5PM, Tuesday: 9AM-5PM, Wednesday: 9AM-5PM, Thursday: 9AM-5PM, Friday: 9AM-5PM",Daily Living & Family Support Services,144.6154092,-37.9025622
Marriott Support Services,Marriott Lifestyle Hub - Hampton East,"898 Nepean Highway, Hampton East, VIC 3188",0455 829 313,info@marriott.org.au,www.marriott.org.au,"Monday: 9AM-3PM, Tuesday: 9AM-3PM, Wednesday: 9AM-3PM, Thursday: 9AM-3PM, Friday: 9AM-3PM",Daily Living & Family Support Services,145.0354199,-37.9348594
Simply Helping Bayside Peninsula,Simply helping Bayside Penninsula,"27 Buckley Street, Noble Park, VIC 3174",03 9574 0924,gspadmin@simplyhelping.com.au,simplyhelping.com.au,"Monday: 8AM-5PM, Tuesday: 8AM-5PM, Wednesday: 8AM-5PM, Thursday: 8AM-5PM, Friday: 8AM-5PM",Daily Living & Family Support Services,145.1746363,-37.9672312
Peer2peer Mentors Pty. Ltd.,Peer2peer Mentors,"Unit 2, 1430 Plenty Road, Bundoora, VIC 3083",0410 255 485,info@peer2peermentors.com.au,https://www.peer2peermentors.com/,"Monday: 9AM-5PM, Tuesday: 9AM-5PM, Wednesday: 9AM-5PM, Thursday: 9AM-5PM, Friday: 9AM-5PM, Saturday: 9AM-5PM, Sunday: 9AM-5PM",Daily Living & Family Support Services,145.0632596,-37.6923054
Opendoor Ltd,Opendoor - Preston,"375 High Street, Preston, VIC 3072",1800 611 579,disability@opendoor.org.au,www.opendoor.org.au,Monday: 9AM-5PM,Daily Living & Family Support Services,145.00332,-37.740917
Independence Australia Community Solutio,Independence Australia Community Solution,"2 Wanda Court, Aspendale, VIC 3195",1300 577 305,enquiries@sasi.org.au,https://www.independenceaustralia.com.au/,"Monday: 12AM-11PM, Tuesday: 12AM-11PM, Wednesday: 12AM-11PM, Thursday: 12AM-11PM, Friday: 12AM-11PM, Saturday: 12AM-11PM, Sunday: 12AM-11PM",Daily Living & Family Support Services,145.1103507,-38.0240834
Estia Investments Pty. Ltd.,Estia Health Wattle Glen,"Estia Health Wattle Glen, 45 Silvan Road, Wattle Glen, VIC 3096",03 9718 2267,wattleglen@estiahealth.com.au,https://www.estiahealth.com.au/,"Monday: 12AM-11PM, Tuesday: 12AM-11PM, Wednesday: 12AM-11PM, Thursday: 12AM-11PM, Friday: 12AM-11PM, Saturday: 12AM-11PM, Sunday: 12AM-11PM",Daily Living & Family Support Services,145.1940374,-37.6539916
Mccallum Disability Services,McCallum Disability Services Head Office,"7 Smythes Road, Delacombe, VIC 3356",03 5334 1921,randal@mccallum.org.au,www.mccallum.org.au,"Monday: 8AM-5PM, Tuesday: 8AM-5PM, Wednesday: 8AM-5PM, Thursday: 8AM-5PM, Friday: 8AM-5PM, Saturday: 9AM-5PM, Sunday: 9AM-5PM",Daily Living & Family Support Services,143.8248282,-37.5880288
Annecto Incorporated,Annecto Incorporated,"51a Kurunjang Drive, Kurunjang, VIC 3337",03 5366 3000,yourchoice@merrimu.org,www.annecto.org.au,"Monday: 8AM-4PM, Tuesday: 8AM-4PM, Wednesday: 8AM-4PM, Thursday: 8AM-4PM, Friday: 8AM-4PM, Saturday: 9AM-5PM, Sunday: 9AM-5PM",Daily Living & Family Support Services,144.5909742,-37.6717493
Mirridong Services Inc,Apex House,"121 Commercial Road, Yarram, VIC 3971",03 5182 5750,info@mirridong.com.au,www.mirridong.com.au,"Monday: 9AM-5PM, Tuesday: 9AM-5PM, Wednesday: 9AM-5PM, Thursday: 9AM-5PM, Friday: 9AM-5PM",Daily Living & Family Support Services,146.6772756,-38.5598329
Focus Individualised Support Services,BANKSIA,"90 Arthurs Seat Road, Red Hill, VIC 3937",03 5981 5100,cashmanf@focuslife.com.au,www.focuslife.com.au,"Monday: 12AM-11PM, Tuesday: 12AM-11PM, Wednesday: 12AM-11PM, Thursday: 12AM-11PM, Friday: 12AM-11PM, Saturday: 12AM-11PM, Sunday: 12AM-11PM",Daily Living & Family Support Services,145.0227069,-38.3728068
Newhorizon Prestige Solutions Pty Ltd,Social and community recreational suppor,"32 Hewett Drive, Point Cook, VIC 3030",0402 583 373,info@newhorizonprestigesolutions.com.au,www.newhorizonprestigesolutions.com.au,"Monday: 9AM-5PM, Tuesday: 9AM-5PM, Wednesday: 9AM-5PM, Thursday: 9AM-5PM, Friday: 9AM-5PM",Daily Living & Family Support Services,144.7271141,-37.8916035
People's First Choice Australia,People's First Choice Australia,"6 Karingal Drive, Frankston, VIC 3199",0413 548 655,manny@peoplesfirstchoice.com.au,https://www.pfca.com.au/,"Monday: 9AM-5PM, Tuesday: 9AM-5PM, Wednesday: 9AM-5PM, Thursday: 9AM-5PM, Friday: 9AM-5PM, Saturday: 9AM-5PM, Sunday: 9AM-5PM",Daily Living & Family Support Services,145.1536502,-38.1369646
The Disability Company,The Disability Company,"Factory 3, 22 Westpool Drive, Hallam, VIC 3803",1300 897 848,services@disabilityco.com,disabilityco.com,"Monday: 9AM-5PM, Tuesday: 9AM-5PM, Wednesday: 9AM-5PM, Thursday: 9AM-5PM, Friday: 9AM-5PM",Daily Living & Family Support Services,145.263258,-38.0136616
Woodbine Inc,Woodbine Gardening and Landscaping,"54 Craig Avenue, Warracknabeal, VIC 3393",03 5398 2166,enquires@woodbine.org.au,www.woodbine.org.au,"Monday: 8AM-3PM, Tuesday: 8AM-3PM, Wednesday: 8AM-3PM, Thursday: 8AM-3PM, Friday: 8AM-3PM",Daily Living & Family Support Services,142.3889296,-36.2481817
Elevate Support Care Pty Limited,Elevate Support Care,"9 Galenia Street, Wollert, VIC 3750",0449 873 127,abhinav@elevatesupportcare.com.au,elevatesupportcare.com.au,"Monday: 12AM-11PM, Tuesday: 12AM-11PM, Wednesday: 12AM-11PM, Thursday: 12AM-11PM, Friday: 12AM-11PM, Saturday: 12AM-11PM, Sunday: 12AM-11PM",Daily Living & Family Support Services,145.0204904,-37.6104659
Srs,Sunraysia Residential Services Inc.,"877 Fifteenth Street, Mildura, VIC 3500",03 5022 1741,srs@srsinc.com.au,www.srsinc.com.au,"Monday: 9AM-4PM, Tuesday: 9AM-4PM, Wednesday: 9AM-4PM, Thursday: 9AM-4PM, Friday: 9AM-4PM, Saturday: 9AM-5PM, Sunday: 9AM-5PM",Daily Living & Family Support Services,142.1340434,-34.2042652
Sunset Community Care,Dynamic Care Disability Services,"6 Kangaroo Road, Craigieburn, VIC 3064",0467 255 696,hassan.hashi.hassan@gmail.com,www.sunsetcommunitycare.com.au,"Monday: 9AM-5PM, Tuesday: 9AM-5PM, Wednesday: 9AM-5PM, Thursday: 9AM-5PM, Friday: 9AM-5PM, Saturday: 9AM-12PM",Daily Living & Family Support Services,144.901706,-37.5683959
St John Of God Accord,St John of God Accord - Community Campus,"135 Melbourne Avenue, Glenroy, VIC 3046",1300 002 226,accord.ceo@sjog.org.au,www.accorddisability.org.au,"Monday: 8AM-10PM, Tuesday: 8AM-10PM, Wednesday: 8AM-10PM, Thursday: 8AM-10PM, Friday: 8AM-10PM, Saturday: 8AM-10PM, Sunday: 8AM-10PM",Daily Living & Family Support Services,144.9225162,-37.7033097
Melba Support Services Australia Ltd,Melba Support Services Australia,"15-21 Buckley Street, Morwell, VIC 3840",1300 696 352,nikki.ferris@melbasupport.com.au,www.melbasupport.com.au,"Monday: 9AM-5PM, Tuesday: 9AM-5PM, Wednesday: 9AM-5PM, Thursday: 9AM-5PM, Friday: 9AM-5PM",Daily Living & Family Support Services,146.3973671,-38.2350964
Autumn Care Pty Ltd,Autumn Care,"Clovelly Cottage, 16 Stewart Street, Boronia, VIC 3155",03 9762 2078,ccmanager@autumncareac.com,www.autumncareac.com,"Monday: 12AM-11PM, Tuesday: 12AM-11PM, Wednesday: 12AM-11PM, Thursday: 12AM-11PM, Friday: 12AM-11PM, Saturday: 12AM-11PM, Sunday: 12AM-11PM",Daily Living & Family Support Services,145.289153,-37.852655
Gellibrand Support Services,Gellibrand Support Services,"24 Withers Street, Sunshine, VIC 3020",03 9300 5400,services@gellibrand.org.au,www.gellibrand.org.au,"Monday: 9AM-9PM, Tuesday: 9AM-9PM, Wednesday: 9AM-9PM, Thursday: 9AM-9PM, Friday: 9AM-9PM, Saturday: 9AM-9PM, Sunday: 9AM-9PM",Daily Living & Family Support Services,144.8343116,-37.7860606
Opendoor Ltd,Opendoor - Lilydale,"Unit 3, 2 Clarke Street, Lilydale, VIC 3140",1800 611 579,disability@opendoor.org.au,www.opendoor.org.au,"Monday: 9AM-5PM, Tuesday: 9AM-5PM, Wednesday: 9AM-5PM, Thursday: 9AM-5PM, Friday: 9AM-5PM, Saturday: 9AM-5PM, Sunday: 9AM-5PM",Daily Living & Family Support Services,145.3510441,-37.7586996
Elevate Support Care Pty Limited,Elevate Support Care,"447 Frankston-Dandenong Road, Frankston North, VIC 3200",0449 873 127,abhinav@elevatesupportcare.com.au,elevatesupportcare.com.au,"Monday: 12AM-11PM, Tuesday: 12AM-11PM, Wednesday: 12AM-11PM, Thursday: 12AM-11PM, Friday: 12AM-11PM, Saturday: 12AM-11PM, Sunday: 12AM-11PM",Daily Living & Family Support Services,145.1570072,-38.1134937
Careability Pty Ltd,CareAbility - Community,"42 Progress Drive, Carrum Downs, VIC 3201",0400 765 544,careabilityaus@gmail.com,www.careability.com.au,"Monday: 9AM-5PM, Tuesday: 9AM-5PM, Wednesday: 9AM-5PM, Thursday: 9AM-5PM, Friday: 9AM-5PM",Daily Living & Family Support Services,145.1725789,-38.0874783
Asteria Services Incorporated,ASTERIA Admin & Centre Based Activities,"14 Lockwood Road, Kangaroo Flat, VIC 3555",03 5441 3537,bendigo@asteria.net.au,www.asteria.net.au,Monday: 9AM-5PM,Daily Living & Family Support Services,144.2282681,-36.7984687
Focus Individualised Support Services,Focus Individualised Support Services,"2 Balcombe Drive, Mount Martha, VIC 3934",03 5981 5100,cashmanf@focuslife.com.au,www.focuslife.com.au,"Monday: 12AM-11PM, Tuesday: 12AM-11PM, Wednesday: 12AM-11PM, Thursday: 12AM-11PM, Friday: 12AM-11PM, Saturday: 12AM-11PM, Sunday: 12AM-11PM",Daily Living & Family Support Services,145.0568641,-38.2547539
Blairlogie Living And Learning Inc,Blairlogie Living And Learning,"13 Mundaring Drive, Cranbourne, VIC 3977",03 5978 7900,admin@blairlogie.org,www.blairlogie.org,"Monday: 12AM-11PM, Tuesday: 12AM-11PM, Wednesday: 12AM-11PM, Thursday: 12AM-11PM, Friday: 12AM-11PM, Saturday: 12AM-11PM, Sunday: 12AM-11PM",Daily Living & Family Support Services,145.2807244,-38.1066415
Safe Solutions Care,Safe Solutions Care,"31 Fraser Street, Herne Hill, VIC 3218",0409 026 163,sue@safesolutionscare.com.au,www.safesolutionscare.com.au,"Monday: 9AM-5PM, Tuesday: 9AM-5PM, Wednesday: 9AM-5PM, Thursday: 9AM-5PM, Friday: 9AM-5PM, Saturday: 9AM-5PM, Sunday: 9AM-5PM",Daily Living & Family Support Services,144.3217042,-38.1386657
Exaudy Care Pty Ltd,Exaudy Care Day Centre,"71 Stud Road, Dandenong, VIC 3175",0480 226 622,grady@exaudycare.com.au,www.exaudycare.com.au,"Monday: 9AM-4PM, Tuesday: 9AM-4PM, Wednesday: 9AM-4PM, Thursday: 9AM-4PM, Friday: 9AM-4PM",Daily Living & Family Support Services,145.2217317,-37.9784807
Including You,Including You,"72 Leonard Street, Tootgarook, VIC 3941",03 8407 0940,director@includingyou.com.au,www.includingyou.com.au,"Monday: 9AM-5PM, Tuesday: 9AM-5PM, Wednesday: 9AM-5PM, Thursday: 9AM-5PM, Friday: 9AM-5PM",Daily Living & Family Support Services,144.8430229,-38.3780366
Cindemvale Pty Ltd,Cindemvale,"23a Mint Street, Wodonga, VIC 3690",02 6000 1999,liana@cindemvale.com.au,www.cindemvale.com.au,"Monday: 8AM-4PM, Tuesday: 8AM-4PM, Wednesday: 8AM-4PM, Thursday: 8AM-4PM, Friday: 8AM-4PM",Daily Living & Family Support Services,146.8953502,-36.1229367
Dutiful Care,Dutiful Care,"3 Turmeric Avenue, Mickleham, VIC 3064",0450 555 500,simin.ilkhani@yahoo.com,https://dutifulcare.com.au/,"Monday: 8AM-6PM, Tuesday: 8AM-6PM, Wednesday: 8AM-6PM, Thursday: 8AM-6PM, Friday: 8AM-6PM, Saturday: 10AM-4PM, Sunday: 10AM-4PM",Daily Living & Family Support Services,144.8909957,-37.5466489
Leap In!,Leap in! Preston,"Preston, Preston, VIC 3072",1300 057 878,crew@leapin.com.au,www.leapin.com.au,"Monday: 9AM-5PM, Tuesday: 9AM-5PM, Wednesday: 9AM-5PM, Thursday: 9AM-5PM, Friday: 9AM-5PM",Daily Living & Family Support Services,145.0107588,-37.7399362
Care Au,Care AU- Head Office,"232 High Street, Preston, VIC 3072",1300 227 308,info@careau.com.au,www.careau.com.au,"Monday: 12AM-12PM, Tuesday: 12AM-12PM, Wednesday: 12AM-12PM, Thursday: 12AM-12PM, Friday: 12AM-12PM, Saturday: 12AM-12PM, Sunday: 12AM-12PM",Daily Living & Family Support Services,145.0034843,-37.7438662
Vhcc,Vhcc,"Factory 2, 1523 Sydney Road, Campbellfield, VIC 3061",1300 048 422,info@vhcc.com.au,www.vhcc.au,"Monday: 9AM-5PM, Tuesday: 9AM-5PM, Wednesday: 9AM-5PM, Thursday: 9AM-5PM, Friday: 9AM-5PM",Daily Living & Family Support Services,144.9558444,-37.6804114
Opendoor Ltd,Opendoor - Wantirna South,"2 Capital City Boulevard, Wantirna South, VIC 3152",1800 611 579,disability@opendoor.org.au,www.opendoor.org.au,"Monday: 9AM-5PM, Tuesday: 9AM-5PM, Wednesday: 9AM-5PM, Thursday: 9AM-5PM, Friday: 9AM-5PM",Daily Living & Family Support Services,145.2435961,-37.8701048
Annecto Incorporated,Annecto Incorporated,"Northern Metro Suite 4, Level 2/ 78, Main Street, Greensborough, VIC 3088",03 9386 5686,northern@annecto.org.au,www.annecto.org.au,"Monday: 9AM-5PM, Tuesday: 9AM-5PM, Wednesday: 9AM-5PM, Thursday: 9AM-5PM, Friday: 9AM-5PM, Saturday: 9AM-5PM, Sunday: 9AM-5PM",Daily Living & Family Support Services,145.1048986,-37.7035319
Expression Australia,Expression Australia - Barwon South West,"Shop 4, 96 Pakington St, Geelong West, VIC 3218",03 5221 2602,geelong@expression.com.au,www.expression.com.au,"Monday: 9AM-5PM, Tuesday: 9AM-5PM, Wednesday: 9AM-5PM, Thursday: 9AM-5PM, Friday: 9AM-5PM, Saturday: 9AM-5PM, Sunday: 9AM-5PM",Daily Living & Family Support Services,144.3492346,-38.1378434
Leap In!,Leap in! Sunshine,"Sunshine, Sunshine, VIC 3020",1300 057 878,crew@leapin.com.au,www.leapin.com.au,"Monday: 9AM-5PM, Tuesday: 9AM-5PM, Wednesday: 9AM-5PM, Thursday: 9AM-5PM, Friday: 9AM-5PM",Daily Living & Family Support Services,144.8325721,-37.7880381
Ability Plus Disability Services Pty Ltd,Ability Plus Disability Service,"Unit 5, 74 Thomsons Road, Keilor Park, VIC 3042",03 9555 1150,admin@abilityp.com.au,www.abilityp.com.au,"Monday: 9AM-5PM, Tuesday: 9AM-5PM, Wednesday: 9AM-5PM, Thursday: 9AM-5PM, Friday: 9AM-5PM",Daily Living & Family Support Services,144.8472616,-37.7193324
Future Focus Group Pty Ltd,Future Focus Support Coordination Baysid,"Belvedere Park Sporting Reserve, 151 East Road, Seaford, VIC 3198",1300 202 303,info@futurefocussc.com.au,www.ffsc.com.au,"Monday: 9AM-5PM, Tuesday: 9AM-5PM, Wednesday: 9AM-5PM, Thursday: 9AM-5PM, Friday: 9AM-5PM",Daily Living & Family Support Services,145.1569504,-38.1054152
Distinctive Options,DO Connect Brimbank,"90 Taylors Road, Keilor Downs, VIC 3038",03 9740 7100,aaron.ricciardo@d-o.com.au,www.distinctiveoptions.com.au,"Monday: 9AM-3PM, Tuesday: 9AM-3PM, Wednesday: 9AM-3PM, Thursday: 9AM-3PM, Friday: 9AM-3PM",Daily Living & Family Support Services,144.8054841,-37.7266967
Murray Human Services Inc T/As We Are Vi,Vivid Living - Swan Hill,"2 Harrods Lane, Swan Hill, VIC 3585",03 5032 2170,maree.miliano@wearevivid.org.au,www.wearevivid.org.au,Monday: 9AM-5PM,Daily Living & Family Support Services,143.5649769,-35.3607277
Wintringham,Wintringham Ron Conn,"Ron Conn Nursing Home, 33 Westminster Drive, Avondale Heights, VIC 3034",03 9376 1122,adviceandinfo@wintringham.org.au,www.wintringham.org.au,"Monday: 9AM-5PM, Tuesday: 9AM-5PM, Wednesday: 9AM-5PM, Thursday: 9AM-5PM, Friday: 9AM-5PM",Daily Living & Family Support Services,144.8594182,-37.7648593
Maple Disability Care Pty Ltd,Maple Disability Care,"L 6 85 Queen Street, Melbourne, VIC 3000",0414 657 090,info@mapledisability.care,www.mapledisabilitycare.com.au,"Monday: 9AM-5PM, Tuesday: 9AM-5PM, Wednesday: 9AM-5PM, Thursday: 9AM-5PM, Friday: 9AM-5PM",Daily Living & Family Support Services,144.9611486,-37.8163678
Unidex Healthcare Recruitment,Frontline Human Resources,"29-33 Railway Road, Blackburn, VIC 3130",03 8877 0500,aaronc@frontlinehr.com.au,www.unidexhealthcare.com.au,"Monday: 8AM-5PM, Tuesday: 8AM-5PM, Wednesday: 8AM-5PM, Thursday: 8AM-5PM, Friday: 8AM-5PM",Daily Living & Family Support Services,145.1501463,-37.8196695
Focus Individualised Support Services,Focus Life,"86 Beach Street, Frankston, VIC 3199",03 5981 5100,cashmanf@focuslife.com.au,www.focuslife.com.au,"Monday: 12AM-11PM, Tuesday: 12AM-11PM, Wednesday: 12AM-11PM, Thursday: 12AM-11PM, Friday: 12AM-11PM, Saturday: 12AM-11PM, Sunday: 12AM-11PM",Daily Living & Family Support Services,145.1314747,-38.1430165
Super Community Care Pty Ltd,Delia Court,"9 Delia Court, Dandenong North, VIC 3175",0434 104 447,info@supercommunitycare.com.au,www.supercommunitycare.com.au,Monday: 9AM-5PM,Daily Living & Family Support Services,145.2137695,-37.9586199
Northern Disability Service Pty Ltd,NORTHERN DISABILITY DS,"Ormond Boulevard, Bundoora, VIC 3083",03 9457 7412,info@northds.org,northds.org,"Monday: 9AM-5PM, Tuesday: 9AM-5PM, Wednesday: 9AM-5PM, Thursday: 9AM-5PM, Friday: 9AM-5PM",Daily Living & Family Support Services,145.0727542,-37.6793639
Connecting2australia,Work Connections - Thomastown,"49 Latitude Bvd, Thomastown, VIC 3074",1300 111 212,info@c2a.org.au,www.connecting2australia.org.au,"Monday: 8AM-3PM, Tuesday: 8AM-3PM, Wednesday: 8AM-3PM, Thursday: 8AM-3PM, Friday: 8AM-3PM",Daily Living & Family Support Services,145.0197887,-37.6847945
Opendoor Ltd,Opendoor - Melton,"51 Bakery Square, Melton, VIC 3337",1800 611 579,disability@opendoor.org.au,www.opendoor.org.au,"Monday: 9AM-5PM, Tuesday: 9AM-5PM, Wednesday: 9AM-5PM, Thursday: 9AM-5PM, Friday: 9AM-5PM",Daily Living & Family Support Services,144.5837804,-37.6840517
New Ability Services Pty Ltd,New Ability Services,"50 Grenache Road, Wollert, VIC 3750",0434 006 000,info@nasabilityservices.com.au,www.newabilityservices.com.au,"Monday: 9AM-5PM, Tuesday: 9AM-5PM, Wednesday: 9AM-5PM, Thursday: 9AM-5PM, Friday: 9AM-5PM",Daily Living & Family Support Services,144.9968892,-37.6010377
Respect Group Limited,Respect Group Limited,"Alcheringa Hostel, 2 Boree Drive, Swan Hill, VIC 3585",03 5032 9169,jdevereux@alcheringahostel.com.au,www.respect.com.au,"Monday: 12AM-11PM, Tuesday: 12AM-11PM, Wednesday: 12AM-11PM, Thursday: 12AM-11PM, Friday: 12AM-11PM, Saturday: 12AM-11PM, Sunday: 12AM-11PM",Daily Living & Family Support Services,143.5332871,-35.3366753
Inhab Australia,Inhab Australia,"Unit 3, 368 Latrobe Terrace, Newtown, VIC 3220",1300 786 022,info@inhab.com.au,www.inhab.com.au,"Monday: 8AM-5PM, Tuesday: 8AM-5PM, Wednesday: 8AM-5PM, Thursday: 8AM-5PM, Friday: 8AM-5PM",Daily Living & Family Support Services,144.3507799,-38.1556282
Independence Care Inc.,Independence Care Inc,"Waterman Workspaces, Independence Care,, 1/3 Janefield Dr, Bundoora, VIC 3083",03 9191 5111,ceo@independencecare.org.au,www.independececare.org.au,"Monday: 9AM-5PM, Tuesday: 9AM-5PM, Wednesday: 9AM-5PM, Thursday: 9AM-5PM, Friday: 9AM-5PM, Saturday: 9AM-5PM, Sunday: 9AM-5PM",Daily Living & Family Support Services,145.0700788,-37.6819736
Alpha Care Disability Services Pty Ltd,Alpha Care Disability Services,"124 Rokewood Crescent, Meadow Heights, VIC 3048",0450 719 100,alphacaredsp@gmail.com,alphacaredsp.com,"Monday: 9AM-5PM, Tuesday: 9AM-5PM, Wednesday: 9AM-5PM, Thursday: 9AM-5PM, Friday: 9AM-5PM",Daily Living & Family Support Services,144.9143678,-37.6531182
Connect You 2 Pty Ltd.,Connect You 2,"120 Ballarat Road, Hamlyn Heights, VIC 3215",0498 513 110,peter@connectyou2.com.au,www.connectyou2.com.au/,"Monday: 9AM-5PM, Tuesday: 9AM-5PM, Wednesday: 9AM-5PM, Thursday: 9AM-5PM, Friday: 9AM-5PM",Daily Living & Family Support Services,144.3316093,-38.1179519
Independence Australia Community Solutio,Independence Australia Community Solutio,"Unit 1, 9 Ashley Street, Braybrook, VIC 3019",1300 032 774,service.enquiry@iagroup.org.au,https://www.independenceaustralia.com.au/,Monday: 9AM-5PM,Daily Living & Family Support Services,144.861765,-37.7952114
Multicap Limited,Multicap Melbourne Canterbury,"2 Kendall Street, Canterbury, VIC 3126",1300 135 886,customerservice@multicap.org.au,www.multicap.org.au,"Monday: 9AM-5PM, Tuesday: 9AM-5PM, Wednesday: 9AM-5PM, Thursday: 9AM-5PM, Friday: 9AM-5PM",Daily Living & Family Support Services,145.07852,-37.8248873
Kazz & Co Pty. Ltd,Kazz & Co,"208 Strickland Road, Strathdale, VIC 3550",0437 735 016,kazz@kazzco.coma.u,www.kazzco.com.au,"Monday: 12AM-12PM, Tuesday: 12AM-12PM, Wednesday: 12AM-12PM, Thursday: 12AM-12PM, Friday: 12AM-12PM, Saturday: 12AM-12PM, Sunday: 12AM-12PM",Daily Living & Family Support Services,144.3240401,-36.7543909
Ability Plus Disability Services Pty Ltd,Ability Plus Disability Services Pty Ltd,"47a Wangara Road, Cheltenham, VIC 3192",03 9555 1150,admin@abilityp.com.au,www.abilityp.com.au,"Monday: 9AM-5PM, Tuesday: 9AM-5PM, Wednesday: 9AM-5PM, Thursday: 9AM-5PM, Friday: 9AM-5PM",Daily Living & Family Support Services,145.0355018,-37.9581989
Connecting2australia,Work Connections - Bendigo,"33 Gittins Drive, Strathdale, VIC 3550",1300 111 212,info@c2a.org.au,www.connecting2australia.org.au,"Monday: 8AM-3PM, Tuesday: 8AM-3PM, Wednesday: 8AM-3PM, Thursday: 8AM-3PM, Friday: 8AM-3PM",Daily Living & Family Support Services,144.3145466,-36.7560859
Rycare In Home,Rycare In Home,"Level 1, 158 Ludstone Street, Hampton, VIC 3188",0431 698 768,admin@rycare.org,www.rycare.org,"Monday: 9AM-6PM, Tuesday: 9AM-6PM, Wednesday: 9AM-6PM, Thursday: 9AM-6PM, Friday: 9AM-6PM, Saturday: 9AM-6PM, Sunday: 9AM-6PM",Daily Living & Family Support Services,145.0199856,-37.935396
Hosanna Care Support Pty Ltd,Hosanna Care Support,"Unit 2, 70 Riverside Avenue, Werribee, VIC 3030",0478 732 471,messie@hosannacaresupport.com.au,hosannacaresupport.com.au,Monday: 8AM-4PM,Daily Living & Family Support Services,144.6589441,-37.9173219
Knoxbrooke Incorporated,Yarra View Bushland - Wandin,"Cormilio Drive, Wandin North, VIC 3139",03 9737 0400,scott.bucklandb@knoxbrooke.com.au,www.knoxbrooke.com.au,"Monday: 8AM-3PM, Tuesday: 8AM-3PM, Wednesday: 8AM-3PM, Thursday: 8AM-3PM, Friday: 8AM-3PM",Daily Living & Family Support Services,145.4140043,-37.7611486
Supportably & 360 Support Coordination,Supportably & 360 Support Coordination,"1 Janefield Drive, Bundoora, VIC 3083",0406 552 019,support@360sc.com.au,"supportably.com.au, 360sc.com.au","Monday: 9AM-5PM, Tuesday: 9AM-5PM, Wednesday: 9AM-5PM, Thursday: 9AM-5PM, Friday: 9AM-5PM",Daily Living & Family Support Services,145.069628,-37.6824691
The Personnel Group Ltd,The Personnel Group,"24 Ely Street, Wangaratta, VIC 3677",1300 874 000,hello@personnelgroup.com.au,www.personnelgroup.com.au,"Monday: 9AM-4PM, Tuesday: 9AM-4PM, Wednesday: 9AM-4PM, Thursday: 9AM-4PM, Friday: 9AM-4PM",Daily Living & Family Support Services,146.3264194,-36.3565349
Melbourne Health & Care Services,Melbourne Health & Care Services Sunshin,"14a Clarke Street, Sunshine, VIC 3020",1800 849 062,melbournehealthcareservices@gmail.com,https://www.melbournehealthcare.com.au/,"Monday: 9AM-5PM, Tuesday: 9AM-5PM, Wednesday: 9AM-5PM, Thursday: 9AM-5PM, Friday: 9AM-5PM",Daily Living & Family Support Services,144.8335454,-37.785192
Estia Investments Pty. Ltd.,Estia Health Bannockburn,"Estia Health Bannockburn, 71 Mcphillips Road, Bannockburn, VIC 3331",03 5281 1991,office@bannockburnacf.com.au,https://www.estiahealth.com.au/,"Monday: 12AM-11PM, Tuesday: 12AM-11PM, Wednesday: 12AM-11PM, Thursday: 12AM-11PM, Friday: 12AM-11PM, Saturday: 12AM-11PM, Sunday: 12AM-11PM",Daily Living & Family Support Services,144.1651163,-38.037239
Impactcare Pty Ltd,IMPACTCARE PTY LTD,"25 Pitfield Avenue, Cranbourne East, VIC 3977",0422 751 679,larryoladiji@gmail.com,www.impactcaredisability.com.au,"Monday: 9AM-5PM, Tuesday: 9AM-5PM, Wednesday: 9AM-5PM, Thursday: 9AM-5PM, Friday: 9AM-5PM",Daily Living & Family Support Services,145.2989338,-38.0929457
Idv Inc.,IDV Step By Step Youth Transition,"Unit 1, 25 Grimshaw Street, Greensborough, VIC 3088",03 9450 0750,lmills@idv.com.au,www.thebridgeinc.org.au,"Monday: 9AM-4PM, Tuesday: 9AM-4PM, Wednesday: 9AM-4PM, Thursday: 9AM-4PM, Friday: 9AM-4PM",Daily Living & Family Support Services,145.1066936,-37.7052466
Opendoor Ltd,Opendoor - Ringwood,"41 Ringwood Street, Ringwood, VIC 3134",1800 611 579,disability@opendoor.org.au,www.opendoor.org.au,"Monday: 9AM-5PM, Tuesday: 9AM-5PM, Wednesday: 9AM-5PM, Thursday: 9AM-5PM, Friday: 9AM-5PM",Daily Living & Family Support Services,145.2271273,-37.8120898
Wintringham,Wintringham-Eunice Seddon Home,"Wintringham Eunice Seddon, 32 Potter Street, Dandenong, VIC 3175",03 9376 1122,adviceandinfo@wintrngham.org.au,www.wintringham.org.au,"Monday: 9AM-5PM, Tuesday: 9AM-5PM, Wednesday: 9AM-5PM, Thursday: 9AM-5PM, Friday: 9AM-5PM",Daily Living & Family Support Services,145.206467,-37.981547
Supreme Care,SUPREME CARE,"12 Clarke Street, Sunshine, VIC 3020",1300 611 311,info@spcare.com.au,www.spcare.com.au,"Monday: 8AM-6PM, Tuesday: 8AM-6PM, Wednesday: 8AM-6PM, Thursday: 8AM-6PM, Friday: 8AM-6PM, Saturday: 8AM-6PM, Sunday: 8AM-6PM",Daily Living & Family Support Services,144.8333354,-37.7861474
Alpha Nursing,Alpha Plan Management,"8 Centreway, Keilor East, VIC 3033",1300 290 602,info@alphandis.com.au,www.alphanursing.com.au,"Monday: 9AM-5PM, Tuesday: 9AM-5PM, Wednesday: 9AM-5PM, Thursday: 9AM-5PM, Friday: 9AM-5PM, Saturday: 9AM-5PM, Sunday: 9AM-5PM",Daily Living & Family Support Services,144.8671582,-37.7322583
Freawein Care Services Pty Ltd,Freawein Care Services,"17 Holiday Court, Truganina, VIC 3029",0424 189 979,info@freaweincare.com.au,freaweincare.com.au,"Monday: 9AM-5PM, Tuesday: 9AM-5PM, Wednesday: 9AM-5PM, Thursday: 9AM-5PM, Friday: 9AM-5PM, Saturday: 10AM-1PM, Sunday: 10AM-1PM",Daily Living & Family Support Services,144.7239778,-37.8558258
Disability Connect Victoria,Disability Connect Victoria,"Shop 1, 64 Cunninghame Street, Sale, VIC 3850",03 9052 4470,info@dcvic.com.au,www.dcvic.com.au,"Monday: 9AM-5PM, Tuesday: 9AM-5PM, Wednesday: 9AM-5PM, Thursday: 9AM-5PM, Friday: 9AM-5PM",Daily Living & Family Support Services,147.0644023,-38.1076441
Innovative Quality Care,Innovative Quality Care,"15 Bulkara Avenue, Forest Hill, VIC 3131",03 7009 9050,hello@iqc.net.au,www.iqc.net.au,"Monday: 9AM-5PM, Tuesday: 9AM-5PM, Wednesday: 9AM-5PM, Thursday: 9AM-5PM, Friday: 9AM-5PM, Saturday: 9AM-5PM, Sunday: 9AM-5PM",Daily Living & Family Support Services,145.1687369,-37.8497614
Serenity Mode,Serenity Mode,"15 Bourke Road, Cranbourne, VIC 3977",0456 461 490,sheetu.partola@serenitymode.com,www.serenitymode.com,Monday: 9AM-5PM,Daily Living & Family Support Services,145.2739623,-38.0982629
Beyond Choice,Beyond Choice,"132 Alcock Road, Truganina, VIC 3029",1800 955 556,info@beyondchoice.com.au,www.beyondchoice.com.au,"Monday: 8AM-6PM, Tuesday: 8AM-6PM, Wednesday: 8AM-6PM, Thursday: 8AM-6PM, Friday: 8AM-6PM, Saturday: 10AM-4PM",Daily Living & Family Support Services,144.7252357,-37.8292953
I-Help Disability Services Pty Ltd,I-Help Disability Services,"84-90 Hotham Street, Preston, VIC 3072",0432 194 105,info@i-helpdisability.com.au,i-helpdisability.com.au,"Monday: 9AM-5PM, Tuesday: 9AM-5PM, Wednesday: 9AM-5PM, Thursday: 9AM-5PM, Friday: 9AM-5PM, Saturday: 9AM-5PM, Sunday: 9AM-5PM",Daily Living & Family Support Services,145.0083245,-37.7468634
East Wimmera Health Service,East Wimmera Health Service Donald,"Donald Hospital, 1 Aitken Avenue, Donald, VIC 3480",03 5477 2149,ndis@ewhs.org.au,www.ewhs.org.au,"Monday: 9AM-5PM, Tuesday: 9AM-5PM, Wednesday: 9AM-5PM, Thursday: 9AM-5PM, Friday: 9AM-5PM, Saturday: 9AM-5PM, Sunday: 9AM-5PM",Daily Living & Family Support Services,142.9751068,-36.3651726
Diamond Care Victoria Pty Ltd,Diamond Care Victoria,"10 Sundaze Street, Clyde North, VIC 3978",1300 765 559,support@diamondcarevictoria.com.au,www.diamondcarevictoria.com.au,"Monday: 9AM-5PM, Tuesday: 9AM-5PM, Wednesday: 9AM-5PM, Thursday: 9AM-5PM, Friday: 9AM-5PM",Daily Living & Family Support Services,145.3466294,-38.0820014
Better Lives Support Services,Better Lives Support Services,"44a George Street, Moe, VIC 3825",0493 072 586,contact@blss.net.au,https://betterlivessupportservices.com.au/,"Monday: 9AM-3PM, Tuesday: 9AM-3PM, Wednesday: 9AM-3PM, Thursday: 9AM-9PM, Friday: 9AM-12PM",Daily Living & Family Support Services,146.2614533,-38.1761579
Respect Group Limited,Cohuna Village,"38 Augustine Street, Cohuna, VIC 3568",03 5456 2338,executive@respect.com.au,www.respect.com.au,"Monday: 12AM-11PM, Tuesday: 12AM-11PM, Wednesday: 12AM-11PM, Thursday: 12AM-11PM, Friday: 12AM-11PM, Saturday: 12AM-11PM, Sunday: 12AM-11PM",Daily Living & Family Support Services,144.2154123,-35.7998062
Idv Inc.,Chaucer Cresent,"21 Chaucer Crescent, Bundoora, VIC 3083",03 9466 9777,cwilson@idv.com.au,www.thebridgeinc.org.au,"Monday: 12AM-11PM, Tuesday: 12AM-11PM, Wednesday: 12AM-11PM, Thursday: 12AM-11PM, Friday: 12AM-11PM, Saturday: 12AM-11PM, Sunday: 12AM-11PM",Daily Living & Family Support Services,145.0640552,-37.6963458
Estia Investments Pty. Ltd.,Estia Health Melton South,"Estia Health Melton South, 34 Brooklyn Road, Melton South, VIC 3338",1300 682 833,admissions@estiahealth.com.au,https://www.estiahealth.com.au/,"Monday: 12AM-11PM, Tuesday: 12AM-11PM, Wednesday: 12AM-11PM, Thursday: 12AM-11PM, Friday: 12AM-11PM, Saturday: 12AM-11PM, Sunday: 12AM-11PM",Daily Living & Family Support Services,144.572261,-37.702182
Leap In!,Leap in! Bentleigh,"Bentleigh, Bentleigh, VIC 3204",1300 057 878,crew@leapin.com.au,www.leapin.com.au,"Monday: 9AM-5PM, Tuesday: 9AM-5PM, Wednesday: 9AM-5PM, Thursday: 9AM-5PM, Friday: 9AM-5PM",Daily Living & Family Support Services,145.0417166,-37.9188435
Opendoor Ltd,Opendoor - Craigieburn,"D00-07, Craigieburn Central, 340 Craigieburn Road, Craigieburn, VIC 3064",1800 611 579,disability@opendoor.org.au,www.opendoor.org.au,"Monday: 9AM-5PM, Tuesday: 9AM-5PM, Wednesday: 9AM-5PM, Thursday: 9AM-5PM, Friday: 9AM-5PM",Daily Living & Family Support Services,144.9133132,-37.5926325
Live Life Connect Group,Live Life Connect Group,"48 Easey Street, Collingwood, VIC 3066",0402 232 933,admin@ablelink.com.au,www.onside.com.au,"Monday: 9AM-5PM, Tuesday: 9AM-5PM, Wednesday: 9AM-5PM, Thursday: 9AM-5PM, Friday: 9AM-5PM",Daily Living & Family Support Services,144.9864298,-37.797572
Glady And Co Mental Health Support,Boronia Hub,"166 Boronia Road, Boronia, VIC 3155",1300 866 474,care@gladyandco.com.au,www.gladyandco.com.au,"Monday: 9AM-5PM, Tuesday: 9AM-5PM, Wednesday: 9AM-5PM, Thursday: 9AM-5PM, Friday: 9AM-5PM, Saturday: 12PM-5PM",Daily Living & Family Support Services,145.2810888,-37.8626524
Step By Step Disability,Step by Step Disability Services,"38 Gasoline Way, Craigieburn, VIC 3064",0449 580 095,info@stepbystepdisability.com.au,www.stepbystepdisability.com.au,"Monday: 9AM-5PM, Tuesday: 9AM-5PM, Wednesday: 9AM-5PM, Thursday: 9AM-5PM, Friday: 9AM-5PM",Daily Living & Family Support Services,144.952731,-37.6164208
Melbourne Health & Care Services,Melbourne Health & Care Services Noble P,"51-53 Buckley Street, Noble Park, VIC 3174",1800 849 062,melbournehealthcareservices@gmail.com,https://www.melbournehealthcare.com.au/,"Monday: 9AM-6PM, Tuesday: 9AM-6PM, Wednesday: 9AM-6PM, Thursday: 9AM-6PM, Friday: 9AM-6PM, Saturday: 9AM-1PM",Daily Living & Family Support Services,145.174672,-37.96803
Leap In!,Leap in! Niddrie,"Niddrie, Niddrie, VIC 3042",1300 057 878,crew@leapin.com.au,www.leapin.com.au,"Monday: 9AM-5PM, Tuesday: 9AM-5PM, Wednesday: 9AM-5PM, Thursday: 9AM-5PM, Friday: 9AM-5PM",Daily Living & Family Support Services,144.8858274,-37.7409833
Baptcare Ltd,Baptcare - St Hilary's Community,"16 Elgin Street, Morwell, VIC 3840",03 5120 3000,djames@baptcare.org.au,www.baptcare.org.au,"Monday: 12AM-11PM, Tuesday: 12AM-11PM, Wednesday: 12AM-11PM, Thursday: 12AM-11PM, Friday: 12AM-11PM, Saturday: 12AM-11PM, Sunday: 12AM-11PM",Daily Living & Family Support Services,146.3910788,-38.2392536
Corpus Christi Community Greenvale Incor,Corpus Christi Community,"Corpus Christi Community, 855 Mickleham Road, Greenvale, VIC 3059",03 9070 8300,corpuscc@corpuscc.org.au,https://corpuscc.org.au,"Monday: 12AM-11PM, Tuesday: 12AM-11PM, Wednesday: 12AM-11PM, Thursday: 12AM-11PM, Friday: 12AM-11PM, Saturday: 12AM-11PM, Sunday: 12AM-11PM",Daily Living & Family Support Services,144.8806867,-37.6369566
Inspire Support Pty Ltd,Inspire Support,"Suite 1, 9 St Cedars Grove, Lake Gardens, VIC 3355",03 5334 2637,info@inspiresupport.com.au,www.inspiresupport.com.au,"Monday: 9AM-5PM, Tuesday: 9AM-5PM, Wednesday: 9AM-5PM, Thursday: 9AM-5PM, Friday: 9AM-5PM, Saturday: 9AM-5PM, Sunday: 9AM-5PM",Daily Living & Family Support Services,143.8172365,-37.5450192
Supportably & 360 Support Coordination,Supportably & 360 Support Coordination,"5 Daybook Terrace, Donnybrook, VIC 3064",0406 552 019,accounts@supportably.com.au,"supportably.com.au, 360sc.com.au","Monday: 8AM-6PM, Tuesday: 8AM-6PM, Wednesday: 8AM-6PM, Thursday: 8AM-6PM, Friday: 8AM-6PM",Daily Living & Family Support Services,145.0004178,-37.5336111
Andersen & Co,Andersen & Co,"8 Gell Street, Bacchus Marsh, VIC 3340",0458 442 720,info@andersenco.com.au,www.andersenco.com.au,"Monday: 8AM-5PM, Tuesday: 8AM-5PM, Wednesday: 8AM-5PM, Thursday: 8AM-5PM, Friday: 8AM-5PM",Daily Living & Family Support Services,144.4377102,-37.6753018
Melbourne Health & Care Services,Melbourne Health & Care Services Werribe,"75-79 Watton Street, Werribee, VIC 3030",1800 849 062,melbournehealthcareservices@gmail.com,https://www.melbournehealthcare.com.au/,"Monday: 9AM-5PM, Tuesday: 9AM-5PM, Wednesday: 9AM-5PM, Thursday: 9AM-5PM, Friday: 9AM-5PM",Daily Living & Family Support Services,144.6614919,-37.9016777
Regis Aged Care Pty Ltd,Regis Fawkner,"Karingal Manor Nrs Hm, 101 Major Road, Fawkner, VIC 3060",03 9359 9055,advice@regis.com.au,www.regis.com.au,"Monday: 12AM-11PM, Tuesday: 12AM-11PM, Wednesday: 12AM-11PM, Thursday: 12AM-11PM, Friday: 12AM-11PM, Saturday: 12AM-11PM, Sunday: 12AM-11PM",Daily Living & Family Support Services,144.96416,-37.7069366
Defined Community Care Pty Ltd,Linden Tree Way,"57 Linden Tree Way, Cranbourne North, VIC 3977",0431 107 301,info@definedcommunitycare.com.au,www.definedcommunitycare.com.au,"Monday: 12AM-11PM, Tuesday: 12AM-11PM, Wednesday: 12AM-11PM, Thursday: 12AM-11PM, Friday: 12AM-11PM, Saturday: 12AM-11PM, Sunday: 12AM-11PM",Daily Living & Family Support Services,145.3206445,-38.08553
Estia Investments Pty. Ltd.,Estia Health Victoria Heights,"Estia Hlth Victoria Hghts, 41 Victoria Street, Ironbark, VIC 3550",03 5443 2731,mark.brandon@estiahealth.com.au,https://www.estiahealth.com.au/,"Monday: 12AM-11PM, Tuesday: 12AM-11PM, Wednesday: 12AM-11PM, Thursday: 12AM-11PM, Friday: 12AM-11PM, Saturday: 12AM-11PM, Sunday: 12AM-11PM",Daily Living & Family Support Services,144.265686,-36.7510833
J-Care Support Services Pty Ltd,J-Care Support Services Main office,"435 Nepean Highway, Frankston, VIC 3199",0438 755 361,info@jcaresupportservices.com.au,https://jcaresupportservices.com.au/,"Monday: 9AM-5PM, Tuesday: 9AM-5PM, Wednesday: 9AM-5PM, Thursday: 9AM-5PM, Friday: 9AM-5PM, Saturday: 9AM-5PM, Sunday: 9AM-5PM",Daily Living & Family Support Services,145.1217651,-38.1423912
Cnc Disability Support Services Pty Ltd,Country n Coast Disability Support Servi,"14 Stanley Street, Wodonga, VIC 3690",02 5005 7290,jodie@cncdisabilities.com.au,https://www.cncdisabilities.com.au/,"Monday: 9AM-5PM, Tuesday: 9AM-5PM, Wednesday: 9AM-5PM, Thursday: 9AM-5PM, Friday: 9AM-5PM",Daily Living & Family Support Services,146.8866033,-36.122194
Polcare,Polcare Rowville HP,"1325 Stud Road, Rowville, VIC 3178",0433 923 012,katherine.mistarz@pccv.org.au,www.polcare.org.au,Monday: 9AM-5PM,Daily Living & Family Support Services,145.2325235,-37.9382837
Wellways Australia Limited,Wellways - Wonthaggi,"99 Graham Street, Wonthaggi, VIC 3995",1300 111 400,cdsnational@wellways.org,www.wellways.org,"Monday: 9AM-5PM, Tuesday: 9AM-5PM, Wednesday: 9AM-5PM, Thursday: 9AM-5PM, Friday: 9AM-5PM",Daily Living & Family Support Services,145.5920188,-38.6061804
Monash Care Disability Services,Monash Care Disability Services,"Unit 3, 4 Apple Court, Doveton, VIC 3177",1300 050 051,shawky@agilityhomecare.com.au,www.monashcare.com.au,"Monday: 8AM-6PM, Tuesday: 8AM-6PM, Wednesday: 8AM-6PM, Thursday: 8AM-6PM, Friday: 8AM-6PM, Saturday: 8AM-6PM, Sunday: 8AM-6PM",Daily Living & Family Support Services,145.2401918,-37.9867637
Diverse Culture Care,Diverse Culture Care,"3 Stonewood Circuit, Hadfield, VIC 3046",0422 691 483,diverseculturecare@outlook.com,diverseculturecare.com.au,"Monday: 9AM-5PM, Tuesday: 9AM-5PM, Wednesday: 9AM-5PM, Thursday: 9AM-5PM, Friday: 9AM-5PM",Daily Living & Family Support Services,144.9460277,-37.7120134
Beeya Care Pty Ltd,Beeya Care,"49 Jacana Avenue, Templestowe Lower, VIC 3107",0416 485 761,support@beeyacare.com.au,https://www.beeyacare.com.au/,"Monday: 8AM-8PM, Tuesday: 8AM-8PM, Wednesday: 8AM-8PM, Thursday: 8AM-8PM, Friday: 8AM-8PM, Saturday: 8AM-8PM, Sunday: 8AM-8PM",Daily Living & Family Support Services,145.1023688,-37.7584036
Carepro Disability Service,Carepro Disability Service,"36a Fordson Road, Campbellfield, VIC 3061",03 9492 6982,admin@careprods.com.au,www.careprods.com.au,"Monday: 9AM-5PM, Tuesday: 9AM-5PM, Wednesday: 9AM-5PM, Thursday: 9AM-5PM, Friday: 9AM-5PM, Saturday: 9AM-2PM",Daily Living & Family Support Services,144.9592828,-37.6748053
My Choice Support Network,Day Program,"2 Waterview Drive, Mernda, VIC 3754",0409 790 716,isabella@mychoicesupport.com.au,www.mychoicesupport.com.au,Monday: 9AM-5PM,Daily Living & Family Support Services,145.0927768,-37.6126939
Alpine Way Disability Services Pty Ltd,Alpine Way House,"265 Canterbury Road, Bayswater North, VIC 3153",03 9728 5582,58alpineway@alpinewayds.com.au,alpinewayds.com.au,"Monday: 12AM-11PM, Tuesday: 12AM-11PM, Wednesday: 12AM-11PM, Thursday: 12AM-11PM, Friday: 12AM-11PM, Saturday: 12AM-11PM, Sunday: 12AM-11PM",Daily Living & Family Support Services,145.2742381,-37.8313687
Merakis Enterprises Pty Ltd,Carrum Downs Private Nursing Home,"Nursing Home And Community Centre, 1135 Frankston-Dandenong Road, Carrum Downs, VIC 3201",03 9782 1411,merakisenterprises@hotmail.com,meracare.com.au,"Monday: 12AM-11PM, Tuesday: 12AM-11PM, Wednesday: 12AM-11PM, Thursday: 12AM-11PM, Friday: 12AM-11PM, Saturday: 12AM-11PM, Sunday: 12AM-11PM",Daily Living & Family Support Services,145.1802176,-38.0916977
Canopy Care,SJB support & mentoring coach,"27 Bower Vine Road, Junction Village, VIC 3977",0430 951 377,lindsay@canopy-care.com.au,https://canopy-care.com.au/,"Monday: 9AM-4PM, Tuesday: 9AM-4PM, Wednesday: 9AM-4PM, Thursday: 9AM-4PM, Friday: 9AM-4PM, Saturday: 7AM-7PM, Sunday: 7AM-7PM",Daily Living & Family Support Services,145.2853519,-38.1399161
Hosanna Care Support Pty Ltd,Hosanna Care Support,"Unit 4, 110 Fairbairn Road, Sunshine West, VIC 3020",0411 418 754,ferdinand@hosannacaresupport.com.au,hosannacaresupport.com.au,"Monday: 9AM-5PM, Tuesday: 9AM-5PM, Wednesday: 9AM-5PM, Thursday: 9AM-5PM, Friday: 9AM-5PM, Saturday: 10AM-2PM",Daily Living & Family Support Services,144.8201282,-37.8044988
East Sun Care,East Sun Care,"Suite 8 Level 1, 255 Whitehorse Road, Balwyn, VIC 3103",03 9877 6099,flora@winexaccountants.com.au,www.eastsuncare.com.au,"Monday: 9AM-5PM, Tuesday: 9AM-5PM, Wednesday: 9AM-5PM, Thursday: 9AM-5PM, Friday: 9AM-5PM",Daily Living & Family Support Services,145.076908,-37.8121385
Estia Investments Pty. Ltd.,Estia Health Heidelberg West,"Estia Health Heidelberg W, 413 Waterdale Road, Heidelberg West, VIC 3081",1300 682 833,mark.brandon@estiahealth.com.au,https://www.estiahealth.com.au/,"Monday: 12AM-11PM, Tuesday: 12AM-11PM, Wednesday: 12AM-11PM, Thursday: 12AM-11PM, Friday: 12AM-11PM, Saturday: 12AM-11PM, Sunday: 12AM-11PM",Daily Living & Family Support Services,145.046022,-37.747966
Simply Helping North East,Simply Helping North East,"Suite C2, Level 1 459 Toorak Rd, Toorak, VIC 3142",03 9296 2121,nerostering@simplyhelping.com.au,https://simplyhelping.com.au,"Monday: 9AM-5PM, Tuesday: 9AM-5PM, Wednesday: 9AM-5PM, Thursday: 9AM-5PM, Friday: 9AM-5PM",Daily Living & Family Support Services,145.0082668,-37.8406368
Zefi Services Pty Ltd,Zefi Services,"Unit 3, 33 Commercial Drive, Thomastown, VIC 3074",0417 308 750,info@zefiservices.com.au,zefiservices.com.au,"Monday: 9AM-5PM, Tuesday: 9AM-5PM, Wednesday: 9AM-5PM, Thursday: 9AM-5PM, Friday: 9AM-5PM",Daily Living & Family Support Services,145.0418299,-37.6905979
Annecto Incorporated,Front Door Recycling,"2a Michaels Drive, Alfredton, VIC 3350",03 5366 3000,yourchoice@merrimu.org,www.annecto.org.au,"Monday: 8AM-4PM, Tuesday: 8AM-4PM, Wednesday: 8AM-4PM, Thursday: 8AM-4PM, Friday: 8AM-4PM, Saturday: 9AM-5PM, Sunday: 9AM-5PM",Daily Living & Family Support Services,143.8085735,-37.5687517
Home Care Relief,Home Care Relief,"43 Bodnat Street, Truganina, VIC 3029",0421 841 417,advancedagecareplus@gmail.com,https://homecarerelief.com.au/,"Monday: 12AM-11PM, Tuesday: 12AM-11PM, Wednesday: 12AM-11PM, Thursday: 12AM-11PM, Friday: 12AM-11PM, Saturday: 12AM-11PM, Sunday: 12AM-11PM",Daily Living & Family Support Services,144.7442286,-37.8480908
Elite Life Care Pty Ltd,Elite Life Care,"9 Church Street, Traralgon, VIC 3844",03 5176 2653,admin@elitelifecare.com.au,www.elitelifecare.com.au,"Monday: 9AM-5PM, Tuesday: 9AM-5PM, Wednesday: 9AM-5PM, Thursday: 9AM-5PM, Friday: 9AM-5PM",Daily Living & Family Support Services,146.5347749,-38.1982949
Multicap Limited,Multicap Melbourne HUB,"48 Blackburn Road, Blackburn, VIC 3130",1300 135 886,customerservice@multicap.org.au,www.multicap.org.au,"Monday: 9AM-5PM, Tuesday: 9AM-5PM, Wednesday: 9AM-5PM, Thursday: 9AM-5PM, Friday: 9AM-5PM",Daily Living & Family Support Services,145.1521131,-37.8232012
People's First Choice Australia,People's First Choice Australia,"33 Merrystowe Way, Harkness, VIC 3337",0413 548 655,manny@peoplesfirstchoice.com.au,https://www.pfca.com.au/,"Monday: 9AM-5PM, Tuesday: 9AM-5PM, Wednesday: 9AM-5PM, Thursday: 9AM-5PM, Friday: 9AM-5PM, Saturday: 9AM-5PM, Sunday: 9AM-5PM",Daily Living & Family Support Services,144.5448835,-37.6709004
Southern Stay Disability Services Incorp,Southern Stay Disability Services Incorp,"46 Brown Street, Hamilton, VIC 3300",03 5572 1028,admin@southernstay.org.au,www.southernstay.org.au,"Monday: 8AM-5PM, Tuesday: 8AM-5PM, Wednesday: 8AM-5PM, Thursday: 8AM-5PM, Friday: 8AM-5PM",Daily Living & Family Support Services,142.0264639,-37.7438916
Mambourin Enterprises,Mambourin - MBS Derrimut 3,"103-107 Derrimut Dr, Derrimut, VIC 3026",03 9731 9200,contact@mambourin.org,www.mambourin.org,"Monday: 8AM-4PM, Tuesday: 8AM-4PM, Wednesday: 8AM-4PM, Thursday: 8AM-4PM, Friday: 8AM-4PM",Daily Living & Family Support Services,144.7517596,-37.8075584
Carers Network Victoria,Carers Network Bendigo Office,"132 Water Street, Bendigo, VIC 3550",03 8488 9982,bendigo@carersnetwork.com.au,www.carersnetwork.com.au,Monday: 9AM-5PM,Daily Living & Family Support Services,144.2828655,-36.7520303
George Gray Centre Inc,George Gray Centre Inc,"443 Raymond Street, Sale, VIC 3850",03 5147 2221,reception@georgegray.org.au,www.georgegray.org.au,"Monday: 8AM-4PM, Tuesday: 8AM-4PM, Wednesday: 8AM-4PM, Thursday: 8AM-4PM, Friday: 8AM-4PM",Daily Living & Family Support Services,147.0651678,-38.1040727
Integrated Care Disability Support Servi,Integrated Care Disability Support Servi,"Unit 1510e, 888 Collins Street, Docklands, VIC 3008",0451 990 370,cuthbertdaniels@gmail.com,www.integratedcss.com.au,"Monday: 9AM-5PM, Tuesday: 9AM-5PM, Wednesday: 9AM-5PM, Thursday: 9AM-5PM, Friday: 9AM-5PM",Daily Living & Family Support Services,144.9419986,-37.8205623
Craigcare,Craigcare Mornington,"Craigcare Nursing Home, 688 Nepean Highway, Mount Martha, VIC 3934",03 5974 6000,craigcare@craigcare.com.au,https://craigcare.com.au,"Monday: 12AM-11PM, Tuesday: 12AM-11PM, Wednesday: 12AM-11PM, Thursday: 12AM-11PM, Friday: 12AM-11PM, Saturday: 12AM-11PM, Sunday: 12AM-11PM",Daily Living & Family Support Services,145.0391164,-38.2525439
Sincerity Support Services (Vic) Pty Ltd,Sincerity Support Services (Vic),"34 Le Page Run, South Morang, VIC 3752",0467 807 603,admin@sinceritysupportservices.com.au,www.sinceritysupportservices.com.au,"Monday: 6AM-8PM, Tuesday: 6AM-8PM, Wednesday: 6AM-8PM, Thursday: 6AM-8PM, Friday: 6AM-8PM, Saturday: 6AM-8PM, Sunday: 6AM-8PM",Daily Living & Family Support Services,145.1033607,-37.6214859
Nazareth Care,Nazareth House Ballarat,"Nazareth House - Ballarat, 218 Mill Street, Lake Wendouree, VIC 3350",03 5329 5100,k.larkin@nazarethcare.com,nazarethcare.com.au,"Monday: 12AM-11PM, Tuesday: 12AM-11PM, Wednesday: 12AM-11PM, Thursday: 12AM-11PM, Friday: 12AM-11PM, Saturday: 12AM-11PM, Sunday: 12AM-11PM",Daily Living & Family Support Services,143.8452226,-37.5539971
Independence Australia Community Solutio,"Orchid ave, Dandenong north (SASI)","6 Orchid Avenue, Dandenong North, VIC 3175",1300 577 305,enquiries@sasi.org.au,https://www.independenceaustralia.com.au/,"Monday: 12AM-11PM, Tuesday: 12AM-11PM, Wednesday: 12AM-11PM, Thursday: 12AM-11PM, Friday: 12AM-11PM, Saturday: 12AM-11PM, Sunday: 12AM-11PM",Daily Living & Family Support Services,145.1998774,-37.9619534
Baptcare Ltd,Baptcare - Westhaven Community,"50 Pickett Street, Footscray, VIC 3011",03 8371 3800,mfoley@baptcare.org.au,www.baptcare.org.au,"Monday: 12AM-11PM, Tuesday: 12AM-11PM, Wednesday: 12AM-11PM, Thursday: 12AM-11PM, Friday: 12AM-11PM, Saturday: 12AM-11PM, Sunday: 12AM-11PM",Daily Living & Family Support Services,144.8943285,-37.8010116
Ukrainian Elderly Peoples Home,Kalyna Care,"Kalyna Care, 344 Taylors Road, Delahey, VIC 3037",03 9116 4100,jennifer.ibanez@kalynacare.com.au,www.kalynacare.com.au,"Monday: 12AM-11PM, Tuesday: 12AM-11PM, Wednesday: 12AM-11PM, Thursday: 12AM-11PM, Friday: 12AM-11PM, Saturday: 12AM-11PM, Sunday: 12AM-11PM",Daily Living & Family Support Services,144.772341,-37.725433
Vass,VASS Head Office,"Building C1, 2nd Street, Broadmeadows, VIC 3047",03 9359 2861,mail@vass.org.au,www.vass.org.au,"Monday: 9AM-5PM, Tuesday: 9AM-5PM, Wednesday: 9AM-5PM, Thursday: 9AM-5PM, Friday: 9AM-5PM, Saturday: 9AM-5PM, Sunday: 9AM-5PM",Daily Living & Family Support Services,144.944782,-37.686595
Melbourne Health & Care Services,Melbourne health Care Services Keysborou,"Kingsclere Avenue, Keysborough, VIC 3173",1800 849 062,melbournehealthcareservices@gmail.com,https://www.melbournehealthcare.com.au/,"Monday: 9AM-5PM, Tuesday: 9AM-5PM, Wednesday: 9AM-5PM, Thursday: 9AM-5PM, Friday: 9AM-5PM",Daily Living & Family Support Services,145.1697191,-37.9873523
Amana Pty Ltd,Amana disability services,"3 Yellowfin Drive, Tarneit, VIC 3029",0402 138 836,amaanacare1@gmail.com,www.amanadisabilityservices.com.au,"Monday: 9AM-5PM, Tuesday: 9AM-5PM, Wednesday: 9AM-5PM, Thursday: 9AM-5PM, Friday: 9AM-5PM, Saturday: 9AM-5PM, Sunday: 9AM-5PM",Daily Living & Family Support Services,144.6531573,-37.8561092
Gigglemugs Ability Provider Pty Ltd,Gigglemugs Ability Provider,"11/147, Marshalltown Road Grovedale, Grovedale, VIC 3216",0417 905 569,andy@gigglemugs.com.au,www.gigglemugs.com.au,"Monday: 9AM-5PM, Tuesday: 9AM-5PM, Wednesday: 9AM-5PM, Thursday: 9AM-5PM, Friday: 9AM-5PM",Daily Living & Family Support Services,144.343687,-38.1954815
Estia Investments Pty. Ltd.,Estia Health Werribee,"8 Russell Street, Werribee, VIC 3030",1300 682 833,admissions@estiahealth.com.au,https://www.estiahealth.com.au/,"Monday: 12AM-11PM, Tuesday: 12AM-11PM, Wednesday: 12AM-11PM, Thursday: 12AM-11PM, Friday: 12AM-11PM, Saturday: 12AM-11PM, Sunday: 12AM-11PM",Daily Living & Family Support Services,144.6649246,-37.9083979
Sia Support Services Pty Ltd,SIA Support Service's,"1 Avon Court, Wallan, VIC 3756",0451 664 024,admin@siaservice.com.au,www.siaservice.com.au,"Monday: 12AM-11PM, Tuesday: 12AM-11PM, Wednesday: 12AM-11PM, Thursday: 12AM-11PM, Friday: 12AM-11PM, Saturday: 12AM-11PM, Sunday: 12AM-11PM",Daily Living & Family Support Services,144.9936846,-37.4218703
Bj Care Services Pty Ltd,Rosella House,"142 Rosella Avenue, Werribee, VIC 3030",0415 089 807,admin@bjcareservices.com.au,www.bjcareservices.com.au,Monday: 9AM-5PM,Daily Living & Family Support Services,144.6710992,-37.8796432
Pinnacle Inc,Rural Options,"142 Commercial Road, Stawell, VIC 3380",03 5358 5122,coordrural@pinnacleinc.com.au,www.pinnacleinc.com.au,"Monday: 8AM-4PM, Tuesday: 8AM-4PM, Wednesday: 8AM-4PM, Thursday: 8AM-4PM, Friday: 8AM-4PM",Daily Living & Family Support Services,142.7267726,-37.063339
"T/A Darebin Lodge, Darebin Support Servi",Darebin Lodge,"Darebin Lodge, 116 Tyler Street, Preston, VIC 3072",03 8414 0166,office@darebinlodge.com.au,www.dss.com.au,"Monday: 12AM-11PM, Tuesday: 12AM-11PM, Wednesday: 12AM-11PM, Thursday: 12AM-11PM, Friday: 12AM-11PM",Daily Living & Family Support Services,145.0259988,-37.7321593
Leisure Networks Association Inc,Whitehorse Community Resource Centre,"Unit 11, 79 Mahoneys Road, Forest Hill, VIC 3131",03 5222 3911,assist@leisurenetworks.org,www.leisurenetworks.org,"Monday: 9AM-5PM, Tuesday: 9AM-5PM, Wednesday: 9AM-5PM, Thursday: 9AM-5PM, Friday: 9AM-5PM, Saturday: 9AM-5PM, Sunday: 9AM-5PM",Daily Living & Family Support Services,145.1663672,-37.8365599
Connecting2australia,Community Connections - Traralgon,"23 Dunbar Road, Traralgon, VIC 3844",1300 111 212,info@c2a.org.au,www.connecting2australia.org.au,"Monday: 9AM-3PM, Tuesday: 9AM-3PM, Wednesday: 9AM-3PM, Thursday: 9AM-3PM, Friday: 9AM-3PM",Daily Living & Family Support Services,146.5331752,-38.2067663
Esteemed Life Care,Esteemed Life Care,"16 Onoway Approach, Mickleham, VIC 3064",0403 707 530,alizeabil@gmail.com,www.esteemedlifecare.com.au,"Monday: 12AM-11PM, Tuesday: 12AM-11PM, Wednesday: 12AM-11PM, Thursday: 12AM-11PM, Friday: 12AM-11PM, Saturday: 12AM-11PM, Sunday: 12AM-11PM",Daily Living & Family Support Services,144.8997137,-37.5439272
Estia Investments Pty. Ltd.,Estia Health Keysborough,"15 Stanley Road, Keysborough, VIC 3173",1800 543 384,mark.brandon@estiahealth.com.au,https://www.estiahealth.com.au/,"Monday: 12AM-11PM, Tuesday: 12AM-11PM, Wednesday: 12AM-11PM, Thursday: 12AM-11PM, Friday: 12AM-11PM, Saturday: 12AM-11PM, Sunday: 12AM-11PM",Daily Living & Family Support Services,145.169721,-37.9951764
Aurrum Pty. Limited,Aurrum Healesville,"Aurrum Healesville, 27 Smith Street, Healesville, VIC 3777",0439 679 537,admin@mowby.com.au,www.aurrum.com.au,"Monday: 12AM-11PM, Tuesday: 12AM-11PM, Wednesday: 12AM-11PM, Thursday: 12AM-11PM, Friday: 12AM-11PM, Saturday: 12AM-11PM, Sunday: 12AM-11PM",Daily Living & Family Support Services,145.5087256,-37.6607473
Aurora Support Services Inc.,"Aurora Support Services - High Flyers, S","851 High Street, Epping, VIC 3076",03 9401 1844,info@aurorasupportservices.org.au,www.aurorasupportservices.org.au,"Monday: 9AM-3PM, Tuesday: 9AM-3PM, Wednesday: 9AM-3PM, Thursday: 9AM-3PM, Friday: 9AM-3PM",Daily Living & Family Support Services,145.0254795,-37.6411042
Lifted Wings Pty Ltd.,Lifted Wings Head Office,"35-37 Bartlett Avenue, Croydon, VIC 3136",0406 677 148,info@liftedwings.com.au,www.liftedwings.com.au,"Monday: 9AM-5PM, Tuesday: 9AM-5PM, Wednesday: 9AM-5PM, Thursday: 9AM-5PM, Friday: 9AM-5PM",Daily Living & Family Support Services,145.2905151,-37.7822994
Independence Australia Community Solutio,"Pindara Blvd, Langwarrin (SASI)","86 Pindara Boulevard, Langwarrin, VIC 3910",1300 577 305,enquiries@sasi.org.au,https://www.independenceaustralia.com.au/,"Monday: 12AM-11PM, Tuesday: 12AM-11PM, Wednesday: 12AM-11PM, Thursday: 12AM-11PM, Friday: 12AM-11PM, Saturday: 12AM-11PM, Sunday: 12AM-11PM",Daily Living & Family Support Services,145.1879305,-38.1446506
Leap In!,Leap in! Footscray,"Footscray, Footscray, VIC 3011",1300 057 878,crew@leapin.com.au,www.leapin.com.au,"Monday: 9AM-5PM, Tuesday: 9AM-5PM, Wednesday: 9AM-5PM, Thursday: 9AM-5PM, Friday: 9AM-5PM",Daily Living & Family Support Services,144.892357,-37.7988987
Mount Your Everest Pty Ltd,Mount Your Everest,"61 Riggall Street, Broadmeadows, VIC 3047",0424 434 994,info@mountyoureverest.com.au,https://mountyoureverest.com.au/,Monday: 9AM-5PM,Daily Living & Family Support Services,144.9298883,-37.6763221
Defined Community Care Pty Ltd,Defined Community Car,"58 Victor Crescent, Narre Warren, VIC 3805",0431 677 001,info@definedcommunitycare.com.au,www.definedcommunitycare.com.au,"Monday: 8AM-5PM, Tuesday: 8AM-5PM, Wednesday: 8AM-5PM, Thursday: 8AM-5PM, Friday: 8AM-5PM, Saturday: 8AM-5PM, Sunday: 8AM-5PM",Daily Living & Family Support Services,145.3130765,-38.022612
The Personnel Group Ltd,The Personnel Group,"Unit 2, 59 King Street, Bendigo, VIC 3550",1300 874 000,hello@personnelgroup.com.au,www.personnelgroup.com.au,"Monday: 9AM-4PM, Tuesday: 9AM-4PM, Wednesday: 9AM-4PM, Thursday: 9AM-4PM, Friday: 9AM-4PM",Daily Living & Family Support Services,144.2781364,-36.7640122
Interchange Gippsland Inc,Interchange Gippsland - Bairnsdale,"30 Howitt Avenue, Eastwood, VIC 3875",1300 736 765,admin@icg.asn.au,www.icg.asn.au,"Monday: 9AM-5PM, Tuesday: 9AM-5PM, Wednesday: 9AM-5PM, Thursday: 9AM-5PM, Friday: 9AM-5PM",Daily Living & Family Support Services,147.6308744,-37.8110724
Care Nova Pty Ltd,Care Nova,"Suite 2 Red Cross Store, 13 Thompson Street, Frankston, VIC 3199",0401 344 290,info@carenova.com.au,carenova.com.au,Monday: 9AM-5PM,Daily Living & Family Support Services,145.1221147,-38.1436071
Just Better Care Gippsland,Just Better Care Gippsland,"58-60 Prince Street, Rosedale, VIC 3847",03 4114 3000,mailgipps@justbettercare.com,justbettercare.com/gippsland,"Monday: 9AM-5PM, Tuesday: 9AM-5PM, Wednesday: 9AM-5PM, Thursday: 9AM-5PM, Friday: 9AM-5PM, Saturday: 9AM-5PM, Sunday: 9AM-5PM",Daily Living & Family Support Services,146.7857731,-38.1509233
Independence Australia Community Solutio,"Grace st, Springvale (SASi)","16 Grace Street, Springvale, VIC 3171",1300 577 305,enquiries@sasi.org.au,https://www.independenceaustralia.com.au/,"Monday: 12AM-11PM, Tuesday: 12AM-11PM, Wednesday: 12AM-11PM, Thursday: 12AM-11PM, Friday: 12AM-11PM, Saturday: 12AM-11PM, Sunday: 12AM-11PM",Daily Living & Family Support Services,145.1648056,-37.9379346
Independence Australia Community Solutio,"Nepean Hwy, Cheltenham (SASI)","1351 Nepean Highway, Cheltenham, VIC 3192",1300 577 305,enquiries@sasi.org.au,https://www.independenceaustralia.com.au/,"Monday: 12AM-11PM, Tuesday: 12AM-11PM, Wednesday: 12AM-11PM, Thursday: 12AM-11PM, Friday: 12AM-11PM, Saturday: 12AM-11PM, Sunday: 12AM-11PM",Daily Living & Family Support Services,145.0623729,-37.9705406
Total Care Home Care Pty Ltd,Sayid Farah Mohamed,"Unit 2, 66 Tyler Street, Preston, VIC 3072",0426 961 831,info@totalcarehomecare.com.au,www.totalcarehomecare.com.au,"Monday: 9AM-5PM, Tuesday: 9AM-5PM, Wednesday: 9AM-5PM, Thursday: 9AM-5PM, Friday: 9AM-5PM",Daily Living & Family Support Services,145.0322709,-37.7329118
Asteria Services Incorporated,Asteria Services Incorporated,"64-68 Nelson Street, Maryborough, VIC 3465",03 5461 4111,ksinclair@asteria.net.au,www.asteria.net.au,"Monday: 8AM-4PM, Tuesday: 8AM-4PM, Wednesday: 8AM-4PM, Thursday: 8AM-4PM, Friday: 8AM-4PM",Daily Living & Family Support Services,143.7398113,-37.0626767
Lifespan Healthcare Services Pty Ltd,Lifespan Healthcare Services,"10 Tamara Court, Thomastown, VIC 3074",0421 971 148,lifespancoordination@gmail.com,www.lshealthcare.com.au,"Monday: 9AM-5PM, Tuesday: 9AM-5PM, Wednesday: 9AM-5PM, Thursday: 9AM-5PM, Friday: 9AM-5PM, Saturday: 10AM-4PM",Daily Living & Family Support Services,144.9878626,-37.6859362
Araluen Centre,Araluen Centre,"Northern Melbourne Tafe, 61 Civic Drive, Greensborough, VIC 3088",03 9439 2805,helenr@araluen.org,araluen.org.au,"Monday: 9AM-3PM, Tuesday: 9AM-3PM, Wednesday: 9AM-3PM, Thursday: 9AM-3PM, Friday: 9AM-3PM",Daily Living & Family Support Services,145.1117206,-37.6877586
Marriott Support Services,Marriott Lifestyle Hub - Hughesdale,"Unit 4, 118 Poath Road, Hughesdale, VIC 3166",0455 829 313,info@marriott.org.au,www.marriott.org.au,"Monday: 9AM-3PM, Tuesday: 9AM-3PM, Wednesday: 9AM-3PM, Thursday: 9AM-3PM, Friday: 9AM-3PM",Daily Living & Family Support Services,145.0769508,-37.8956611
Ks Life Care Pty Ltd,KS Life Care Pty Ltd - VIC,"22 St Kilda Road, St Kilda, VIC 3182",0481 331 000,melbourne@kslifecare.com.au,www.kslifecare.com.au,Monday: 9AM-5PM,Daily Living & Family Support Services,144.9834611,-37.8569941
Life Care Solutions,Life Care Solutions Respite,"16 Stanhope Street, Broadmeadows, VIC 3047",0413 441 213,wmirza@lifecares.com.au,www.lifecares.com.au,"Monday: 12AM-11PM, Tuesday: 12AM-11PM, Wednesday: 12AM-11PM, Thursday: 12AM-11PM, Friday: 12AM-11PM, Saturday: 12AM-11PM, Sunday: 12AM-11PM",Daily Living & Family Support Services,144.9340347,-37.6857179
Epic Support Services,EPIC Support Services,"228 St Kilda Road, St Kilda, VIC 3182",1300 898 948,info@epicss.com.au,www.epicss.com.au,"Monday: 9AM-5PM, Tuesday: 9AM-5PM, Wednesday: 9AM-5PM, Thursday: 9AM-5PM, Friday: 9AM-5PM",Daily Living & Family Support Services,144.9855393,-37.8628241
Estia Investments Pty. Ltd.,Estia Health Ardeer,"Estia Health Ardeer, 30 North Street, Ardeer, VIC 3022",03 9360 4552,admissions@estiahealth.com.au,https://www.estiahealth.com.au/,"Monday: 12AM-11PM, Tuesday: 12AM-11PM, Wednesday: 12AM-11PM, Thursday: 12AM-11PM, Friday: 12AM-11PM, Saturday: 12AM-11PM, Sunday: 12AM-11PM",Daily Living & Family Support Services,144.808333,-37.779324
Absolute Wellness Victoria,Absolute Wellness Victoria,"6 Black Duck Court, Lara, VIC 3212",0433 760 260,absolutewellnessvictoria@outlook.com,https://www.absolutewellnessvictoria.com,"Monday: 9AM-6PM, Tuesday: 9AM-6PM, Wednesday: 9AM-6PM, Thursday: 9AM-6PM, Friday: 9AM-6PM",Daily Living & Family Support Services,144.3781137,-38.028531
Chinese Community Social Services Centre Inc,Chinese Community Social Services Centre,"56-60 Rutland Road, Box Hill, VIC 3128",03 9898 1965,ndis@ccssci.org.au,www.ccssci.org.au/,"Monday: 9AM-5PM, Tuesday: 9AM-5PM, Wednesday: 9AM-5PM, Thursday: 9AM-5PM, Friday: 9AM-5PM",Daily Living & Family Support Services,145.127657,-37.820436
Estia Investments Pty. Ltd.,Estia Health Dandenong,"Estia Health Dandenong, 147 David Street, Dandenong, VIC 3175",1300 682 833,admissions@estiahealth.com.au,https://www.estiahealth.com.au/,"Monday: 12AM-11PM, Tuesday: 12AM-11PM, Wednesday: 12AM-11PM, Thursday: 12AM-11PM, Friday: 12AM-11PM, Saturday: 12AM-11PM, Sunday: 12AM-11PM",Daily Living & Family Support Services,145.2240295,-37.9774894
We Care Providers,We Care Providers,"175 Wheatsheaf Road, Glenroy, VIC 3046",0438 304 040,info@wecareproviders.com.au,www.wecareproviders.com.au/,"Monday: 9AM-5PM, Tuesday: 9AM-5PM, Wednesday: 9AM-5PM, Thursday: 9AM-5PM, Friday: 9AM-5PM",Daily Living & Family Support Services,144.9182914,-37.7061214
Skillsconnection Inc.,Community Connections,"96 Pound Road, Elliminyt, VIC 3250",03 5232 2042,khennigan@skillsconnection.org.au,www.skillsconnection.org.au,"Monday: 8AM-4PM, Tuesday: 8AM-4PM, Wednesday: 8AM-4PM, Thursday: 8AM-4PM, Friday: 8AM-4PM",Daily Living & Family Support Services,143.590796,-38.3542316
Inclusion Melbourne Inc,Inclusion Melbourne- South & East office,"67 Sutherland Road, Armadale, VIC 3143",03 9509 4266,includeme@inclusion.melbourne,www.inclusionmelbourne.org.au,"Monday: 8AM-5PM, Tuesday: 8AM-5PM, Wednesday: 8AM-5PM, Thursday: 8AM-5PM, Friday: 8AM-5PM, Saturday: 9AM-5PM, Sunday: 9AM-5PM",Daily Living & Family Support Services,145.0171764,-37.8561112
Inclusive Futures Network,Inclusive Futures Network,"5 Sarona Street, Dandenong, VIC 3175",0403 545 467,info@inclusivendisprograms.com.au,www.inclusivendisprograms.com.au,"Monday: 12AM-11PM, Tuesday: 12AM-11PM, Wednesday: 12AM-11PM, Thursday: 12AM-11PM, Friday: 12AM-11PM, Saturday: 12AM-11PM, Sunday: 12AM-11PM",Daily Living & Family Support Services,145.2276009,-37.9842482
Amicus Community Services,Amicus Community Services,"113 Williamson Street, Bendigo, VIC 3550",03 5441 2666,quality@amicus.org.au,www.amicus.org.au,"Monday: 9AM-5PM, Tuesday: 9AM-5PM, Wednesday: 9AM-5PM, Thursday: 9AM-5PM, Friday: 9AM-5PM",Daily Living & Family Support Services,144.285814,-36.76316
Wallara Australia Ltd.,Potter Learning Campus (PLC) and Potter,"Wintringham Eunice Seddon, 32 Potter Street, Dandenong, VIC 3175",03 9792 2985,intake@wallara.com.au,www.wallara.com.au,"Monday: 9AM-4PM, Tuesday: 9AM-4PM, Wednesday: 9AM-4PM, Thursday: 9AM-4PM, Friday: 9AM-4PM, Saturday: 9AM-5PM, Sunday: 9AM-5PM",Daily Living & Family Support Services,145.206467,-37.981547
Mecwacare,Mecwacare Rivendell House Community Cent,"8 Henry Street, Pakenham, VIC 3810",03 5941 2315,community@mecwacare.org.au,www.mecwacare.org.au,"Monday: 9AM-5PM, Tuesday: 9AM-5PM, Wednesday: 9AM-5PM, Thursday: 9AM-5PM, Friday: 9AM-5PM, Saturday: 9AM-5PM, Sunday: 9AM-5PM",Daily Living & Family Support Services,145.484584,-38.0768056
Independence Australia Community Solutio,"Woodside Ave, Frankston South (SASI)","7 Woodside Avenue, Frankston South, VIC 3199",1300 577 305,enquiries@sasi.org.au,https://www.independenceaustralia.com.au/,"Monday: 12AM-11PM, Tuesday: 12AM-11PM, Wednesday: 12AM-11PM, Thursday: 12AM-11PM, Friday: 12AM-11PM, Saturday: 12AM-11PM, Sunday: 12AM-11PM",Daily Living & Family Support Services,145.1406869,-38.1792209
Mecwacare,mecwacare Barry Fenton Centre,"72 Bowen Street, Malvern East, VIC 3145",03 9564 5100,community@mecwacare.org.au,www.mecwacare.org.au,"Monday: 9AM-5PM, Tuesday: 9AM-5PM, Wednesday: 9AM-5PM, Thursday: 9AM-5PM, Friday: 9AM-5PM, Saturday: 9AM-5PM, Sunday: 9AM-5PM",Daily Living & Family Support Services,145.0781108,-37.8812068
Kyeema Support Services Inc.,Seawinds Nursery,"191 Wellington Road, Portland, VIC 3305",03 5523 4896,seawinds@kyeema.com.au,www.kyeema.com.au,"Tuesday: 9AM-4PM, Wednesday: 9AM-4PM, Thursday: 9AM-4PM, Friday: 9AM-4PM, Saturday: 10AM-2PM",Daily Living & Family Support Services,141.6120993,-38.3743703
Wallara Australia Ltd.,Wallara Australia,"Shop 5, 114 Princes Highway, Pakenham, VIC 3810",03 9792 2985,intake@wallara.com.au,www.wallara.com.au,Monday: 9AM-5PM,Daily Living & Family Support Services,145.4762437,-38.0694764
Super Community Care Pty Ltd,Super Community Care,"54 Evesham Street, Cranbourne North, VIC 3977",0434 104 447,info@supercommunitycare.com.au,www.supercommunitycare.com.au,Monday: 9AM-5PM,Daily Living & Family Support Services,145.3198788,-38.0804738
Taronga Health Care Pty Ltd,TARONGA HEALTH CARE PTY LTD,"570 Bourke Street, Melbourne, VIC 3000",03 8488 8100,clients@tarongacare.com.au,www.tarongacare.com.au,"Monday: 12AM-11PM, Tuesday: 12AM-11PM, Wednesday: 12AM-11PM, Thursday: 12AM-11PM, Friday: 12AM-11PM, Saturday: 12AM-11PM, Sunday: 12AM-11PM",Daily Living & Family Support Services,144.9568849,-37.8158641
Communication Extra,Communication eXtra,"Cook Cottage, High Street (On Victorian Deaf College Grounds), Melbourne, VIC 3000",0475 434 517,support@communicationextra.com.au,www.communicationextra.com.au,"Monday: 9AM-5PM, Tuesday: 9AM-5PM, Wednesday: 9AM-5PM, Thursday: 9AM-5PM, Friday: 9AM-5PM",Daily Living & Family Support Services,144.9630576,-37.8136276




































































































































































































































































































































































































































































































